<?xml version="1.0" encoding="UTF-8"?>
<gpx xmlns="http://www.topografix.com/GPX/1/1" xmlns:xsi="http://www.w3.org/2001/XMLSchema-instance" xsi:schemaLocation="http://www.topografix.com/GPX/1/1 http://www.topografix.com/GPX/1/1/gpx.xsd" version="1.1" creator="gpx.py -- https://github.com/tkrajina/gpxpy">
  <trk>
    <name>Variflight_HU7067_20260615.csv</name>
    <trkseg>
      <trkpt lat="30.774044036865" lon="114.20484161377">
        <ele>0.0</ele>
        <time>2026-06-15T12:38:56</time>
      </trkpt>
      <trkpt lat="30.773996353149" lon="114.20478820801">
        <ele>0.0</ele>
        <time>2026-06-15T12:38:57</time>
      </trkpt>
      <trkpt lat="30.773895263672" lon="114.20467376709">
        <ele>0.0</ele>
        <time>2026-06-15T12:39:05</time>
      </trkpt>
      <trkpt lat="30.773834228516" lon="114.20459747314">
        <ele>0.0</ele>
        <time>2026-06-15T12:39:13</time>
      </trkpt>
      <trkpt lat="30.77375793457" lon="114.2045211792">
        <ele>0.0</ele>
        <time>2026-06-15T12:39:18</time>
      </trkpt>
      <trkpt lat="30.773700714111" lon="114.20446777344">
        <ele>0.0</ele>
        <time>2026-06-15T12:39:23</time>
      </trkpt>
      <trkpt lat="30.773624420166" lon="114.20444488525">
        <ele>0.0</ele>
        <time>2026-06-15T12:39:28</time>
      </trkpt>
      <trkpt lat="30.773553848267" lon="114.20444488525">
        <ele>0.0</ele>
        <time>2026-06-15T12:39:33</time>
      </trkpt>
      <trkpt lat="30.773494720459" lon="114.20445251465">
        <ele>0.0</ele>
        <time>2026-06-15T12:39:38</time>
      </trkpt>
      <trkpt lat="30.773380279541" lon="114.20449829102">
        <ele>0.0</ele>
        <time>2026-06-15T12:39:47</time>
      </trkpt>
      <trkpt lat="30.773357391357" lon="114.20453643799">
        <ele>0.0</ele>
        <time>2026-06-15T12:39:52</time>
      </trkpt>
      <trkpt lat="30.773403167725" lon="114.20447540283">
        <ele>0.0</ele>
        <time>2026-06-15T12:42:38</time>
      </trkpt>
      <trkpt lat="30.773473739624" lon="114.2043762207">
        <ele>0.0</ele>
        <time>2026-06-15T12:42:43</time>
      </trkpt>
      <trkpt lat="30.773574829102" lon="114.20425415039">
        <ele>0.0</ele>
        <time>2026-06-15T12:42:48</time>
      </trkpt>
      <trkpt lat="30.773666381836" lon="114.20413208008">
        <ele>0.0</ele>
        <time>2026-06-15T12:42:53</time>
      </trkpt>
      <trkpt lat="30.773752212524" lon="114.20401000977">
        <ele>0.0</ele>
        <time>2026-06-15T12:42:58</time>
      </trkpt>
      <trkpt lat="30.773849487305" lon="114.20388031006">
        <ele>0.0</ele>
        <time>2026-06-15T12:43:04</time>
      </trkpt>
      <trkpt lat="30.773950576782" lon="114.20374298096">
        <ele>0.0</ele>
        <time>2026-06-15T12:43:08</time>
      </trkpt>
      <trkpt lat="30.774055480957" lon="114.20360565186">
        <ele>0.0</ele>
        <time>2026-06-15T12:43:13</time>
      </trkpt>
      <trkpt lat="30.774160385132" lon="114.20346832275">
        <ele>0.0</ele>
        <time>2026-06-15T12:43:19</time>
      </trkpt>
      <trkpt lat="30.774284362793" lon="114.20330810547">
        <ele>0.0</ele>
        <time>2026-06-15T12:43:23</time>
      </trkpt>
      <trkpt lat="30.774410247803" lon="114.20314788818">
        <ele>0.0</ele>
        <time>2026-06-15T12:43:28</time>
      </trkpt>
      <trkpt lat="30.774536132812" lon="114.20297241211">
        <ele>0.0</ele>
        <time>2026-06-15T12:43:34</time>
      </trkpt>
      <trkpt lat="30.774604797363" lon="114.20278930664">
        <ele>0.0</ele>
        <time>2026-06-15T12:43:38</time>
      </trkpt>
      <trkpt lat="30.774559020996" lon="114.20258331299">
        <ele>0.0</ele>
        <time>2026-06-15T12:43:43</time>
      </trkpt>
      <trkpt lat="30.774486541748" lon="114.20236206055">
        <ele>0.0</ele>
        <time>2026-06-15T12:43:49</time>
      </trkpt>
      <trkpt lat="30.774509429932" lon="114.20208740234">
        <ele>0.0</ele>
        <time>2026-06-15T12:43:53</time>
      </trkpt>
      <trkpt lat="30.774625778198" lon="114.20183563232">
        <ele>0.0</ele>
        <time>2026-06-15T12:43:58</time>
      </trkpt>
      <trkpt lat="30.774648666382" lon="114.20164489746">
        <ele>0.0</ele>
        <time>2026-06-15T12:44:03</time>
      </trkpt>
      <trkpt lat="30.774602890015" lon="114.20152282715">
        <ele>0.0</ele>
        <time>2026-06-15T12:44:08</time>
      </trkpt>
      <trkpt lat="30.774490356445" lon="114.20133209229">
        <ele>0.0</ele>
        <time>2026-06-15T12:44:14</time>
      </trkpt>
      <trkpt lat="30.774370193481" lon="114.20120239258">
        <ele>0.0</ele>
        <time>2026-06-15T12:44:19</time>
      </trkpt>
      <trkpt lat="30.774194717407" lon="114.20101165771">
        <ele>0.0</ele>
        <time>2026-06-15T12:44:26</time>
      </trkpt>
      <trkpt lat="30.774021148682" lon="114.20083618164">
        <ele>0.0</ele>
        <time>2026-06-15T12:44:31</time>
      </trkpt>
      <trkpt lat="30.773815155029" lon="114.20063018799">
        <ele>0.0</ele>
        <time>2026-06-15T12:44:36</time>
      </trkpt>
      <trkpt lat="30.773601531982" lon="114.20040893555">
        <ele>0.0</ele>
        <time>2026-06-15T12:44:41</time>
      </trkpt>
      <trkpt lat="30.773229598999" lon="114.20002746582">
        <ele>0.0</ele>
        <time>2026-06-15T12:44:47</time>
      </trkpt>
      <trkpt lat="30.771789550781" lon="114.19857025146">
        <ele>0.0</ele>
        <time>2026-06-15T12:45:13</time>
      </trkpt>
      <trkpt lat="30.771553039551" lon="114.19831848145">
        <ele>0.0</ele>
        <time>2026-06-15T12:45:18</time>
      </trkpt>
      <trkpt lat="30.771423339844" lon="114.19818115234">
        <ele>0.0</ele>
        <time>2026-06-15T12:45:23</time>
      </trkpt>
      <trkpt lat="30.771331787109" lon="114.19793701172">
        <ele>0.0</ele>
        <time>2026-06-15T12:45:32</time>
      </trkpt>
      <trkpt lat="30.771366119385" lon="114.19773101807">
        <ele>0.0</ele>
        <time>2026-06-15T12:45:36</time>
      </trkpt>
      <trkpt lat="30.77147102356" lon="114.1975402832">
        <ele>0.0</ele>
        <time>2026-06-15T12:45:41</time>
      </trkpt>
      <trkpt lat="30.771564483643" lon="114.1974029541">
        <ele>0.0</ele>
        <time>2026-06-15T12:45:46</time>
      </trkpt>
      <trkpt lat="30.771726608276" lon="114.19719696045">
        <ele>0.0</ele>
        <time>2026-06-15T12:45:52</time>
      </trkpt>
      <trkpt lat="30.771903991699" lon="114.19696044922">
        <ele>0.0</ele>
        <time>2026-06-15T12:45:56</time>
      </trkpt>
      <trkpt lat="30.772029876709" lon="114.19678497314">
        <ele>0.0</ele>
        <time>2026-06-15T12:46:01</time>
      </trkpt>
      <trkpt lat="30.772190093994" lon="114.19667053223">
        <ele>0.0</ele>
        <time>2026-06-15T12:46:06</time>
      </trkpt>
      <trkpt lat="30.772356033325" lon="114.19664764404">
        <ele>0.0</ele>
        <time>2026-06-15T12:46:11</time>
      </trkpt>
      <trkpt lat="30.772579193115" lon="114.19673156738">
        <ele>0.0</ele>
        <time>2026-06-15T12:46:17</time>
      </trkpt>
      <trkpt lat="30.772579193115" lon="114.19673156738">
        <ele>0.0</ele>
        <time>2026-06-15T12:46:24</time>
      </trkpt>
      <trkpt lat="30.772579193115" lon="114.19673156738">
        <ele>0.0</ele>
        <time>2026-06-15T12:46:28</time>
      </trkpt>
      <trkpt lat="30.772727966309" lon="114.19687652588">
        <ele>0.0</ele>
        <time>2026-06-15T12:46:47</time>
      </trkpt>
      <trkpt lat="30.772798538208" lon="114.19696044922">
        <ele>0.0</ele>
        <time>2026-06-15T12:46:56</time>
      </trkpt>
      <trkpt lat="30.773229598999" lon="114.1974029541">
        <ele>0.0</ele>
        <time>2026-06-15T12:47:01</time>
      </trkpt>
      <trkpt lat="30.775148391724" lon="114.19934844971">
        <ele>0.0</ele>
        <time>2026-06-15T12:47:08</time>
      </trkpt>
      <trkpt lat="30.780349731445" lon="114.2046585083">
        <ele>83.82</ele>
        <time>2026-06-15T12:47:22</time>
      </trkpt>
      <trkpt lat="30.788452148438" lon="114.21289825439">
        <ele>99.06</ele>
        <time>2026-06-15T12:47:37</time>
      </trkpt>
      <trkpt lat="30.79695892334" lon="114.22177886963">
        <ele>312.42</ele>
        <time>2026-06-15T12:47:52</time>
      </trkpt>
      <trkpt lat="30.806175231934" lon="114.22974395752">
        <ele>495.3</ele>
        <time>2026-06-15T12:48:07</time>
      </trkpt>
      <trkpt lat="30.81409072876" lon="114.23413848877">
        <ele>609.6</ele>
        <time>2026-06-15T12:48:21</time>
      </trkpt>
      <trkpt lat="30.82307434082" lon="114.23765563965">
        <ele>731.52</ele>
        <time>2026-06-15T12:48:33</time>
      </trkpt>
      <trkpt lat="30.834665298462" lon="114.24281311035">
        <ele>876.3</ele>
        <time>2026-06-15T12:48:48</time>
      </trkpt>
      <trkpt lat="30.847091674805" lon="114.24617767334">
        <ele>1028.7</ele>
        <time>2026-06-15T12:49:03</time>
      </trkpt>
      <trkpt lat="30.860229492188" lon="114.24478149414">
        <ele>1158.24</ele>
        <time>2026-06-15T12:49:18</time>
      </trkpt>
      <trkpt lat="30.874794006348" lon="114.2425994873">
        <ele>1226.82</ele>
        <time>2026-06-15T12:49:33</time>
      </trkpt>
      <trkpt lat="30.891128540039" lon="114.2400970459">
        <ele>1310.64</ele>
        <time>2026-06-15T12:49:48</time>
      </trkpt>
      <trkpt lat="30.909009933472" lon="114.23731994629">
        <ele>1463.04</ele>
        <time>2026-06-15T12:50:03</time>
      </trkpt>
      <trkpt lat="30.926469802856" lon="114.23468780518">
        <ele>1699.26</ele>
        <time>2026-06-15T12:50:17</time>
      </trkpt>
      <trkpt lat="30.944366455078" lon="114.23191070557">
        <ele>1920.24</ele>
        <time>2026-06-15T12:50:32</time>
      </trkpt>
      <trkpt lat="30.956680297852" lon="114.22997283936">
        <ele>2042.16</ele>
        <time>2026-06-15T12:50:46</time>
      </trkpt>
      <trkpt lat="30.975580215454" lon="114.22710418701">
        <ele>2156.46</ele>
        <time>2026-06-15T12:51:01</time>
      </trkpt>
      <trkpt lat="30.996761322021" lon="114.22397613525">
        <ele>2354.58</ele>
        <time>2026-06-15T12:51:18</time>
      </trkpt>
      <trkpt lat="31.029739379883" lon="114.21909332275">
        <ele>2712.72</ele>
        <time>2026-06-15T12:51:39</time>
      </trkpt>
      <trkpt lat="31.048759460449" lon="114.21633911133">
        <ele>2887.98</ele>
        <time>2026-06-15T12:51:54</time>
      </trkpt>
      <trkpt lat="31.069702148438" lon="114.21682739258">
        <ele>3078.48</ele>
        <time>2026-06-15T12:52:13</time>
      </trkpt>
      <trkpt lat="31.085210800171" lon="114.22040557861">
        <ele>3230.88</ele>
        <time>2026-06-15T12:52:25</time>
      </trkpt>
      <trkpt lat="31.105133056641" lon="114.22819519043">
        <ele>3406.14</ele>
        <time>2026-06-15T12:52:40</time>
      </trkpt>
      <trkpt lat="31.13932800293" lon="114.24198150635">
        <ele>3695.7</ele>
        <time>2026-06-15T12:53:05</time>
      </trkpt>
      <trkpt lat="31.158622741699" lon="114.24984741211">
        <ele>3802.38</ele>
        <time>2026-06-15T12:53:20</time>
      </trkpt>
      <trkpt lat="31.180500030518" lon="114.25787353516">
        <ele>3870.96</ele>
        <time>2026-06-15T12:53:35</time>
      </trkpt>
      <trkpt lat="31.204650878906" lon="114.25904846191">
        <ele>3954.78</ele>
        <time>2026-06-15T12:53:50</time>
      </trkpt>
      <trkpt lat="31.23929977417" lon="114.25018310547">
        <ele>4046.22</ele>
        <time>2026-06-15T12:54:09</time>
      </trkpt>
      <trkpt lat="31.261413574219" lon="114.24365234375">
        <ele>4130.04</ele>
        <time>2026-06-15T12:54:21</time>
      </trkpt>
      <trkpt lat="31.312999725342" lon="114.22834777832">
        <ele>4396.74</ele>
        <time>2026-06-15T12:54:56</time>
      </trkpt>
      <trkpt lat="31.33703994751" lon="114.22125244141">
        <ele>4533.9</ele>
        <time>2026-06-15T12:55:10</time>
      </trkpt>
      <trkpt lat="31.408126831055" lon="114.20008087158">
        <ele>4960.62</ele>
        <time>2026-06-15T12:55:48</time>
      </trkpt>
      <trkpt lat="31.431335449219" lon="114.19323730469">
        <ele>5097.78</ele>
        <time>2026-06-15T12:56:02</time>
      </trkpt>
      <trkpt lat="31.463912963867" lon="114.18376159668">
        <ele>5280.66</ele>
        <time>2026-06-15T12:56:21</time>
      </trkpt>
      <trkpt lat="31.495651245117" lon="114.17460632324">
        <ele>5471.16</ele>
        <time>2026-06-15T12:56:36</time>
      </trkpt>
      <trkpt lat="31.516284942627" lon="114.16871643066">
        <ele>5570.22</ele>
        <time>2026-06-15T12:56:48</time>
      </trkpt>
      <trkpt lat="31.538679122925" lon="114.16237640381">
        <ele>5661.66</ele>
        <time>2026-06-15T12:57:02</time>
      </trkpt>
      <trkpt lat="31.576759338379" lon="114.15196228027">
        <ele>5844.54</ele>
        <time>2026-06-15T12:57:20</time>
      </trkpt>
      <trkpt lat="31.648639678955" lon="114.13314056396">
        <ele>6156.96</ele>
        <time>2026-06-15T12:58:01</time>
      </trkpt>
      <trkpt lat="31.681819915771" lon="114.12409210205">
        <ele>6332.22</ele>
        <time>2026-06-15T12:58:17</time>
      </trkpt>
      <trkpt lat="31.762660980225" lon="114.10222625732">
        <ele>6751.32</ele>
        <time>2026-06-15T12:59:02</time>
      </trkpt>
      <trkpt lat="31.800020217896" lon="114.09996795654">
        <ele>6888.48</ele>
        <time>2026-06-15T12:59:19</time>
      </trkpt>
      <trkpt lat="31.823434829712" lon="114.10456085205">
        <ele>6896.1</ele>
        <time>2026-06-15T12:59:31</time>
      </trkpt>
      <trkpt lat="31.844833374023" lon="114.11312103271">
        <ele>6888.48</ele>
        <time>2026-06-15T12:59:43</time>
      </trkpt>
      <trkpt lat="32.419509887695" lon="114.37316894531">
        <ele>6888.48</ele>
        <time>2026-06-15T13:04:53</time>
      </trkpt>
      <trkpt lat="32.47151184082" lon="114.37789154053">
        <ele>6888.48</ele>
        <time>2026-06-15T13:05:21</time>
      </trkpt>
      <trkpt lat="32.554119110107" lon="114.38539123535">
        <ele>6888.48</ele>
        <time>2026-06-15T13:06:02</time>
      </trkpt>
      <trkpt lat="32.582889556885" lon="114.38794708252">
        <ele>6888.48</ele>
        <time>2026-06-15T13:06:16</time>
      </trkpt>
      <trkpt lat="32.610534667969" lon="114.39052581787">
        <ele>6888.48</ele>
        <time>2026-06-15T13:06:31</time>
      </trkpt>
      <trkpt lat="32.635162353516" lon="114.3929977417">
        <ele>6888.48</ele>
        <time>2026-06-15T13:06:45</time>
      </trkpt>
      <trkpt lat="32.665649414062" lon="114.39591217041">
        <ele>6888.48</ele>
        <time>2026-06-15T13:07:00</time>
      </trkpt>
      <trkpt lat="32.708019256592" lon="114.39990997314">
        <ele>6888.48</ele>
        <time>2026-06-15T13:07:21</time>
      </trkpt>
      <trkpt lat="32.764430999756" lon="114.40508270264">
        <ele>6888.48</ele>
        <time>2026-06-15T13:07:51</time>
      </trkpt>
      <trkpt lat="32.798538208008" lon="114.40827178955">
        <ele>6896.1</ele>
        <time>2026-06-15T13:08:07</time>
      </trkpt>
      <trkpt lat="32.817760467529" lon="114.41002655029">
        <ele>6941.82</ele>
        <time>2026-06-15T13:08:19</time>
      </trkpt>
      <trkpt lat="32.861320495605" lon="114.4141998291">
        <ele>7094.22</ele>
        <time>2026-06-15T13:08:39</time>
      </trkpt>
      <trkpt lat="32.891441345215" lon="114.41716766357">
        <ele>7178.04</ele>
        <time>2026-06-15T13:08:53</time>
      </trkpt>
      <trkpt lat="32.921276092529" lon="114.42002868652">
        <ele>7269.48</ele>
        <time>2026-06-15T13:09:08</time>
      </trkpt>
      <trkpt lat="32.95027923584" lon="114.42272186279">
        <ele>7353.3</ele>
        <time>2026-06-15T13:09:23</time>
      </trkpt>
      <trkpt lat="32.982540130615" lon="114.42574310303">
        <ele>7452.36</ele>
        <time>2026-06-15T13:09:43</time>
      </trkpt>
      <trkpt lat="33.013366699219" lon="114.42864990234">
        <ele>7505.7</ele>
        <time>2026-06-15T13:09:58</time>
      </trkpt>
      <trkpt lat="33.043075561523" lon="114.43139648438">
        <ele>7505.7</ele>
        <time>2026-06-15T13:10:13</time>
      </trkpt>
      <trkpt lat="33.075389862061" lon="114.43441772461">
        <ele>7498.08</ele>
        <time>2026-06-15T13:10:27</time>
      </trkpt>
      <trkpt lat="33.109588623047" lon="114.43754577637">
        <ele>7498.08</ele>
        <time>2026-06-15T13:10:42</time>
      </trkpt>
      <trkpt lat="33.139530181885" lon="114.44035339355">
        <ele>7498.08</ele>
        <time>2026-06-15T13:10:57</time>
      </trkpt>
      <trkpt lat="33.170013427734" lon="114.44315338135">
        <ele>7498.08</ele>
        <time>2026-06-15T13:11:12</time>
      </trkpt>
      <trkpt lat="33.202033996582" lon="114.44609069824">
        <ele>7498.08</ele>
        <time>2026-06-15T13:11:31</time>
      </trkpt>
      <trkpt lat="33.233638763428" lon="114.44902801514">
        <ele>7498.08</ele>
        <time>2026-06-15T13:11:46</time>
      </trkpt>
      <trkpt lat="33.266555786133" lon="114.45216369629">
        <ele>7498.08</ele>
        <time>2026-06-15T13:12:01</time>
      </trkpt>
      <trkpt lat="33.295719146729" lon="114.45491027832">
        <ele>7498.08</ele>
        <time>2026-06-15T13:12:15</time>
      </trkpt>
      <trkpt lat="33.326328277588" lon="114.45774841309">
        <ele>7498.08</ele>
        <time>2026-06-15T13:12:30</time>
      </trkpt>
      <trkpt lat="33.367900848389" lon="114.46160888672">
        <ele>7498.08</ele>
        <time>2026-06-15T13:12:55</time>
      </trkpt>
      <trkpt lat="33.397888183594" lon="114.46452331543">
        <ele>7498.08</ele>
        <time>2026-06-15T13:13:10</time>
      </trkpt>
      <trkpt lat="33.428649902344" lon="114.46743011475">
        <ele>7498.08</ele>
        <time>2026-06-15T13:13:25</time>
      </trkpt>
      <trkpt lat="33.45858001709" lon="114.47030639648">
        <ele>7498.08</ele>
        <time>2026-06-15T13:13:40</time>
      </trkpt>
      <trkpt lat="33.488140106201" lon="114.47310638428">
        <ele>7498.08</ele>
        <time>2026-06-15T13:13:55</time>
      </trkpt>
      <trkpt lat="33.520748138428" lon="114.47617340088">
        <ele>7498.08</ele>
        <time>2026-06-15T13:14:09</time>
      </trkpt>
      <trkpt lat="33.553298950195" lon="114.4792175293">
        <ele>7498.08</ele>
        <time>2026-06-15T13:14:23</time>
      </trkpt>
      <trkpt lat="33.583511352539" lon="114.48201751709">
        <ele>7498.08</ele>
        <time>2026-06-15T13:14:38</time>
      </trkpt>
      <trkpt lat="33.613590240479" lon="114.48487854004">
        <ele>7498.08</ele>
        <time>2026-06-15T13:14:53</time>
      </trkpt>
      <trkpt lat="33.643432617188" lon="114.48751831055">
        <ele>7498.08</ele>
        <time>2026-06-15T13:15:08</time>
      </trkpt>
      <trkpt lat="33.666091918945" lon="114.48908996582">
        <ele>7498.08</ele>
        <time>2026-06-15T13:15:22</time>
      </trkpt>
      <trkpt lat="33.695850372314" lon="114.49105072021">
        <ele>7498.08</ele>
        <time>2026-06-15T13:15:37</time>
      </trkpt>
      <trkpt lat="33.726398468018" lon="114.49310302734">
        <ele>7498.08</ele>
        <time>2026-06-15T13:15:52</time>
      </trkpt>
      <trkpt lat="33.756362915039" lon="114.49609375">
        <ele>7498.08</ele>
        <time>2026-06-15T13:16:07</time>
      </trkpt>
      <trkpt lat="33.787147521973" lon="114.49974060059">
        <ele>7498.08</ele>
        <time>2026-06-15T13:16:22</time>
      </trkpt>
      <trkpt lat="33.817150115967" lon="114.50344085693">
        <ele>7498.08</ele>
        <time>2026-06-15T13:16:37</time>
      </trkpt>
      <trkpt lat="33.8466796875" lon="114.5069732666">
        <ele>7498.08</ele>
        <time>2026-06-15T13:16:51</time>
      </trkpt>
      <trkpt lat="33.879680633545" lon="114.51022338867">
        <ele>7498.08</ele>
        <time>2026-06-15T13:17:06</time>
      </trkpt>
      <trkpt lat="33.90938949585" lon="114.51296234131">
        <ele>7498.08</ele>
        <time>2026-06-15T13:17:21</time>
      </trkpt>
      <trkpt lat="33.939651489258" lon="114.51570892334">
        <ele>7498.08</ele>
        <time>2026-06-15T13:17:36</time>
      </trkpt>
      <trkpt lat="33.96949005127" lon="114.51844787598">
        <ele>7498.08</ele>
        <time>2026-06-15T13:17:51</time>
      </trkpt>
      <trkpt lat="34.001522064209" lon="114.52142333984">
        <ele>7498.08</ele>
        <time>2026-06-15T13:18:06</time>
      </trkpt>
      <trkpt lat="34.031890869141" lon="114.52423095703">
        <ele>7498.08</ele>
        <time>2026-06-15T13:18:21</time>
      </trkpt>
      <trkpt lat="34.061714172363" lon="114.52703857422">
        <ele>7498.08</ele>
        <time>2026-06-15T13:18:36</time>
      </trkpt>
      <trkpt lat="34.09188079834" lon="114.52972412109">
        <ele>7498.08</ele>
        <time>2026-06-15T13:18:51</time>
      </trkpt>
      <trkpt lat="34.121288299561" lon="114.53247070312">
        <ele>7498.08</ele>
        <time>2026-06-15T13:19:06</time>
      </trkpt>
      <trkpt lat="34.152099609375" lon="114.5354385376">
        <ele>7498.08</ele>
        <time>2026-06-15T13:19:21</time>
      </trkpt>
      <trkpt lat="34.182308197021" lon="114.53829956055">
        <ele>7498.08</ele>
        <time>2026-06-15T13:19:36</time>
      </trkpt>
      <trkpt lat="34.212299346924" lon="114.54109954834">
        <ele>7498.08</ele>
        <time>2026-06-15T13:19:51</time>
      </trkpt>
      <trkpt lat="34.242279052734" lon="114.54390716553">
        <ele>7498.08</ele>
        <time>2026-06-15T13:20:06</time>
      </trkpt>
      <trkpt lat="34.271430969238" lon="114.5466003418">
        <ele>7498.08</ele>
        <time>2026-06-15T13:20:21</time>
      </trkpt>
      <trkpt lat="34.302429199219" lon="114.54956817627">
        <ele>7498.08</ele>
        <time>2026-06-15T13:20:36</time>
      </trkpt>
      <trkpt lat="34.331729888916" lon="114.55242919922">
        <ele>7498.08</ele>
        <time>2026-06-15T13:20:51</time>
      </trkpt>
      <trkpt lat="34.36164855957" lon="114.5552444458">
        <ele>7498.08</ele>
        <time>2026-06-15T13:21:06</time>
      </trkpt>
      <trkpt lat="34.390979766846" lon="114.55805206299">
        <ele>7498.08</ele>
        <time>2026-06-15T13:21:21</time>
      </trkpt>
      <trkpt lat="34.421329498291" lon="114.56090545654">
        <ele>7498.08</ele>
        <time>2026-06-15T13:21:36</time>
      </trkpt>
      <trkpt lat="34.450649261475" lon="114.56379699707">
        <ele>7498.08</ele>
        <time>2026-06-15T13:21:51</time>
      </trkpt>
      <trkpt lat="34.480869293213" lon="114.56671905518">
        <ele>7498.08</ele>
        <time>2026-06-15T13:22:06</time>
      </trkpt>
      <trkpt lat="34.510848999023" lon="114.56966400146">
        <ele>7513.32</ele>
        <time>2026-06-15T13:22:21</time>
      </trkpt>
      <trkpt lat="34.540466308594" lon="114.5725479126">
        <ele>7597.14</ele>
        <time>2026-06-15T13:22:36</time>
      </trkpt>
      <trkpt lat="34.570449829102" lon="114.57551574707">
        <ele>7680.96</ele>
        <time>2026-06-15T13:22:51</time>
      </trkpt>
      <trkpt lat="34.60041809082" lon="114.57859039307">
        <ele>7772.4</ele>
        <time>2026-06-15T13:23:06</time>
      </trkpt>
      <trkpt lat="34.630828857422" lon="114.58168029785">
        <ele>7856.22</ele>
        <time>2026-06-15T13:23:21</time>
      </trkpt>
      <trkpt lat="34.661540985107" lon="114.58470916748">
        <ele>7940.04</ele>
        <time>2026-06-15T13:23:36</time>
      </trkpt>
      <trkpt lat="34.692081451416" lon="114.58763122559">
        <ele>8023.86</ele>
        <time>2026-06-15T13:23:51</time>
      </trkpt>
      <trkpt lat="34.722339630127" lon="114.59055328369">
        <ele>8130.54</ele>
        <time>2026-06-15T13:24:06</time>
      </trkpt>
      <trkpt lat="34.754688262939" lon="114.59375762939">
        <ele>8252.46</ele>
        <time>2026-06-15T13:24:25</time>
      </trkpt>
      <trkpt lat="34.785690307617" lon="114.5968170166">
        <ele>8366.76</ele>
        <time>2026-06-15T13:24:40</time>
      </trkpt>
      <trkpt lat="34.815170288086" lon="114.59962463379">
        <ele>8473.44</ele>
        <time>2026-06-15T13:24:55</time>
      </trkpt>
      <trkpt lat="34.847808837891" lon="114.60259246826">
        <ele>8587.74</ele>
        <time>2026-06-15T13:25:10</time>
      </trkpt>
      <trkpt lat="34.877311706543" lon="114.60536956787">
        <ele>8686.8</ele>
        <time>2026-06-15T13:25:25</time>
      </trkpt>
      <trkpt lat="34.906360626221" lon="114.6081237793">
        <ele>8747.76</ele>
        <time>2026-06-15T13:25:40</time>
      </trkpt>
      <trkpt lat="34.935749053955" lon="114.61093902588">
        <ele>8808.72</ele>
        <time>2026-06-15T13:25:55</time>
      </trkpt>
      <trkpt lat="34.965270996094" lon="114.61380004883">
        <ele>8869.68</ele>
        <time>2026-06-15T13:26:09</time>
      </trkpt>
      <trkpt lat="34.995971679688" lon="114.61681365967">
        <ele>8869.68</ele>
        <time>2026-06-15T13:26:24</time>
      </trkpt>
      <trkpt lat="35.02473449707" lon="114.61968994141">
        <ele>8869.68</ele>
        <time>2026-06-15T13:26:39</time>
      </trkpt>
      <trkpt lat="35.056488037109" lon="114.62282562256">
        <ele>8869.68</ele>
        <time>2026-06-15T13:26:54</time>
      </trkpt>
      <trkpt lat="35.085708618164" lon="114.62574005127">
        <ele>8869.68</ele>
        <time>2026-06-15T13:27:09</time>
      </trkpt>
      <trkpt lat="35.115982055664" lon="114.62877655029">
        <ele>8869.68</ele>
        <time>2026-06-15T13:27:24</time>
      </trkpt>
      <trkpt lat="35.147506713867" lon="114.63190460205">
        <ele>8869.68</ele>
        <time>2026-06-15T13:27:43</time>
      </trkpt>
      <trkpt lat="35.176448822021" lon="114.63478088379">
        <ele>8869.68</ele>
        <time>2026-06-15T13:27:58</time>
      </trkpt>
      <trkpt lat="35.205966949463" lon="114.6376953125">
        <ele>8869.68</ele>
        <time>2026-06-15T13:28:13</time>
      </trkpt>
      <trkpt lat="35.236598968506" lon="114.64070129395">
        <ele>8869.68</ele>
        <time>2026-06-15T13:28:28</time>
      </trkpt>
      <trkpt lat="35.265785217285" lon="114.64350128174">
        <ele>8869.68</ele>
        <time>2026-06-15T13:28:43</time>
      </trkpt>
      <trkpt lat="35.294277191162" lon="114.64619445801">
        <ele>8869.68</ele>
        <time>2026-06-15T13:28:58</time>
      </trkpt>
      <trkpt lat="35.323471069336" lon="114.64897155762">
        <ele>8869.68</ele>
        <time>2026-06-15T13:29:13</time>
      </trkpt>
      <trkpt lat="35.353309631348" lon="114.65180206299">
        <ele>8869.68</ele>
        <time>2026-06-15T13:29:28</time>
      </trkpt>
      <trkpt lat="35.382930755615" lon="114.6545791626">
        <ele>8869.68</ele>
        <time>2026-06-15T13:29:43</time>
      </trkpt>
      <trkpt lat="35.412506103516" lon="114.65738677979">
        <ele>8869.68</ele>
        <time>2026-06-15T13:29:58</time>
      </trkpt>
      <trkpt lat="35.443450927734" lon="114.6603012085">
        <ele>8869.68</ele>
        <time>2026-06-15T13:30:13</time>
      </trkpt>
      <trkpt lat="35.472339630127" lon="114.66304779053">
        <ele>8869.68</ele>
        <time>2026-06-15T13:30:28</time>
      </trkpt>
      <trkpt lat="35.501155853271" lon="114.66582489014">
        <ele>8877.3</ele>
        <time>2026-06-15T13:30:43</time>
      </trkpt>
      <trkpt lat="35.530578613281" lon="114.66857147217">
        <ele>8869.68</ele>
        <time>2026-06-15T13:30:58</time>
      </trkpt>
      <trkpt lat="35.562328338623" lon="114.67160797119">
        <ele>8869.68</ele>
        <time>2026-06-15T13:31:13</time>
      </trkpt>
      <trkpt lat="35.592315673828" lon="114.67449188232">
        <ele>8869.68</ele>
        <time>2026-06-15T13:31:28</time>
      </trkpt>
      <trkpt lat="35.62255859375" lon="114.67739868164">
        <ele>8869.68</ele>
        <time>2026-06-15T13:31:43</time>
      </trkpt>
      <trkpt lat="35.651191711426" lon="114.68013763428">
        <ele>8869.68</ele>
        <time>2026-06-15T13:31:58</time>
      </trkpt>
      <trkpt lat="35.681121826172" lon="114.68296051025">
        <ele>8869.68</ele>
        <time>2026-06-15T13:32:13</time>
      </trkpt>
      <trkpt lat="35.710918426514" lon="114.68581390381">
        <ele>8869.68</ele>
        <time>2026-06-15T13:32:28</time>
      </trkpt>
      <trkpt lat="35.740200042725" lon="114.68867492676">
        <ele>8869.68</ele>
        <time>2026-06-15T13:32:43</time>
      </trkpt>
      <trkpt lat="35.769790649414" lon="114.69148254395">
        <ele>8869.68</ele>
        <time>2026-06-15T13:32:58</time>
      </trkpt>
      <trkpt lat="35.801651000977" lon="114.69446563721">
        <ele>8869.68</ele>
        <time>2026-06-15T13:33:13</time>
      </trkpt>
      <trkpt lat="35.832366943359" lon="114.69738006592">
        <ele>8869.68</ele>
        <time>2026-06-15T13:33:28</time>
      </trkpt>
      <trkpt lat="35.860427856445" lon="114.70001220703">
        <ele>8869.68</ele>
        <time>2026-06-15T13:33:42</time>
      </trkpt>
      <trkpt lat="35.902435302734" lon="114.70404052734">
        <ele>8869.68</ele>
        <time>2026-06-15T13:34:07</time>
      </trkpt>
      <trkpt lat="35.930969238281" lon="114.70681762695">
        <ele>8869.68</ele>
        <time>2026-06-15T13:34:22</time>
      </trkpt>
      <trkpt lat="35.962459564209" lon="114.70984649658">
        <ele>8869.68</ele>
        <time>2026-06-15T13:34:37</time>
      </trkpt>
      <trkpt lat="35.993259429932" lon="114.71286773682">
        <ele>8869.68</ele>
        <time>2026-06-15T13:34:52</time>
      </trkpt>
      <trkpt lat="36.022796630859" lon="114.71569061279">
        <ele>8869.68</ele>
        <time>2026-06-15T13:35:07</time>
      </trkpt>
      <trkpt lat="36.053375244141" lon="114.71866607666">
        <ele>8869.68</ele>
        <time>2026-06-15T13:35:22</time>
      </trkpt>
      <trkpt lat="36.083385467529" lon="114.72157287598">
        <ele>8869.68</ele>
        <time>2026-06-15T13:35:37</time>
      </trkpt>
      <trkpt lat="36.113639831543" lon="114.72444152832">
        <ele>8869.68</ele>
        <time>2026-06-15T13:35:52</time>
      </trkpt>
      <trkpt lat="36.143390655518" lon="114.72730255127">
        <ele>8869.68</ele>
        <time>2026-06-15T13:36:07</time>
      </trkpt>
      <trkpt lat="36.173767089844" lon="114.73022460938">
        <ele>8869.68</ele>
        <time>2026-06-15T13:36:21</time>
      </trkpt>
      <trkpt lat="36.202377319336" lon="114.73302459717">
        <ele>8869.68</ele>
        <time>2026-06-15T13:36:36</time>
      </trkpt>
      <trkpt lat="36.232730865479" lon="114.73606109619">
        <ele>8869.68</ele>
        <time>2026-06-15T13:36:50</time>
      </trkpt>
      <trkpt lat="36.262531280518" lon="114.73903656006">
        <ele>8869.68</ele>
        <time>2026-06-15T13:37:05</time>
      </trkpt>
      <trkpt lat="36.291751861572" lon="114.7419128418">
        <ele>8869.68</ele>
        <time>2026-06-15T13:37:20</time>
      </trkpt>
      <trkpt lat="36.322570800781" lon="114.74501037598">
        <ele>8869.68</ele>
        <time>2026-06-15T13:37:35</time>
      </trkpt>
      <trkpt lat="36.362640380859" lon="114.75213623047">
        <ele>8869.68</ele>
        <time>2026-06-15T13:37:59</time>
      </trkpt>
      <trkpt lat="36.392166137695" lon="114.76259613037">
        <ele>8869.68</ele>
        <time>2026-06-15T13:38:14</time>
      </trkpt>
      <trkpt lat="36.42000579834" lon="114.77691650391">
        <ele>8869.68</ele>
        <time>2026-06-15T13:38:29</time>
      </trkpt>
      <trkpt lat="36.447841644287" lon="114.79309844971">
        <ele>8869.68</ele>
        <time>2026-06-15T13:38:44</time>
      </trkpt>
      <trkpt lat="36.47575378418" lon="114.80918884277">
        <ele>8869.68</ele>
        <time>2026-06-15T13:38:59</time>
      </trkpt>
      <trkpt lat="36.505989074707" lon="114.82665252686">
        <ele>8869.68</ele>
        <time>2026-06-15T13:39:14</time>
      </trkpt>
      <trkpt lat="36.535263061523" lon="114.84357452393">
        <ele>8869.68</ele>
        <time>2026-06-15T13:39:29</time>
      </trkpt>
      <trkpt lat="36.562866210938" lon="114.85959625244">
        <ele>8869.68</ele>
        <time>2026-06-15T13:39:44</time>
      </trkpt>
      <trkpt lat="36.591503143311" lon="114.87638092041">
        <ele>8869.68</ele>
        <time>2026-06-15T13:39:59</time>
      </trkpt>
      <trkpt lat="36.618804931641" lon="114.89227294922">
        <ele>8869.68</ele>
        <time>2026-06-15T13:40:14</time>
      </trkpt>
      <trkpt lat="36.648994445801" lon="114.90980529785">
        <ele>8869.68</ele>
        <time>2026-06-15T13:40:32</time>
      </trkpt>
      <trkpt lat="36.677623748779" lon="114.9263458252">
        <ele>8869.68</ele>
        <time>2026-06-15T13:40:47</time>
      </trkpt>
      <trkpt lat="36.705959320068" lon="114.94262695312">
        <ele>8869.68</ele>
        <time>2026-06-15T13:41:01</time>
      </trkpt>
      <trkpt lat="36.73344039917" lon="114.95848083496">
        <ele>8869.68</ele>
        <time>2026-06-15T13:41:16</time>
      </trkpt>
      <trkpt lat="36.761650085449" lon="114.97496032715">
        <ele>8869.68</ele>
        <time>2026-06-15T13:41:30</time>
      </trkpt>
      <trkpt lat="36.790191650391" lon="114.99172973633">
        <ele>8869.68</ele>
        <time>2026-06-15T13:41:45</time>
      </trkpt>
      <trkpt lat="36.818489074707" lon="115.00827026367">
        <ele>8869.68</ele>
        <time>2026-06-15T13:42:00</time>
      </trkpt>
      <trkpt lat="36.847351074219" lon="115.02510070801">
        <ele>8869.68</ele>
        <time>2026-06-15T13:42:15</time>
      </trkpt>
      <trkpt lat="36.876983642578" lon="115.04251861572">
        <ele>8869.68</ele>
        <time>2026-06-15T13:42:30</time>
      </trkpt>
      <trkpt lat="36.905731201172" lon="115.05941009521">
        <ele>8869.68</ele>
        <time>2026-06-15T13:42:45</time>
      </trkpt>
      <trkpt lat="36.935150146484" lon="115.07665252686">
        <ele>8869.68</ele>
        <time>2026-06-15T13:43:04</time>
      </trkpt>
      <trkpt lat="36.963691711426" lon="115.09342956543">
        <ele>8869.68</ele>
        <time>2026-06-15T13:43:19</time>
      </trkpt>
      <trkpt lat="36.991970062256" lon="115.11000823975">
        <ele>8869.68</ele>
        <time>2026-06-15T13:43:34</time>
      </trkpt>
      <trkpt lat="37.019622802734" lon="115.1262588501">
        <ele>8869.68</ele>
        <time>2026-06-15T13:43:49</time>
      </trkpt>
      <trkpt lat="37.047855377197" lon="115.14280700684">
        <ele>8869.68</ele>
        <time>2026-06-15T13:44:04</time>
      </trkpt>
      <trkpt lat="37.077415466309" lon="115.16024780273">
        <ele>8869.68</ele>
        <time>2026-06-15T13:44:19</time>
      </trkpt>
      <trkpt lat="37.105579376221" lon="115.17678070068">
        <ele>8869.68</ele>
        <time>2026-06-15T13:44:34</time>
      </trkpt>
      <trkpt lat="37.135250091553" lon="115.19422149658">
        <ele>8869.68</ele>
        <time>2026-06-15T13:44:49</time>
      </trkpt>
      <trkpt lat="37.162220001221" lon="115.21006011963">
        <ele>8884.92</ele>
        <time>2026-06-15T13:45:04</time>
      </trkpt>
      <trkpt lat="37.190368652344" lon="115.22647857666">
        <ele>8945.88</ele>
        <time>2026-06-15T13:45:19</time>
      </trkpt>
      <trkpt lat="37.218841552734" lon="115.243309021">
        <ele>9067.8</ele>
        <time>2026-06-15T13:45:34</time>
      </trkpt>
      <trkpt lat="37.250019073486" lon="115.26177978516">
        <ele>9166.86</ele>
        <time>2026-06-15T13:45:48</time>
      </trkpt>
      <trkpt lat="37.279777526855" lon="115.27941894531">
        <ele>9258.3</ele>
        <time>2026-06-15T13:46:07</time>
      </trkpt>
      <trkpt lat="37.308780670166" lon="115.29661560059">
        <ele>9357.36</ele>
        <time>2026-06-15T13:46:22</time>
      </trkpt>
      <trkpt lat="37.337409973145" lon="115.31362915039">
        <ele>9456.42</ele>
        <time>2026-06-15T13:46:37</time>
      </trkpt>
      <trkpt lat="37.365646362305" lon="115.33038330078">
        <ele>9486.9</ele>
        <time>2026-06-15T13:46:52</time>
      </trkpt>
      <trkpt lat="37.394989013672" lon="115.34796905518">
        <ele>9479.28</ele>
        <time>2026-06-15T13:47:07</time>
      </trkpt>
      <trkpt lat="37.425018310547" lon="115.3719329834">
        <ele>9479.28</ele>
        <time>2026-06-15T13:47:22</time>
      </trkpt>
      <trkpt lat="37.449829101562" lon="115.40254211426">
        <ele>9479.28</ele>
        <time>2026-06-15T13:47:37</time>
      </trkpt>
      <trkpt lat="37.473178863525" lon="115.43417358398">
        <ele>9479.28</ele>
        <time>2026-06-15T13:47:55</time>
      </trkpt>
      <trkpt lat="37.495559692383" lon="115.4645614624">
        <ele>9479.28</ele>
        <time>2026-06-15T13:48:10</time>
      </trkpt>
      <trkpt lat="37.518215179443" lon="115.49514770508">
        <ele>9479.28</ele>
        <time>2026-06-15T13:48:25</time>
      </trkpt>
      <trkpt lat="37.541290283203" lon="115.52620697021">
        <ele>9479.28</ele>
        <time>2026-06-15T13:48:39</time>
      </trkpt>
      <trkpt lat="37.563278198242" lon="115.55587005615">
        <ele>9479.28</ele>
        <time>2026-06-15T13:48:54</time>
      </trkpt>
      <trkpt lat="37.585601806641" lon="115.58580780029">
        <ele>9479.28</ele>
        <time>2026-06-15T13:49:09</time>
      </trkpt>
      <trkpt lat="37.607299804688" lon="115.6146774292">
        <ele>9479.28</ele>
        <time>2026-06-15T13:49:24</time>
      </trkpt>
      <trkpt lat="37.629570007324" lon="115.64453887939">
        <ele>9479.28</ele>
        <time>2026-06-15T13:49:39</time>
      </trkpt>
      <trkpt lat="37.650791168213" lon="115.67305755615">
        <ele>9479.28</ele>
        <time>2026-06-15T13:49:54</time>
      </trkpt>
      <trkpt lat="37.670768737793" lon="115.70603942871">
        <ele>9479.28</ele>
        <time>2026-06-15T13:50:09</time>
      </trkpt>
      <trkpt lat="37.687759399414" lon="115.73893737793">
        <ele>9479.28</ele>
        <time>2026-06-15T13:50:24</time>
      </trkpt>
      <trkpt lat="37.705219268799" lon="115.77304840088">
        <ele>9479.28</ele>
        <time>2026-06-15T13:50:39</time>
      </trkpt>
      <trkpt lat="37.722579956055" lon="115.80718231201">
        <ele>9479.28</ele>
        <time>2026-06-15T13:50:54</time>
      </trkpt>
      <trkpt lat="37.739948272705" lon="115.8415222168">
        <ele>9479.28</ele>
        <time>2026-06-15T13:51:09</time>
      </trkpt>
      <trkpt lat="37.757263183594" lon="115.87567138672">
        <ele>9479.28</ele>
        <time>2026-06-15T13:51:24</time>
      </trkpt>
      <trkpt lat="37.774391174316" lon="115.90940093994">
        <ele>9479.28</ele>
        <time>2026-06-15T13:51:39</time>
      </trkpt>
      <trkpt lat="37.791320800781" lon="115.94258117676">
        <ele>9479.28</ele>
        <time>2026-06-15T13:51:54</time>
      </trkpt>
      <trkpt lat="37.808521270752" lon="115.97634124756">
        <ele>9479.28</ele>
        <time>2026-06-15T13:52:09</time>
      </trkpt>
      <trkpt lat="37.826065063477" lon="116.01048278809">
        <ele>9479.28</ele>
        <time>2026-06-15T13:52:24</time>
      </trkpt>
      <trkpt lat="37.843318939209" lon="116.04438018799">
        <ele>9479.28</ele>
        <time>2026-06-15T13:52:39</time>
      </trkpt>
      <trkpt lat="37.860145568848" lon="116.07909393311">
        <ele>9479.28</ele>
        <time>2026-06-15T13:52:54</time>
      </trkpt>
      <trkpt lat="37.873596191406" lon="116.11653137207">
        <ele>9479.28</ele>
        <time>2026-06-15T13:53:09</time>
      </trkpt>
      <trkpt lat="37.886032104492" lon="116.15371704102">
        <ele>9479.28</ele>
        <time>2026-06-15T13:53:24</time>
      </trkpt>
      <trkpt lat="37.898597717285" lon="116.19152832031">
        <ele>9479.28</ele>
        <time>2026-06-15T13:53:39</time>
      </trkpt>
      <trkpt lat="37.911678314209" lon="116.23135375977">
        <ele>9479.28</ele>
        <time>2026-06-15T13:53:58</time>
      </trkpt>
      <trkpt lat="37.925220489502" lon="116.27275085449">
        <ele>9479.28</ele>
        <time>2026-06-15T13:54:13</time>
      </trkpt>
      <trkpt lat="37.937576293945" lon="116.31079864502">
        <ele>9479.28</ele>
        <time>2026-06-15T13:54:26</time>
      </trkpt>
      <trkpt lat="37.951759338379" lon="116.35387420654">
        <ele>9479.28</ele>
        <time>2026-06-15T13:54:46</time>
      </trkpt>
      <trkpt lat="37.965351104736" lon="116.39471435547">
        <ele>9479.28</ele>
        <time>2026-06-15T13:55:01</time>
      </trkpt>
      <trkpt lat="37.977691650391" lon="116.43137359619">
        <ele>9479.28</ele>
        <time>2026-06-15T13:55:15</time>
      </trkpt>
      <trkpt lat="37.990905761719" lon="116.47061920166">
        <ele>9479.28</ele>
        <time>2026-06-15T13:55:30</time>
      </trkpt>
      <trkpt lat="38.003677368164" lon="116.50860595703">
        <ele>9479.28</ele>
        <time>2026-06-15T13:55:45</time>
      </trkpt>
      <trkpt lat="38.016094207764" lon="116.54565429688">
        <ele>9479.28</ele>
        <time>2026-06-15T13:55:59</time>
      </trkpt>
      <trkpt lat="38.029998779297" lon="116.58702850342">
        <ele>9479.28</ele>
        <time>2026-06-15T13:56:18</time>
      </trkpt>
      <trkpt lat="38.042953491211" lon="116.62536621094">
        <ele>9479.28</ele>
        <time>2026-06-15T13:56:33</time>
      </trkpt>
      <trkpt lat="38.055770874023" lon="116.66317749023">
        <ele>9479.28</ele>
        <time>2026-06-15T13:56:48</time>
      </trkpt>
      <trkpt lat="38.068836212158" lon="116.70137786865">
        <ele>9479.28</ele>
        <time>2026-06-15T13:57:03</time>
      </trkpt>
      <trkpt lat="38.081733703613" lon="116.73892974854">
        <ele>9479.28</ele>
        <time>2026-06-15T13:57:18</time>
      </trkpt>
      <trkpt lat="38.095138549805" lon="116.77756500244">
        <ele>9479.28</ele>
        <time>2026-06-15T13:57:33</time>
      </trkpt>
      <trkpt lat="38.108451843262" lon="116.81523895264">
        <ele>9479.28</ele>
        <time>2026-06-15T13:57:48</time>
      </trkpt>
      <trkpt lat="38.121917724609" lon="116.85286712646">
        <ele>9479.28</ele>
        <time>2026-06-15T13:58:03</time>
      </trkpt>
      <trkpt lat="38.136795043945" lon="116.89441680908">
        <ele>9479.28</ele>
        <time>2026-06-15T13:58:18</time>
      </trkpt>
      <trkpt lat="38.149932861328" lon="116.93112945557">
        <ele>9479.28</ele>
        <time>2026-06-15T13:58:32</time>
      </trkpt>
      <trkpt lat="38.163528442383" lon="116.96920776367">
        <ele>9479.28</ele>
        <time>2026-06-15T13:58:47</time>
      </trkpt>
      <trkpt lat="38.177310943604" lon="117.00743103027">
        <ele>9479.28</ele>
        <time>2026-06-15T13:59:02</time>
      </trkpt>
      <trkpt lat="38.190803527832" lon="117.0446395874">
        <ele>9479.28</ele>
        <time>2026-06-15T13:59:17</time>
      </trkpt>
      <trkpt lat="38.205413818359" lon="117.08451080322">
        <ele>9479.28</ele>
        <time>2026-06-15T13:59:32</time>
      </trkpt>
      <trkpt lat="38.219329833984" lon="117.12261199951">
        <ele>9479.28</ele>
        <time>2026-06-15T13:59:47</time>
      </trkpt>
      <trkpt lat="38.232746124268" lon="117.15957641602">
        <ele>9479.28</ele>
        <time>2026-06-15T14:00:02</time>
      </trkpt>
      <trkpt lat="38.246154785156" lon="117.19653320312">
        <ele>9479.28</ele>
        <time>2026-06-15T14:00:17</time>
      </trkpt>
      <trkpt lat="38.259376525879" lon="117.23301696777">
        <ele>9479.28</ele>
        <time>2026-06-15T14:00:32</time>
      </trkpt>
      <trkpt lat="38.273025512695" lon="117.2709274292">
        <ele>9479.28</ele>
        <time>2026-06-15T14:00:47</time>
      </trkpt>
      <trkpt lat="38.286388397217" lon="117.30798339844">
        <ele>9479.28</ele>
        <time>2026-06-15T14:01:02</time>
      </trkpt>
      <trkpt lat="38.299621582031" lon="117.34468078613">
        <ele>9479.28</ele>
        <time>2026-06-15T14:01:17</time>
      </trkpt>
      <trkpt lat="38.312679290771" lon="117.38097381592">
        <ele>9479.28</ele>
        <time>2026-06-15T14:01:32</time>
      </trkpt>
      <trkpt lat="38.326995849609" lon="117.42082214355">
        <ele>9479.28</ele>
        <time>2026-06-15T14:01:51</time>
      </trkpt>
      <trkpt lat="38.340270996094" lon="117.45776367188">
        <ele>9479.28</ele>
        <time>2026-06-15T14:02:06</time>
      </trkpt>
      <trkpt lat="38.353271484375" lon="117.49423980713">
        <ele>9479.28</ele>
        <time>2026-06-15T14:02:21</time>
      </trkpt>
      <trkpt lat="38.366306304932" lon="117.53078460693">
        <ele>9479.28</ele>
        <time>2026-06-15T14:02:36</time>
      </trkpt>
      <trkpt lat="38.379711151123" lon="117.56816101074">
        <ele>9479.28</ele>
        <time>2026-06-15T14:02:51</time>
      </trkpt>
      <trkpt lat="38.392730712891" lon="117.60443878174">
        <ele>9479.28</ele>
        <time>2026-06-15T14:03:06</time>
      </trkpt>
      <trkpt lat="38.405876159668" lon="117.6411819458">
        <ele>9479.28</ele>
        <time>2026-06-15T14:03:21</time>
      </trkpt>
      <trkpt lat="38.419281005859" lon="117.67844390869">
        <ele>9479.28</ele>
        <time>2026-06-15T14:03:36</time>
      </trkpt>
      <trkpt lat="38.432189941406" lon="117.71408843994">
        <ele>9479.28</ele>
        <time>2026-06-15T14:03:51</time>
      </trkpt>
      <trkpt lat="38.445510864258" lon="117.75110626221">
        <ele>9479.28</ele>
        <time>2026-06-15T14:04:06</time>
      </trkpt>
      <trkpt lat="38.458599090576" lon="117.7879486084">
        <ele>9479.28</ele>
        <time>2026-06-15T14:04:21</time>
      </trkpt>
      <trkpt lat="38.472106933594" lon="117.82682037354">
        <ele>9479.28</ele>
        <time>2026-06-15T14:04:36</time>
      </trkpt>
      <trkpt lat="38.484878540039" lon="117.86335754395">
        <ele>9479.28</ele>
        <time>2026-06-15T14:04:51</time>
      </trkpt>
      <trkpt lat="38.494930267334" lon="117.88708496094">
        <ele>9479.28</ele>
        <time>2026-06-15T14:05:02</time>
      </trkpt>
      <trkpt lat="38.513179779053" lon="117.91857910156">
        <ele>9479.28</ele>
        <time>2026-06-15T14:05:16</time>
      </trkpt>
      <trkpt lat="38.534641265869" lon="117.94793701172">
        <ele>9479.28</ele>
        <time>2026-06-15T14:05:31</time>
      </trkpt>
      <trkpt lat="38.557529449463" lon="117.97817993164">
        <ele>9479.28</ele>
        <time>2026-06-15T14:05:46</time>
      </trkpt>
      <trkpt lat="38.5810546875" lon="118.00904846191">
        <ele>9479.28</ele>
        <time>2026-06-15T14:06:01</time>
      </trkpt>
      <trkpt lat="38.602325439453" lon="118.03698730469">
        <ele>9479.28</ele>
        <time>2026-06-15T14:06:16</time>
      </trkpt>
      <trkpt lat="38.624206542969" lon="118.06610107422">
        <ele>9479.28</ele>
        <time>2026-06-15T14:06:31</time>
      </trkpt>
      <trkpt lat="38.64533996582" lon="118.09423828125">
        <ele>9479.28</ele>
        <time>2026-06-15T14:06:46</time>
      </trkpt>
      <trkpt lat="38.666893005371" lon="118.12255859375">
        <ele>9479.28</ele>
        <time>2026-06-15T14:07:01</time>
      </trkpt>
      <trkpt lat="38.689361572266" lon="118.15180969238">
        <ele>9479.28</ele>
        <time>2026-06-15T14:07:16</time>
      </trkpt>
      <trkpt lat="38.71070098877" lon="118.17957305908">
        <ele>9479.28</ele>
        <time>2026-06-15T14:07:31</time>
      </trkpt>
      <trkpt lat="38.732719421387" lon="118.20837402344">
        <ele>9479.28</ele>
        <time>2026-06-15T14:07:46</time>
      </trkpt>
      <trkpt lat="38.754318237305" lon="118.23677062988">
        <ele>9479.28</ele>
        <time>2026-06-15T14:08:01</time>
      </trkpt>
      <trkpt lat="38.776153564453" lon="118.26579284668">
        <ele>9479.28</ele>
        <time>2026-06-15T14:08:16</time>
      </trkpt>
      <trkpt lat="38.797576904297" lon="118.294090271">
        <ele>9479.28</ele>
        <time>2026-06-15T14:08:31</time>
      </trkpt>
      <trkpt lat="38.819538116455" lon="118.32293701172">
        <ele>9479.28</ele>
        <time>2026-06-15T14:08:46</time>
      </trkpt>
      <trkpt lat="38.841751098633" lon="118.35195159912">
        <ele>9479.28</ele>
        <time>2026-06-15T14:09:01</time>
      </trkpt>
      <trkpt lat="38.863300323486" lon="118.38012695312">
        <ele>9479.28</ele>
        <time>2026-06-15T14:09:16</time>
      </trkpt>
      <trkpt lat="38.885601043701" lon="118.40753173828">
        <ele>9479.28</ele>
        <time>2026-06-15T14:09:31</time>
      </trkpt>
      <trkpt lat="38.911388397217" lon="118.43041992188">
        <ele>9479.28</ele>
        <time>2026-06-15T14:09:46</time>
      </trkpt>
      <trkpt lat="38.939300537109" lon="118.44683074951">
        <ele>9479.28</ele>
        <time>2026-06-15T14:10:01</time>
      </trkpt>
      <trkpt lat="38.968132019043" lon="118.46057128906">
        <ele>9479.28</ele>
        <time>2026-06-15T14:10:16</time>
      </trkpt>
      <trkpt lat="38.996109008789" lon="118.47368621826">
        <ele>9479.28</ele>
        <time>2026-06-15T14:10:31</time>
      </trkpt>
      <trkpt lat="39.025451660156" lon="118.48742675781">
        <ele>9479.28</ele>
        <time>2026-06-15T14:10:46</time>
      </trkpt>
      <trkpt lat="39.054111480713" lon="118.50086212158">
        <ele>9479.28</ele>
        <time>2026-06-15T14:11:01</time>
      </trkpt>
      <trkpt lat="39.082210540771" lon="118.51418304443">
        <ele>9479.28</ele>
        <time>2026-06-15T14:11:16</time>
      </trkpt>
      <trkpt lat="39.1116065979" lon="118.52819824219">
        <ele>9479.28</ele>
        <time>2026-06-15T14:11:31</time>
      </trkpt>
      <trkpt lat="39.140121459961" lon="118.54176330566">
        <ele>9479.28</ele>
        <time>2026-06-15T14:11:46</time>
      </trkpt>
      <trkpt lat="39.170589447021" lon="118.55615234375">
        <ele>9479.28</ele>
        <time>2026-06-15T14:12:05</time>
      </trkpt>
      <trkpt lat="39.199810028076" lon="118.57000732422">
        <ele>9479.28</ele>
        <time>2026-06-15T14:12:20</time>
      </trkpt>
      <trkpt lat="39.228450775146" lon="118.58355712891">
        <ele>9479.28</ele>
        <time>2026-06-15T14:12:35</time>
      </trkpt>
      <trkpt lat="39.257675170898" lon="118.59729003906">
        <ele>9479.28</ele>
        <time>2026-06-15T14:12:50</time>
      </trkpt>
      <trkpt lat="39.286880493164" lon="118.61107635498">
        <ele>9479.28</ele>
        <time>2026-06-15T14:13:05</time>
      </trkpt>
      <trkpt lat="39.315319061279" lon="118.62451171875">
        <ele>9479.28</ele>
        <time>2026-06-15T14:13:20</time>
      </trkpt>
      <trkpt lat="39.344371795654" lon="118.63818359375">
        <ele>9479.28</ele>
        <time>2026-06-15T14:13:35</time>
      </trkpt>
      <trkpt lat="39.373580932617" lon="118.65180969238">
        <ele>9479.28</ele>
        <time>2026-06-15T14:13:50</time>
      </trkpt>
      <trkpt lat="39.403198242188" lon="118.66571807861">
        <ele>9479.28</ele>
        <time>2026-06-15T14:14:05</time>
      </trkpt>
      <trkpt lat="39.431240081787" lon="118.67883300781">
        <ele>9479.28</ele>
        <time>2026-06-15T14:14:20</time>
      </trkpt>
      <trkpt lat="39.4602394104" lon="118.6923828125">
        <ele>9479.28</ele>
        <time>2026-06-15T14:14:35</time>
      </trkpt>
      <trkpt lat="39.4892578125" lon="118.70596313477">
        <ele>9479.28</ele>
        <time>2026-06-15T14:14:50</time>
      </trkpt>
      <trkpt lat="39.518520355225" lon="118.71966552734">
        <ele>9479.28</ele>
        <time>2026-06-15T14:15:05</time>
      </trkpt>
      <trkpt lat="39.5478515625" lon="118.73157501221">
        <ele>9479.28</ele>
        <time>2026-06-15T14:15:20</time>
      </trkpt>
      <trkpt lat="39.577011108398" lon="118.74172973633">
        <ele>9479.28</ele>
        <time>2026-06-15T14:15:35</time>
      </trkpt>
      <trkpt lat="39.606410980225" lon="118.751953125">
        <ele>9479.28</ele>
        <time>2026-06-15T14:15:50</time>
      </trkpt>
      <trkpt lat="39.63578414917" lon="118.76214599609">
        <ele>9479.28</ele>
        <time>2026-06-15T14:16:05</time>
      </trkpt>
      <trkpt lat="39.664928436279" lon="118.77233886719">
        <ele>9479.28</ele>
        <time>2026-06-15T14:16:20</time>
      </trkpt>
      <trkpt lat="39.694301605225" lon="118.78265380859">
        <ele>9479.28</ele>
        <time>2026-06-15T14:16:35</time>
      </trkpt>
      <trkpt lat="39.723861694336" lon="118.79307556152">
        <ele>9479.28</ele>
        <time>2026-06-15T14:16:49</time>
      </trkpt>
      <trkpt lat="39.752353668213" lon="118.80322265625">
        <ele>9479.28</ele>
        <time>2026-06-15T14:17:04</time>
      </trkpt>
      <trkpt lat="39.786159515381" lon="118.81535339355">
        <ele>9479.28</ele>
        <time>2026-06-15T14:17:19</time>
      </trkpt>
      <trkpt lat="39.816059112549" lon="118.82608795166">
        <ele>9479.28</ele>
        <time>2026-06-15T14:17:34</time>
      </trkpt>
      <trkpt lat="39.843589782715" lon="118.83605957031">
        <ele>9479.28</ele>
        <time>2026-06-15T14:17:49</time>
      </trkpt>
      <trkpt lat="39.873279571533" lon="118.84693145752">
        <ele>9479.28</ele>
        <time>2026-06-15T14:18:04</time>
      </trkpt>
      <trkpt lat="39.901790618896" lon="118.85743713379">
        <ele>9479.28</ele>
        <time>2026-06-15T14:18:19</time>
      </trkpt>
      <trkpt lat="39.931549072266" lon="118.86840820312">
        <ele>9479.28</ele>
        <time>2026-06-15T14:18:34</time>
      </trkpt>
      <trkpt lat="39.959789276123" lon="118.87872314453">
        <ele>9479.28</ele>
        <time>2026-06-15T14:18:49</time>
      </trkpt>
      <trkpt lat="39.989498138428" lon="118.88952636719">
        <ele>9479.28</ele>
        <time>2026-06-15T14:19:04</time>
      </trkpt>
      <trkpt lat="40.018211364746" lon="118.90128326416">
        <ele>9479.28</ele>
        <time>2026-06-15T14:19:19</time>
      </trkpt>
      <trkpt lat="40.046981811523" lon="118.91558074951">
        <ele>9479.28</ele>
        <time>2026-06-15T14:19:34</time>
      </trkpt>
      <trkpt lat="40.074771881104" lon="118.92962646484">
        <ele>9479.28</ele>
        <time>2026-06-15T14:19:49</time>
      </trkpt>
      <trkpt lat="40.103488922119" lon="118.94434356689">
        <ele>9486.9</ele>
        <time>2026-06-15T14:20:04</time>
      </trkpt>
      <trkpt lat="40.131469726562" lon="118.9588394165">
        <ele>9479.28</ele>
        <time>2026-06-15T14:20:19</time>
      </trkpt>
      <trkpt lat="40.159648895264" lon="118.97382354736">
        <ele>9479.28</ele>
        <time>2026-06-15T14:20:34</time>
      </trkpt>
      <trkpt lat="40.188079833984" lon="118.98892211914">
        <ele>9479.28</ele>
        <time>2026-06-15T14:20:49</time>
      </trkpt>
      <trkpt lat="40.216690063477" lon="119.00415039062">
        <ele>9479.28</ele>
        <time>2026-06-15T14:21:04</time>
      </trkpt>
      <trkpt lat="40.245895385742" lon="119.01989746094">
        <ele>9479.28</ele>
        <time>2026-06-15T14:21:19</time>
      </trkpt>
      <trkpt lat="40.272537231445" lon="119.03814697266">
        <ele>9479.28</ele>
        <time>2026-06-15T14:21:34</time>
      </trkpt>
      <trkpt lat="40.297901153564" lon="119.06371307373">
        <ele>9479.28</ele>
        <time>2026-06-15T14:21:49</time>
      </trkpt>
      <trkpt lat="40.323360443115" lon="119.0870513916">
        <ele>9479.28</ele>
        <time>2026-06-15T14:22:04</time>
      </trkpt>
      <trkpt lat="40.349708557129" lon="119.10852813721">
        <ele>9479.28</ele>
        <time>2026-06-15T14:22:19</time>
      </trkpt>
      <trkpt lat="40.37633895874" lon="119.12986755371">
        <ele>9479.28</ele>
        <time>2026-06-15T14:22:34</time>
      </trkpt>
      <trkpt lat="40.402591705322" lon="119.15160369873">
        <ele>9479.28</ele>
        <time>2026-06-15T14:22:49</time>
      </trkpt>
      <trkpt lat="40.4289894104" lon="119.17426300049">
        <ele>9479.28</ele>
        <time>2026-06-15T14:23:04</time>
      </trkpt>
      <trkpt lat="40.454540252686" lon="119.19677734375">
        <ele>9479.28</ele>
        <time>2026-06-15T14:23:19</time>
      </trkpt>
      <trkpt lat="40.480220794678" lon="119.21990966797">
        <ele>9479.28</ele>
        <time>2026-06-15T14:23:34</time>
      </trkpt>
      <trkpt lat="40.506031036377" lon="119.2433013916">
        <ele>9479.28</ele>
        <time>2026-06-15T14:23:49</time>
      </trkpt>
      <trkpt lat="40.531871795654" lon="119.26676940918">
        <ele>9479.28</ele>
        <time>2026-06-15T14:24:04</time>
      </trkpt>
      <trkpt lat="40.557540893555" lon="119.29022216797">
        <ele>9479.28</ele>
        <time>2026-06-15T14:24:19</time>
      </trkpt>
      <trkpt lat="40.584148406982" lon="119.31458282471">
        <ele>9479.28</ele>
        <time>2026-06-15T14:24:34</time>
      </trkpt>
      <trkpt lat="40.609428405762" lon="119.33773803711">
        <ele>9479.28</ele>
        <time>2026-06-15T14:24:49</time>
      </trkpt>
      <trkpt lat="40.63549041748" lon="119.36164855957">
        <ele>9479.28</ele>
        <time>2026-06-15T14:25:04</time>
      </trkpt>
      <trkpt lat="40.662281036377" lon="119.38623046875">
        <ele>9479.28</ele>
        <time>2026-06-15T14:25:19</time>
      </trkpt>
      <trkpt lat="40.687908172607" lon="119.40978240967">
        <ele>9479.28</ele>
        <time>2026-06-15T14:25:34</time>
      </trkpt>
      <trkpt lat="40.714096069336" lon="119.43383789062">
        <ele>9479.28</ele>
        <time>2026-06-15T14:25:49</time>
      </trkpt>
      <trkpt lat="40.741199493408" lon="119.45880126953">
        <ele>9479.28</ele>
        <time>2026-06-15T14:26:08</time>
      </trkpt>
      <trkpt lat="40.768249511719" lon="119.48370361328">
        <ele>9479.28</ele>
        <time>2026-06-15T14:26:23</time>
      </trkpt>
      <trkpt lat="40.794158935547" lon="119.50756835938">
        <ele>9479.28</ele>
        <time>2026-06-15T14:26:38</time>
      </trkpt>
      <trkpt lat="40.822265625" lon="119.53338623047">
        <ele>9479.28</ele>
        <time>2026-06-15T14:26:53</time>
      </trkpt>
      <trkpt lat="40.848701477051" lon="119.55771636963">
        <ele>9479.28</ele>
        <time>2026-06-15T14:27:07</time>
      </trkpt>
      <trkpt lat="40.874401092529" lon="119.58138275146">
        <ele>9479.28</ele>
        <time>2026-06-15T14:27:22</time>
      </trkpt>
      <trkpt lat="40.901309967041" lon="119.60633850098">
        <ele>9479.28</ele>
        <time>2026-06-15T14:27:36</time>
      </trkpt>
      <trkpt lat="40.927940368652" lon="119.6309967041">
        <ele>9479.28</ele>
        <time>2026-06-15T14:27:51</time>
      </trkpt>
      <trkpt lat="40.955341339111" lon="119.65648651123">
        <ele>9479.28</ele>
        <time>2026-06-15T14:28:10</time>
      </trkpt>
      <trkpt lat="40.981838226318" lon="119.68106079102">
        <ele>9479.28</ele>
        <time>2026-06-15T14:28:25</time>
      </trkpt>
      <trkpt lat="41.00857925415" lon="119.70581054688">
        <ele>9479.28</ele>
        <time>2026-06-15T14:28:40</time>
      </trkpt>
      <trkpt lat="41.035221099854" lon="119.73046875">
        <ele>9479.28</ele>
        <time>2026-06-15T14:28:55</time>
      </trkpt>
      <trkpt lat="41.063369750977" lon="119.75665283203">
        <ele>9479.28</ele>
        <time>2026-06-15T14:29:10</time>
      </trkpt>
      <trkpt lat="41.089778900146" lon="119.78125">
        <ele>9479.28</ele>
        <time>2026-06-15T14:29:25</time>
      </trkpt>
      <trkpt lat="41.117431640625" lon="119.80695343018">
        <ele>9479.28</ele>
        <time>2026-06-15T14:29:40</time>
      </trkpt>
      <trkpt lat="41.142841339111" lon="119.83062744141">
        <ele>9479.28</ele>
        <time>2026-06-15T14:29:55</time>
      </trkpt>
      <trkpt lat="41.170471191406" lon="119.85640716553">
        <ele>9479.28</ele>
        <time>2026-06-15T14:30:10</time>
      </trkpt>
      <trkpt lat="41.196914672852" lon="119.88106536865">
        <ele>9479.28</ele>
        <time>2026-06-15T14:30:25</time>
      </trkpt>
      <trkpt lat="41.223499298096" lon="119.9059677124">
        <ele>9479.28</ele>
        <time>2026-06-15T14:30:39</time>
      </trkpt>
      <trkpt lat="41.25178527832" lon="119.93243408203">
        <ele>9479.28</ele>
        <time>2026-06-15T14:30:54</time>
      </trkpt>
      <trkpt lat="41.279174804688" lon="119.95822143555">
        <ele>9479.28</ele>
        <time>2026-06-15T14:31:09</time>
      </trkpt>
      <trkpt lat="41.304958343506" lon="119.98243713379">
        <ele>9479.28</ele>
        <time>2026-06-15T14:31:24</time>
      </trkpt>
      <trkpt lat="41.326328277588" lon="120.00247955322">
        <ele>9479.28</ele>
        <time>2026-06-15T14:31:38</time>
      </trkpt>
      <trkpt lat="41.353321075439" lon="120.02770996094">
        <ele>9479.28</ele>
        <time>2026-06-15T14:31:53</time>
      </trkpt>
      <trkpt lat="41.379501342773" lon="120.05230712891">
        <ele>9479.28</ele>
        <time>2026-06-15T14:32:08</time>
      </trkpt>
      <trkpt lat="41.406215667725" lon="120.07749938965">
        <ele>9479.28</ele>
        <time>2026-06-15T14:32:23</time>
      </trkpt>
      <trkpt lat="41.432830810547" lon="120.10266113281">
        <ele>9479.28</ele>
        <time>2026-06-15T14:32:38</time>
      </trkpt>
      <trkpt lat="41.459560394287" lon="120.12802124023">
        <ele>9479.28</ele>
        <time>2026-06-15T14:32:52</time>
      </trkpt>
      <trkpt lat="41.486843109131" lon="120.15325164795">
        <ele>9479.28</ele>
        <time>2026-06-15T14:33:07</time>
      </trkpt>
      <trkpt lat="41.514591217041" lon="120.17420959473">
        <ele>9479.28</ele>
        <time>2026-06-15T14:33:22</time>
      </trkpt>
      <trkpt lat="41.543308258057" lon="120.19470977783">
        <ele>9479.28</ele>
        <time>2026-06-15T14:33:37</time>
      </trkpt>
      <trkpt lat="41.572540283203" lon="120.21546173096">
        <ele>9479.28</ele>
        <time>2026-06-15T14:33:52</time>
      </trkpt>
      <trkpt lat="41.600940704346" lon="120.23571777344">
        <ele>9479.28</ele>
        <time>2026-06-15T14:34:07</time>
      </trkpt>
      <trkpt lat="41.630218505859" lon="120.25666046143">
        <ele>9479.28</ele>
        <time>2026-06-15T14:34:22</time>
      </trkpt>
      <trkpt lat="41.658966064453" lon="120.2771987915">
        <ele>9486.9</ele>
        <time>2026-06-15T14:34:36</time>
      </trkpt>
      <trkpt lat="41.688400268555" lon="120.29823303223">
        <ele>9570.72</ele>
        <time>2026-06-15T14:34:51</time>
      </trkpt>
      <trkpt lat="41.717693328857" lon="120.31900787354">
        <ele>9707.88</ele>
        <time>2026-06-15T14:35:06</time>
      </trkpt>
      <trkpt lat="41.746215820312" lon="120.33955383301">
        <ele>9852.66</ele>
        <time>2026-06-15T14:35:21</time>
      </trkpt>
      <trkpt lat="41.774490356445" lon="120.36045837402">
        <ele>9982.2</ele>
        <time>2026-06-15T14:35:36</time>
      </trkpt>
      <trkpt lat="41.804794311523" lon="120.38345336914">
        <ele>10088.88</ele>
        <time>2026-06-15T14:35:55</time>
      </trkpt>
      <trkpt lat="41.832118988037" lon="120.40460205078">
        <ele>10088.88</ele>
        <time>2026-06-15T14:36:10</time>
      </trkpt>
      <trkpt lat="41.863910675049" lon="120.42906951904">
        <ele>10088.88</ele>
        <time>2026-06-15T14:36:25</time>
      </trkpt>
      <trkpt lat="41.892471313477" lon="120.45085906982">
        <ele>10088.88</ele>
        <time>2026-06-15T14:36:40</time>
      </trkpt>
      <trkpt lat="41.9208984375" lon="120.47268676758">
        <ele>10088.88</ele>
        <time>2026-06-15T14:36:55</time>
      </trkpt>
      <trkpt lat="41.948638916016" lon="120.49411773682">
        <ele>10088.88</ele>
        <time>2026-06-15T14:37:10</time>
      </trkpt>
      <trkpt lat="41.976379394531" lon="120.5152130127">
        <ele>10088.88</ele>
        <time>2026-06-15T14:37:25</time>
      </trkpt>
      <trkpt lat="42.004989624023" lon="120.53675079346">
        <ele>10088.88</ele>
        <time>2026-06-15T14:37:40</time>
      </trkpt>
      <trkpt lat="42.033508300781" lon="120.55785369873">
        <ele>10088.88</ele>
        <time>2026-06-15T14:37:55</time>
      </trkpt>
      <trkpt lat="42.064544677734" lon="120.58056640625">
        <ele>10088.88</ele>
        <time>2026-06-15T14:38:10</time>
      </trkpt>
      <trkpt lat="42.092529296875" lon="120.60088348389">
        <ele>10088.88</ele>
        <time>2026-06-15T14:38:25</time>
      </trkpt>
      <trkpt lat="42.120979309082" lon="120.62152099609">
        <ele>10088.88</ele>
        <time>2026-06-15T14:38:40</time>
      </trkpt>
      <trkpt lat="42.150238037109" lon="120.64267730713">
        <ele>10088.88</ele>
        <time>2026-06-15T14:38:55</time>
      </trkpt>
      <trkpt lat="42.173675537109" lon="120.65940856934">
        <ele>10088.88</ele>
        <time>2026-06-15T14:39:09</time>
      </trkpt>
      <trkpt lat="42.20174407959" lon="120.6791305542">
        <ele>10088.88</ele>
        <time>2026-06-15T14:39:24</time>
      </trkpt>
      <trkpt lat="42.230438232422" lon="120.69929504395">
        <ele>10088.88</ele>
        <time>2026-06-15T14:39:39</time>
      </trkpt>
      <trkpt lat="42.259548187256" lon="120.71965026855">
        <ele>10088.88</ele>
        <time>2026-06-15T14:39:54</time>
      </trkpt>
      <trkpt lat="42.289169311523" lon="120.73961639404">
        <ele>10088.88</ele>
        <time>2026-06-15T14:40:09</time>
      </trkpt>
      <trkpt lat="42.317428588867" lon="120.7586517334">
        <ele>10088.88</ele>
        <time>2026-06-15T14:40:24</time>
      </trkpt>
      <trkpt lat="42.346893310547" lon="120.77825927734">
        <ele>10088.88</ele>
        <time>2026-06-15T14:40:37</time>
      </trkpt>
      <trkpt lat="42.375640869141" lon="120.79717254639">
        <ele>10088.88</ele>
        <time>2026-06-15T14:40:52</time>
      </trkpt>
      <trkpt lat="42.404949188232" lon="120.81639099121">
        <ele>10088.88</ele>
        <time>2026-06-15T14:41:07</time>
      </trkpt>
      <trkpt lat="42.434234619141" lon="120.83550262451">
        <ele>10088.88</ele>
        <time>2026-06-15T14:41:22</time>
      </trkpt>
      <trkpt lat="42.462158203125" lon="120.85433959961">
        <ele>10088.88</ele>
        <time>2026-06-15T14:41:37</time>
      </trkpt>
      <trkpt lat="42.490695953369" lon="120.87406921387">
        <ele>10088.88</ele>
        <time>2026-06-15T14:41:52</time>
      </trkpt>
      <trkpt lat="42.520442962646" lon="120.89463806152">
        <ele>10088.88</ele>
        <time>2026-06-15T14:42:07</time>
      </trkpt>
      <trkpt lat="42.549640655518" lon="120.91414642334">
        <ele>10088.88</ele>
        <time>2026-06-15T14:42:22</time>
      </trkpt>
      <trkpt lat="42.577060699463" lon="120.93244171143">
        <ele>10088.88</ele>
        <time>2026-06-15T14:42:37</time>
      </trkpt>
      <trkpt lat="42.599300384521" lon="120.9474029541">
        <ele>10088.88</ele>
        <time>2026-06-15T14:42:51</time>
      </trkpt>
      <trkpt lat="42.629749298096" lon="120.9677734375">
        <ele>10088.88</ele>
        <time>2026-06-15T14:43:06</time>
      </trkpt>
      <trkpt lat="42.662521362305" lon="120.98975372314">
        <ele>10088.88</ele>
        <time>2026-06-15T14:43:24</time>
      </trkpt>
      <trkpt lat="42.706829071045" lon="121.01946258545">
        <ele>10088.88</ele>
        <time>2026-06-15T14:43:44</time>
      </trkpt>
      <trkpt lat="42.736030578613" lon="121.0390625">
        <ele>10088.88</ele>
        <time>2026-06-15T14:43:59</time>
      </trkpt>
      <trkpt lat="42.765106201172" lon="121.05841064453">
        <ele>10088.88</ele>
        <time>2026-06-15T14:44:14</time>
      </trkpt>
      <trkpt lat="42.79402923584" lon="121.07757568359">
        <ele>10088.88</ele>
        <time>2026-06-15T14:44:29</time>
      </trkpt>
      <trkpt lat="42.823699951172" lon="121.09718322754">
        <ele>10088.88</ele>
        <time>2026-06-15T14:44:44</time>
      </trkpt>
      <trkpt lat="42.845439910889" lon="121.11161804199">
        <ele>10088.88</ele>
        <time>2026-06-15T14:44:57</time>
      </trkpt>
      <trkpt lat="42.874050140381" lon="121.1307220459">
        <ele>10088.88</ele>
        <time>2026-06-15T14:45:12</time>
      </trkpt>
      <trkpt lat="42.903469085693" lon="121.15036010742">
        <ele>10088.88</ele>
        <time>2026-06-15T14:45:27</time>
      </trkpt>
      <trkpt lat="42.925029754639" lon="121.16468048096">
        <ele>10088.88</ele>
        <time>2026-06-15T14:45:38</time>
      </trkpt>
      <trkpt lat="42.954120635986" lon="121.18386077881">
        <ele>10088.88</ele>
        <time>2026-06-15T14:45:52</time>
      </trkpt>
      <trkpt lat="42.977970123291" lon="121.1996383667">
        <ele>10088.88</ele>
        <time>2026-06-15T14:46:07</time>
      </trkpt>
      <trkpt lat="43.009368896484" lon="121.22026824951">
        <ele>10088.88</ele>
        <time>2026-06-15T14:46:22</time>
      </trkpt>
      <trkpt lat="43.036880493164" lon="121.23828125">
        <ele>10088.88</ele>
        <time>2026-06-15T14:46:37</time>
      </trkpt>
      <trkpt lat="43.066539764404" lon="121.25769805908">
        <ele>10088.88</ele>
        <time>2026-06-15T14:46:51</time>
      </trkpt>
      <trkpt lat="43.104679107666" lon="121.28279876709">
        <ele>10088.88</ele>
        <time>2026-06-15T14:47:12</time>
      </trkpt>
      <trkpt lat="43.129531860352" lon="121.29914855957">
        <ele>10088.88</ele>
        <time>2026-06-15T14:47:23</time>
      </trkpt>
      <trkpt lat="43.16189956665" lon="121.32061767578">
        <ele>10088.88</ele>
        <time>2026-06-15T14:47:38</time>
      </trkpt>
      <trkpt lat="43.195121765137" lon="121.34255981445">
        <ele>10088.88</ele>
        <time>2026-06-15T14:47:57</time>
      </trkpt>
      <trkpt lat="43.237197875977" lon="121.37037658691">
        <ele>10088.88</ele>
        <time>2026-06-15T14:48:15</time>
      </trkpt>
      <trkpt lat="43.266395568848" lon="121.38964080811">
        <ele>10088.88</ele>
        <time>2026-06-15T14:48:30</time>
      </trkpt>
      <trkpt lat="43.295909881592" lon="121.40906524658">
        <ele>10088.88</ele>
        <time>2026-06-15T14:48:45</time>
      </trkpt>
      <trkpt lat="43.327789306641" lon="121.43016052246">
        <ele>10088.88</ele>
        <time>2026-06-15T14:49:04</time>
      </trkpt>
      <trkpt lat="43.356990814209" lon="121.44921112061">
        <ele>10088.88</ele>
        <time>2026-06-15T14:49:19</time>
      </trkpt>
      <trkpt lat="43.391250610352" lon="121.47177886963">
        <ele>10088.88</ele>
        <time>2026-06-15T14:49:34</time>
      </trkpt>
      <trkpt lat="43.412891387939" lon="121.48622894287">
        <ele>10088.88</ele>
        <time>2026-06-15T14:49:47</time>
      </trkpt>
      <trkpt lat="43.443740844727" lon="121.50705718994">
        <ele>10088.88</ele>
        <time>2026-06-15T14:50:02</time>
      </trkpt>
      <trkpt lat="43.473041534424" lon="121.5269317627">
        <ele>10088.88</ele>
        <time>2026-06-15T14:50:17</time>
      </trkpt>
      <trkpt lat="43.504119873047" lon="121.54750061035">
        <ele>10088.88</ele>
        <time>2026-06-15T14:50:31</time>
      </trkpt>
      <trkpt lat="43.534679412842" lon="121.56398010254">
        <ele>10088.88</ele>
        <time>2026-06-15T14:50:46</time>
      </trkpt>
      <trkpt lat="43.566005706787" lon="121.57981109619">
        <ele>10088.88</ele>
        <time>2026-06-15T14:51:01</time>
      </trkpt>
      <trkpt lat="43.598098754883" lon="121.59719085693">
        <ele>10088.88</ele>
        <time>2026-06-15T14:51:20</time>
      </trkpt>
      <trkpt lat="43.626110076904" lon="121.62229156494">
        <ele>10088.88</ele>
        <time>2026-06-15T14:51:34</time>
      </trkpt>
      <trkpt lat="43.648590087891" lon="121.65474700928">
        <ele>10088.88</ele>
        <time>2026-06-15T14:51:48</time>
      </trkpt>
      <trkpt lat="43.666118621826" lon="121.69625854492">
        <ele>10088.88</ele>
        <time>2026-06-15T14:52:03</time>
      </trkpt>
      <trkpt lat="43.680431365967" lon="121.73812866211">
        <ele>10088.88</ele>
        <time>2026-06-15T14:52:18</time>
      </trkpt>
      <trkpt lat="43.696350097656" lon="121.78449249268">
        <ele>10088.88</ele>
        <time>2026-06-15T14:52:33</time>
      </trkpt>
      <trkpt lat="43.710689544678" lon="121.82634735107">
        <ele>10088.88</ele>
        <time>2026-06-15T14:52:48</time>
      </trkpt>
      <trkpt lat="43.725448608398" lon="121.86943817139">
        <ele>10088.88</ele>
        <time>2026-06-15T14:53:03</time>
      </trkpt>
      <trkpt lat="43.740993499756" lon="121.91508483887">
        <ele>10088.88</ele>
        <time>2026-06-15T14:53:22</time>
      </trkpt>
      <trkpt lat="43.755249023438" lon="121.9573135376">
        <ele>10088.88</ele>
        <time>2026-06-15T14:53:36</time>
      </trkpt>
      <trkpt lat="43.770320892334" lon="121.99990081787">
        <ele>10088.88</ele>
        <time>2026-06-15T14:53:51</time>
      </trkpt>
      <trkpt lat="43.789222717285" lon="122.04365539551">
        <ele>10088.88</ele>
        <time>2026-06-15T14:54:06</time>
      </trkpt>
      <trkpt lat="43.808670043945" lon="122.0816116333">
        <ele>10088.88</ele>
        <time>2026-06-15T14:54:21</time>
      </trkpt>
      <trkpt lat="43.828769683838" lon="122.12019348145">
        <ele>10088.88</ele>
        <time>2026-06-15T14:54:36</time>
      </trkpt>
      <trkpt lat="43.8489112854" lon="122.15908813477">
        <ele>10088.88</ele>
        <time>2026-06-15T14:54:51</time>
      </trkpt>
      <trkpt lat="43.868549346924" lon="122.19706726074">
        <ele>10088.88</ele>
        <time>2026-06-15T14:55:06</time>
      </trkpt>
      <trkpt lat="43.8896484375" lon="122.23778533936">
        <ele>10088.88</ele>
        <time>2026-06-15T14:55:21</time>
      </trkpt>
      <trkpt lat="43.90979385376" lon="122.27671813965">
        <ele>10088.88</ele>
        <time>2026-06-15T14:55:36</time>
      </trkpt>
      <trkpt lat="43.92924118042" lon="122.3141784668">
        <ele>10088.88</ele>
        <time>2026-06-15T14:55:51</time>
      </trkpt>
      <trkpt lat="43.94938659668" lon="122.35301208496">
        <ele>10088.88</ele>
        <time>2026-06-15T14:56:06</time>
      </trkpt>
      <trkpt lat="43.969657897949" lon="122.39194488525">
        <ele>10088.88</ele>
        <time>2026-06-15T14:56:21</time>
      </trkpt>
      <trkpt lat="43.990356445312" lon="122.43177032471">
        <ele>10088.88</ele>
        <time>2026-06-15T14:56:39</time>
      </trkpt>
      <trkpt lat="44.010108947754" lon="122.46990203857">
        <ele>10088.88</ele>
        <time>2026-06-15T14:56:54</time>
      </trkpt>
      <trkpt lat="44.029632568359" lon="122.50777435303">
        <ele>10088.88</ele>
        <time>2026-06-15T14:57:09</time>
      </trkpt>
      <trkpt lat="44.049221038818" lon="122.54566192627">
        <ele>10073.64</ele>
        <time>2026-06-15T14:57:24</time>
      </trkpt>
      <trkpt lat="44.070278167725" lon="122.58647155762">
        <ele>9989.82</ele>
        <time>2026-06-15T14:57:39</time>
      </trkpt>
      <trkpt lat="44.091068267822" lon="122.62683868408">
        <ele>9913.62</ele>
        <time>2026-06-15T14:57:54</time>
      </trkpt>
      <trkpt lat="44.111133575439" lon="122.66581726074">
        <ele>9837.42</ele>
        <time>2026-06-15T14:58:09</time>
      </trkpt>
      <trkpt lat="44.130661010742" lon="122.70387268066">
        <ele>9761.22</ele>
        <time>2026-06-15T14:58:24</time>
      </trkpt>
      <trkpt lat="44.150115966797" lon="122.74181365967">
        <ele>9685.02</ele>
        <time>2026-06-15T14:58:39</time>
      </trkpt>
      <trkpt lat="44.169368743896" lon="122.77842712402">
        <ele>9616.44</ele>
        <time>2026-06-15T14:58:54</time>
      </trkpt>
      <trkpt lat="44.189708709717" lon="122.81661987305">
        <ele>9540.24</ele>
        <time>2026-06-15T14:59:09</time>
      </trkpt>
      <trkpt lat="44.209716796875" lon="122.85428619385">
        <ele>9479.28</ele>
        <time>2026-06-15T14:59:24</time>
      </trkpt>
      <trkpt lat="44.229949951172" lon="122.89221954346">
        <ele>9479.28</ele>
        <time>2026-06-15T14:59:39</time>
      </trkpt>
      <trkpt lat="44.249668121338" lon="122.92951202393">
        <ele>9479.28</ele>
        <time>2026-06-15T14:59:54</time>
      </trkpt>
      <trkpt lat="44.269779205322" lon="122.96743011475">
        <ele>9479.28</ele>
        <time>2026-06-15T15:00:09</time>
      </trkpt>
      <trkpt lat="44.289291381836" lon="123.00440216064">
        <ele>9479.28</ele>
        <time>2026-06-15T15:00:24</time>
      </trkpt>
      <trkpt lat="44.310562133789" lon="123.04473114014">
        <ele>9479.28</ele>
        <time>2026-06-15T15:00:43</time>
      </trkpt>
      <trkpt lat="44.33044052124" lon="123.08238220215">
        <ele>9479.28</ele>
        <time>2026-06-15T15:00:58</time>
      </trkpt>
      <trkpt lat="44.343891143799" lon="123.10801696777">
        <ele>9479.28</ele>
        <time>2026-06-15T15:01:09</time>
      </trkpt>
      <trkpt lat="44.363620758057" lon="123.14569091797">
        <ele>9479.28</ele>
        <time>2026-06-15T15:01:23</time>
      </trkpt>
      <trkpt lat="44.383388519287" lon="123.18347930908">
        <ele>9479.28</ele>
        <time>2026-06-15T15:01:38</time>
      </trkpt>
      <trkpt lat="44.403388977051" lon="123.22184753418">
        <ele>9479.28</ele>
        <time>2026-06-15T15:01:53</time>
      </trkpt>
      <trkpt lat="44.423168182373" lon="123.25977325439">
        <ele>9479.28</ele>
        <time>2026-06-15T15:02:08</time>
      </trkpt>
      <trkpt lat="44.443138122559" lon="123.29808807373">
        <ele>9479.28</ele>
        <time>2026-06-15T15:02:23</time>
      </trkpt>
      <trkpt lat="44.462997436523" lon="123.33611297607">
        <ele>9479.28</ele>
        <time>2026-06-15T15:02:37</time>
      </trkpt>
      <trkpt lat="44.482681274414" lon="123.37391662598">
        <ele>9479.28</ele>
        <time>2026-06-15T15:02:51</time>
      </trkpt>
      <trkpt lat="44.497058868408" lon="123.40145111084">
        <ele>9479.28</ele>
        <time>2026-06-15T15:03:04</time>
      </trkpt>
      <trkpt lat="44.516780853271" lon="123.43936920166">
        <ele>9479.28</ele>
        <time>2026-06-15T15:03:18</time>
      </trkpt>
      <trkpt lat="44.53678894043" lon="123.47789001465">
        <ele>9479.28</ele>
        <time>2026-06-15T15:03:33</time>
      </trkpt>
      <trkpt lat="44.558258056641" lon="123.51928710938">
        <ele>9479.28</ele>
        <time>2026-06-15T15:03:48</time>
      </trkpt>
      <trkpt lat="44.580371856689" lon="123.56218719482">
        <ele>9479.28</ele>
        <time>2026-06-15T15:04:07</time>
      </trkpt>
      <trkpt lat="44.600208282471" lon="123.60060882568">
        <ele>9479.28</ele>
        <time>2026-06-15T15:04:22</time>
      </trkpt>
      <trkpt lat="44.620552062988" lon="123.63993835449">
        <ele>9479.28</ele>
        <time>2026-06-15T15:04:37</time>
      </trkpt>
      <trkpt lat="44.640197753906" lon="123.67812347412">
        <ele>9479.28</ele>
        <time>2026-06-15T15:04:52</time>
      </trkpt>
      <trkpt lat="44.661346435547" lon="123.71939849854">
        <ele>9479.28</ele>
        <time>2026-06-15T15:05:07</time>
      </trkpt>
      <trkpt lat="44.680698394775" lon="123.75717163086">
        <ele>9479.28</ele>
        <time>2026-06-15T15:05:22</time>
      </trkpt>
      <trkpt lat="44.700988769531" lon="123.79676055908">
        <ele>9479.28</ele>
        <time>2026-06-15T15:05:36</time>
      </trkpt>
      <trkpt lat="44.7216796875" lon="123.83711242676">
        <ele>9479.28</ele>
        <time>2026-06-15T15:05:51</time>
      </trkpt>
      <trkpt lat="44.741638183594" lon="123.87601470947">
        <ele>9448.8</ele>
        <time>2026-06-15T15:06:06</time>
      </trkpt>
      <trkpt lat="44.761001586914" lon="123.91413116455">
        <ele>9319.26</ele>
        <time>2026-06-15T15:06:21</time>
      </trkpt>
      <trkpt lat="44.780128479004" lon="123.95156860352">
        <ele>9166.86</ele>
        <time>2026-06-15T15:06:36</time>
      </trkpt>
      <trkpt lat="44.801315307617" lon="123.99297332764">
        <ele>8999.22</ele>
        <time>2026-06-15T15:06:55</time>
      </trkpt>
      <trkpt lat="44.820819854736" lon="124.03102111816">
        <ele>8854.44</ele>
        <time>2026-06-15T15:07:10</time>
      </trkpt>
      <trkpt lat="44.840381622314" lon="124.06912994385">
        <ele>8709.66</ele>
        <time>2026-06-15T15:07:25</time>
      </trkpt>
      <trkpt lat="44.86083984375" lon="124.10961151123">
        <ele>8549.64</ele>
        <time>2026-06-15T15:07:40</time>
      </trkpt>
      <trkpt lat="44.880218505859" lon="124.14824676514">
        <ele>8404.86</ele>
        <time>2026-06-15T15:07:53</time>
      </trkpt>
      <trkpt lat="44.899749755859" lon="124.18749237061">
        <ele>8252.46</ele>
        <time>2026-06-15T15:08:08</time>
      </trkpt>
      <trkpt lat="44.91907119751" lon="124.22653198242">
        <ele>8100.06</ele>
        <time>2026-06-15T15:08:23</time>
      </trkpt>
      <trkpt lat="44.937969207764" lon="124.26466369629">
        <ele>7955.28</ele>
        <time>2026-06-15T15:08:38</time>
      </trkpt>
      <trkpt lat="44.95703125" lon="124.30300140381">
        <ele>7795.26</ele>
        <time>2026-06-15T15:08:53</time>
      </trkpt>
      <trkpt lat="44.976238250732" lon="124.3422164917">
        <ele>7642.86</ele>
        <time>2026-06-15T15:09:08</time>
      </trkpt>
      <trkpt lat="44.994739532471" lon="124.37956237793">
        <ele>7490.46</ele>
        <time>2026-06-15T15:09:23</time>
      </trkpt>
      <trkpt lat="45.013088226318" lon="124.41623687744">
        <ele>7338.06</ele>
        <time>2026-06-15T15:09:38</time>
      </trkpt>
      <trkpt lat="45.031841278076" lon="124.45378875732">
        <ele>7178.04</ele>
        <time>2026-06-15T15:09:53</time>
      </trkpt>
      <trkpt lat="45.049900054932" lon="124.49004364014">
        <ele>7025.64</ele>
        <time>2026-06-15T15:10:08</time>
      </trkpt>
      <trkpt lat="45.067981719971" lon="124.52642822266">
        <ele>6865.62</ele>
        <time>2026-06-15T15:10:23</time>
      </trkpt>
      <trkpt lat="45.086059570312" lon="124.56298828125">
        <ele>6713.22</ele>
        <time>2026-06-15T15:10:38</time>
      </trkpt>
      <trkpt lat="45.103778839111" lon="124.59889221191">
        <ele>6560.82</ele>
        <time>2026-06-15T15:10:53</time>
      </trkpt>
      <trkpt lat="45.121360778809" lon="124.6342010498">
        <ele>6408.42</ele>
        <time>2026-06-15T15:11:08</time>
      </trkpt>
      <trkpt lat="45.139099121094" lon="124.66916656494">
        <ele>6256.02</ele>
        <time>2026-06-15T15:11:23</time>
      </trkpt>
      <trkpt lat="45.15645980835" lon="124.70300292969">
        <ele>6118.86</ele>
        <time>2026-06-15T15:11:38</time>
      </trkpt>
      <trkpt lat="45.174041748047" lon="124.73686981201">
        <ele>5989.32</ele>
        <time>2026-06-15T15:11:53</time>
      </trkpt>
      <trkpt lat="45.19068145752" lon="124.77039337158">
        <ele>5867.4</ele>
        <time>2026-06-15T15:12:08</time>
      </trkpt>
      <trkpt lat="45.20512008667" lon="124.80612945557">
        <ele>5753.1</ele>
        <time>2026-06-15T15:12:23</time>
      </trkpt>
      <trkpt lat="45.218700408936" lon="124.841796875">
        <ele>5692.14</ele>
        <time>2026-06-15T15:12:38</time>
      </trkpt>
      <trkpt lat="45.232440948486" lon="124.87776947021">
        <ele>5699.76</ele>
        <time>2026-06-15T15:12:53</time>
      </trkpt>
      <trkpt lat="45.246231079102" lon="124.91402435303">
        <ele>5699.76</ele>
        <time>2026-06-15T15:13:08</time>
      </trkpt>
      <trkpt lat="45.259708404541" lon="124.94979095459">
        <ele>5699.76</ele>
        <time>2026-06-15T15:13:23</time>
      </trkpt>
      <trkpt lat="45.27331161499" lon="124.98609924316">
        <ele>5699.76</ele>
        <time>2026-06-15T15:13:38</time>
      </trkpt>
      <trkpt lat="45.28731918335" lon="125.02340698242">
        <ele>5699.76</ele>
        <time>2026-06-15T15:13:53</time>
      </trkpt>
      <trkpt lat="45.300731658936" lon="125.05911254883">
        <ele>5600.7</ele>
        <time>2026-06-15T15:14:08</time>
      </trkpt>
      <trkpt lat="45.314350128174" lon="125.09529876709">
        <ele>5471.16</ele>
        <time>2026-06-15T15:14:23</time>
      </trkpt>
      <trkpt lat="45.327728271484" lon="125.13105773926">
        <ele>5311.14</ele>
        <time>2026-06-15T15:14:38</time>
      </trkpt>
      <trkpt lat="45.341091156006" lon="125.1665725708">
        <ele>5181.6</ele>
        <time>2026-06-15T15:14:53</time>
      </trkpt>
      <trkpt lat="45.354080200195" lon="125.20120239258">
        <ele>5036.82</ele>
        <time>2026-06-15T15:15:08</time>
      </trkpt>
      <trkpt lat="45.367359161377" lon="125.23641967773">
        <ele>4884.42</ele>
        <time>2026-06-15T15:15:23</time>
      </trkpt>
      <trkpt lat="45.380191802979" lon="125.27086639404">
        <ele>4724.4</ele>
        <time>2026-06-15T15:15:38</time>
      </trkpt>
      <trkpt lat="45.393413543701" lon="125.30637359619">
        <ele>4564.38</ele>
        <time>2026-06-15T15:15:53</time>
      </trkpt>
      <trkpt lat="45.40571975708" lon="125.3392868042">
        <ele>4404.36</ele>
        <time>2026-06-15T15:16:08</time>
      </trkpt>
      <trkpt lat="45.418689727783" lon="125.374168396">
        <ele>4229.1</ele>
        <time>2026-06-15T15:16:23</time>
      </trkpt>
      <trkpt lat="45.431209564209" lon="125.40799713135">
        <ele>4069.08</ele>
        <time>2026-06-15T15:16:38</time>
      </trkpt>
      <trkpt lat="45.443500518799" lon="125.44116210938">
        <ele>3954.78</ele>
        <time>2026-06-15T15:16:53</time>
      </trkpt>
      <trkpt lat="45.455749511719" lon="125.47425079346">
        <ele>3810.0</ele>
        <time>2026-06-15T15:17:08</time>
      </trkpt>
      <trkpt lat="45.467651367188" lon="125.5066986084">
        <ele>3733.8</ele>
        <time>2026-06-15T15:17:23</time>
      </trkpt>
      <trkpt lat="45.479141235352" lon="125.5382232666">
        <ele>3688.08</ele>
        <time>2026-06-15T15:17:38</time>
      </trkpt>
      <trkpt lat="45.490379333496" lon="125.56890869141">
        <ele>3649.98</ele>
        <time>2026-06-15T15:17:53</time>
      </trkpt>
      <trkpt lat="45.500930786133" lon="125.59752655029">
        <ele>3604.26</ele>
        <time>2026-06-15T15:18:08</time>
      </trkpt>
      <trkpt lat="45.51123046875" lon="125.62571716309">
        <ele>3558.54</ele>
        <time>2026-06-15T15:18:23</time>
      </trkpt>
      <trkpt lat="45.521759033203" lon="125.65442657471">
        <ele>3474.72</ele>
        <time>2026-06-15T15:18:38</time>
      </trkpt>
      <trkpt lat="45.53173828125" lon="125.68157196045">
        <ele>3390.9</ele>
        <time>2026-06-15T15:18:53</time>
      </trkpt>
      <trkpt lat="45.541400909424" lon="125.70783996582">
        <ele>3291.84</ele>
        <time>2026-06-15T15:19:08</time>
      </trkpt>
      <trkpt lat="45.551361083984" lon="125.73516082764">
        <ele>3185.16</ele>
        <time>2026-06-15T15:19:23</time>
      </trkpt>
      <trkpt lat="45.561088562012" lon="125.76167297363">
        <ele>3078.48</ele>
        <time>2026-06-15T15:19:38</time>
      </trkpt>
      <trkpt lat="45.570880889893" lon="125.7883682251">
        <ele>2964.18</ele>
        <time>2026-06-15T15:19:53</time>
      </trkpt>
      <trkpt lat="45.580741882324" lon="125.81522369385">
        <ele>2857.5</ele>
        <time>2026-06-15T15:20:08</time>
      </trkpt>
      <trkpt lat="45.590240478516" lon="125.84124755859">
        <ele>2743.2</ele>
        <time>2026-06-15T15:20:23</time>
      </trkpt>
      <trkpt lat="45.600040435791" lon="125.868019104">
        <ele>2628.9</ele>
        <time>2026-06-15T15:20:38</time>
      </trkpt>
      <trkpt lat="45.609508514404" lon="125.8943862915">
        <ele>2529.84</ele>
        <time>2026-06-15T15:20:53</time>
      </trkpt>
      <trkpt lat="45.619049072266" lon="125.92069244385">
        <ele>2415.54</ele>
        <time>2026-06-15T15:21:08</time>
      </trkpt>
      <trkpt lat="45.628639221191" lon="125.9471282959">
        <ele>2316.48</ele>
        <time>2026-06-15T15:21:23</time>
      </trkpt>
      <trkpt lat="45.638031005859" lon="125.97292327881">
        <ele>2278.38</ele>
        <time>2026-06-15T15:21:38</time>
      </trkpt>
      <trkpt lat="45.647190093994" lon="125.99803924561">
        <ele>2255.52</ele>
        <time>2026-06-15T15:21:53</time>
      </trkpt>
      <trkpt lat="45.655609130859" lon="126.02121734619">
        <ele>2209.8</ele>
        <time>2026-06-15T15:22:08</time>
      </trkpt>
      <trkpt lat="45.663791656494" lon="126.0438079834">
        <ele>2141.22</ele>
        <time>2026-06-15T15:22:23</time>
      </trkpt>
      <trkpt lat="45.672027587891" lon="126.06646728516">
        <ele>2072.64</ele>
        <time>2026-06-15T15:22:38</time>
      </trkpt>
      <trkpt lat="45.679759979248" lon="126.08767700195">
        <ele>1981.2</ele>
        <time>2026-06-15T15:22:53</time>
      </trkpt>
      <trkpt lat="45.687648773193" lon="126.10938262939">
        <ele>1889.76</ele>
        <time>2026-06-15T15:23:08</time>
      </trkpt>
      <trkpt lat="45.695659637451" lon="126.12995147705">
        <ele>1821.18</ele>
        <time>2026-06-15T15:23:23</time>
      </trkpt>
      <trkpt lat="45.706150054932" lon="126.14716339111">
        <ele>1821.18</ele>
        <time>2026-06-15T15:23:38</time>
      </trkpt>
      <trkpt lat="45.71809387207" lon="126.16130065918">
        <ele>1775.46</ele>
        <time>2026-06-15T15:23:53</time>
      </trkpt>
      <trkpt lat="45.729751586914" lon="126.17503356934">
        <ele>1684.02</ele>
        <time>2026-06-15T15:24:08</time>
      </trkpt>
      <trkpt lat="45.741901397705" lon="126.18949890137">
        <ele>1592.58</ele>
        <time>2026-06-15T15:24:23</time>
      </trkpt>
      <trkpt lat="45.753570556641" lon="126.20336914062">
        <ele>1508.76</ele>
        <time>2026-06-15T15:24:38</time>
      </trkpt>
      <trkpt lat="45.765319824219" lon="126.21719360352">
        <ele>1432.56</ele>
        <time>2026-06-15T15:24:53</time>
      </trkpt>
      <trkpt lat="45.776630401611" lon="126.23036956787">
        <ele>1348.74</ele>
        <time>2026-06-15T15:25:08</time>
      </trkpt>
      <trkpt lat="45.785099029541" lon="126.24033355713">
        <ele>1287.78</ele>
        <time>2026-06-15T15:25:22</time>
      </trkpt>
      <trkpt lat="45.796188354492" lon="126.2533416748">
        <ele>1242.06</ele>
        <time>2026-06-15T15:25:37</time>
      </trkpt>
      <trkpt lat="45.807731628418" lon="126.26703643799">
        <ele>1203.96</ele>
        <time>2026-06-15T15:25:52</time>
      </trkpt>
      <trkpt lat="45.818801879883" lon="126.28234863281">
        <ele>1173.48</ele>
        <time>2026-06-15T15:26:07</time>
      </trkpt>
      <trkpt lat="45.823238372803" lon="126.30197906494">
        <ele>1127.76</ele>
        <time>2026-06-15T15:26:22</time>
      </trkpt>
      <trkpt lat="45.821041107178" lon="126.3210067749">
        <ele>1082.04</ele>
        <time>2026-06-15T15:26:37</time>
      </trkpt>
      <trkpt lat="45.813499450684" lon="126.33693695068">
        <ele>1036.32</ele>
        <time>2026-06-15T15:26:52</time>
      </trkpt>
      <trkpt lat="45.804790496826" lon="126.35234832764">
        <ele>990.6</ele>
        <time>2026-06-15T15:27:07</time>
      </trkpt>
      <trkpt lat="45.796459197998" lon="126.36676025391">
        <ele>952.5</ele>
        <time>2026-06-15T15:27:22</time>
      </trkpt>
      <trkpt lat="45.788459777832" lon="126.38060760498">
        <ele>914.4</ele>
        <time>2026-06-15T15:27:37</time>
      </trkpt>
      <trkpt lat="45.777931213379" lon="126.38952636719">
        <ele>868.68</ele>
        <time>2026-06-15T15:27:52</time>
      </trkpt>
      <trkpt lat="45.765918731689" lon="126.38816070557">
        <ele>830.58</ele>
        <time>2026-06-15T15:28:07</time>
      </trkpt>
      <trkpt lat="45.754611968994" lon="126.38438415527">
        <ele>792.48</ele>
        <time>2026-06-15T15:28:22</time>
      </trkpt>
      <trkpt lat="45.743209838867" lon="126.37978363037">
        <ele>754.38</ele>
        <time>2026-06-15T15:28:37</time>
      </trkpt>
      <trkpt lat="45.731918334961" lon="126.37445831299">
        <ele>723.9</ele>
        <time>2026-06-15T15:28:52</time>
      </trkpt>
      <trkpt lat="45.722259521484" lon="126.36548614502">
        <ele>731.52</ele>
        <time>2026-06-15T15:29:07</time>
      </trkpt>
      <trkpt lat="45.713649749756" lon="126.35581970215">
        <ele>723.9</ele>
        <time>2026-06-15T15:29:22</time>
      </trkpt>
      <trkpt lat="45.705230712891" lon="126.3462600708">
        <ele>685.8</ele>
        <time>2026-06-15T15:29:37</time>
      </trkpt>
      <trkpt lat="45.696990966797" lon="126.33660888672">
        <ele>624.84</ele>
        <time>2026-06-15T15:29:52</time>
      </trkpt>
      <trkpt lat="45.688369750977" lon="126.32643127441">
        <ele>563.88</ele>
        <time>2026-06-15T15:30:07</time>
      </trkpt>
      <trkpt lat="45.680240631104" lon="126.31691741943">
        <ele>502.92</ele>
        <time>2026-06-15T15:30:22</time>
      </trkpt>
      <trkpt lat="45.671981811523" lon="126.30706787109">
        <ele>441.96</ele>
        <time>2026-06-15T15:30:37</time>
      </trkpt>
      <trkpt lat="45.663761138916" lon="126.29756164551">
        <ele>381.0</ele>
        <time>2026-06-15T15:30:52</time>
      </trkpt>
      <trkpt lat="45.656158447266" lon="126.28851318359">
        <ele>320.04</ele>
        <time>2026-06-15T15:31:07</time>
      </trkpt>
      <trkpt lat="45.649700164795" lon="126.28086853027">
        <ele>274.32</ele>
        <time>2026-06-15T15:31:21</time>
      </trkpt>
      <trkpt lat="45.640960693359" lon="126.27075958252">
        <ele>213.36</ele>
        <time>2026-06-15T15:31:36</time>
      </trkpt>
      <trkpt lat="45.631938934326" lon="126.26023864746">
        <ele>144.78</ele>
        <time>2026-06-15T15:31:51</time>
      </trkpt>
      <trkpt lat="45.626270294189" lon="126.25350952148">
        <ele>137.16</ele>
        <time>2026-06-15T15:32:05</time>
      </trkpt>
      <trkpt lat="45.621700286865" lon="126.24816894531">
        <ele>0.0</ele>
        <time>2026-06-15T15:32:22</time>
      </trkpt>
      <trkpt lat="45.62073135376" lon="126.24697113037">
        <ele>0.0</ele>
        <time>2026-06-15T15:32:33</time>
      </trkpt>
      <trkpt lat="45.619979858398" lon="126.24529266357">
        <ele>0.0</ele>
        <time>2026-06-15T15:32:48</time>
      </trkpt>
      <trkpt lat="45.619369506836" lon="126.24315643311">
        <ele>0.0</ele>
        <time>2026-06-15T15:33:09</time>
      </trkpt>
      <trkpt lat="45.618949890137" lon="126.24196624756">
        <ele>0.0</ele>
        <time>2026-06-15T15:33:24</time>
      </trkpt>
      <trkpt lat="45.616611480713" lon="126.23908996582">
        <ele>0.0</ele>
        <time>2026-06-15T15:34:12</time>
      </trkpt>
      <trkpt lat="45.61328125" lon="126.23504638672">
        <ele>0.0</ele>
        <time>2026-06-15T15:35:20</time>
      </trkpt>
      <trkpt lat="45.615070343018" lon="126.23166656494">
        <ele>0.0</ele>
        <time>2026-06-15T15:36:27</time>
      </trkpt>
      <trkpt lat="45.61563873291" lon="126.23068237305">
        <ele>0.0</ele>
        <time>2026-06-15T15:36:44</time>
      </trkpt>
      <trkpt lat="45.616058349609" lon="126.22995758057">
        <ele>0.0</ele>
        <time>2026-06-15T15:36:55</time>
      </trkpt>
      <trkpt lat="45.616561889648" lon="126.2290725708">
        <ele>0.0</ele>
        <time>2026-06-15T15:37:10</time>
      </trkpt>
      <trkpt lat="45.616970062256" lon="126.22863769531">
        <ele>0.0</ele>
        <time>2026-06-15T15:37:25</time>
      </trkpt>
      <trkpt lat="45.617221832275" lon="126.22891235352">
        <ele>0.0</ele>
        <time>2026-06-15T15:37:40</time>
      </trkpt>
      <trkpt lat="45.617279052734" lon="126.22913360596">
        <ele>0.0</ele>
        <time>2026-06-15T15:37:52</time>
      </trkpt>
      <trkpt lat="45.617328643799" lon="126.22933959961">
        <ele>0.0</ele>
        <time>2026-06-15T15:38:07</time>
      </trkpt>
      <trkpt lat="45.617340087891" lon="126.22940826416">
        <ele>0.0</ele>
        <time>2026-06-15T15:38:18</time>
      </trkpt>
    </trkseg>
  </trk>
</gpx>