<?xml version="1.0" encoding="UTF-8"?>
<gpx xmlns="http://www.topografix.com/GPX/1/1" xmlns:xsi="http://www.w3.org/2001/XMLSchema-instance" xsi:schemaLocation="http://www.topografix.com/GPX/1/1 http://www.topografix.com/GPX/1/1/gpx.xsd" version="1.1" creator="gpx.py -- https://github.com/tkrajina/gpxpy">
  <trk>
    <name>Variflight_G52829_20260527.csv</name>
    <trkseg>
      <trkpt lat="29.534999847412" lon="106.58106231689">
        <ele>2392.68</ele>
        <time>2026-05-26T23:35:04</time>
      </trkpt>
      <trkpt lat="29.516010284424" lon="106.57662963867">
        <ele>2613.66</ele>
        <time>2026-05-26T23:35:19</time>
      </trkpt>
      <trkpt lat="29.497379302979" lon="106.58126831055">
        <ele>2827.02</ele>
        <time>2026-05-26T23:35:34</time>
      </trkpt>
      <trkpt lat="29.48064994812" lon="106.59532928467">
        <ele>2987.04</ele>
        <time>2026-05-26T23:35:49</time>
      </trkpt>
      <trkpt lat="29.466260910034" lon="106.61257171631">
        <ele>3116.58</ele>
        <time>2026-05-26T23:36:04</time>
      </trkpt>
      <trkpt lat="29.450529098511" lon="106.63217163086">
        <ele>3322.32</ele>
        <time>2026-05-26T23:36:19</time>
      </trkpt>
      <trkpt lat="29.43717956543" lon="106.64882659912">
        <ele>3482.34</ele>
        <time>2026-05-26T23:36:34</time>
      </trkpt>
      <trkpt lat="29.421899795532" lon="106.66793060303">
        <ele>3657.6</ele>
        <time>2026-05-26T23:36:49</time>
      </trkpt>
      <trkpt lat="29.40710067749" lon="106.6862411499">
        <ele>3817.62</ele>
        <time>2026-05-26T23:37:04</time>
      </trkpt>
      <trkpt lat="29.39262008667" lon="106.70401000977">
        <ele>3977.64</ele>
        <time>2026-05-26T23:37:19</time>
      </trkpt>
      <trkpt lat="29.378049850464" lon="106.72200012207">
        <ele>4137.66</ele>
        <time>2026-05-26T23:37:34</time>
      </trkpt>
      <trkpt lat="29.364269256592" lon="106.74176025391">
        <ele>4297.68</ele>
        <time>2026-05-26T23:37:49</time>
      </trkpt>
      <trkpt lat="29.353979110718" lon="106.76551055908">
        <ele>4465.32</ele>
        <time>2026-05-26T23:38:04</time>
      </trkpt>
      <trkpt lat="29.344940185547" lon="106.78916931152">
        <ele>4625.34</ele>
        <time>2026-05-26T23:38:19</time>
      </trkpt>
      <trkpt lat="29.335399627686" lon="106.8140411377">
        <ele>4770.12</ele>
        <time>2026-05-26T23:38:34</time>
      </trkpt>
      <trkpt lat="29.326000213623" lon="106.83827209473">
        <ele>4930.14</ele>
        <time>2026-05-26T23:38:49</time>
      </trkpt>
      <trkpt lat="29.315570831299" lon="106.86563110352">
        <ele>5082.54</ele>
        <time>2026-05-26T23:39:09</time>
      </trkpt>
      <trkpt lat="29.306304931641" lon="106.88983917236">
        <ele>5227.32</ele>
        <time>2026-05-26T23:39:24</time>
      </trkpt>
      <trkpt lat="29.296579360962" lon="106.91480255127">
        <ele>5364.48</ele>
        <time>2026-05-26T23:39:39</time>
      </trkpt>
      <trkpt lat="29.280239105225" lon="106.95653533936">
        <ele>5646.42</ele>
        <time>2026-05-26T23:39:59</time>
      </trkpt>
      <trkpt lat="29.271789550781" lon="106.97846984863">
        <ele>5768.34</ele>
        <time>2026-05-26T23:40:14</time>
      </trkpt>
      <trkpt lat="29.261989593506" lon="107.00382995605">
        <ele>5890.26</ele>
        <time>2026-05-26T23:40:29</time>
      </trkpt>
      <trkpt lat="29.251829147339" lon="107.02918243408">
        <ele>6004.56</ele>
        <time>2026-05-26T23:40:44</time>
      </trkpt>
      <trkpt lat="29.236949920654" lon="107.04998779297">
        <ele>6111.24</ele>
        <time>2026-05-26T23:40:59</time>
      </trkpt>
      <trkpt lat="29.215669631958" lon="107.06672668457">
        <ele>6240.78</ele>
        <time>2026-05-26T23:41:14</time>
      </trkpt>
      <trkpt lat="29.194299697876" lon="107.08206939697">
        <ele>6377.94</ele>
        <time>2026-05-26T23:41:29</time>
      </trkpt>
      <trkpt lat="29.170379638672" lon="107.09935760498">
        <ele>6507.48</ele>
        <time>2026-05-26T23:41:49</time>
      </trkpt>
      <trkpt lat="29.149890899658" lon="107.11416625977">
        <ele>6598.92</ele>
        <time>2026-05-26T23:42:04</time>
      </trkpt>
      <trkpt lat="29.128389358521" lon="107.12979125977">
        <ele>6667.5</ele>
        <time>2026-05-26T23:42:19</time>
      </trkpt>
      <trkpt lat="29.106739044189" lon="107.1455078125">
        <ele>6766.56</ele>
        <time>2026-05-26T23:42:34</time>
      </trkpt>
      <trkpt lat="29.078203201294" lon="107.16619110107">
        <ele>6880.86</ele>
        <time>2026-05-26T23:42:52</time>
      </trkpt>
      <trkpt lat="29.057161331177" lon="107.18143463135">
        <ele>6888.48</ele>
        <time>2026-05-26T23:43:05</time>
      </trkpt>
      <trkpt lat="29.031326293945" lon="107.20014953613">
        <ele>6888.48</ele>
        <time>2026-05-26T23:43:25</time>
      </trkpt>
      <trkpt lat="29.007118225098" lon="107.21767425537">
        <ele>6888.48</ele>
        <time>2026-05-26T23:43:40</time>
      </trkpt>
      <trkpt lat="28.982864379883" lon="107.23529052734">
        <ele>6888.48</ele>
        <time>2026-05-26T23:43:55</time>
      </trkpt>
      <trkpt lat="28.957946777344" lon="107.25344848633">
        <ele>6888.48</ele>
        <time>2026-05-26T23:44:09</time>
      </trkpt>
      <trkpt lat="28.931005477905" lon="107.27309417725">
        <ele>6888.48</ele>
        <time>2026-05-26T23:44:24</time>
      </trkpt>
      <trkpt lat="28.905853271484" lon="107.2914276123">
        <ele>6888.48</ele>
        <time>2026-05-26T23:44:39</time>
      </trkpt>
      <trkpt lat="28.880079269409" lon="107.31020355225">
        <ele>6888.48</ele>
        <time>2026-05-26T23:44:53</time>
      </trkpt>
      <trkpt lat="28.85479927063" lon="107.32850646973">
        <ele>6888.48</ele>
        <time>2026-05-26T23:45:08</time>
      </trkpt>
      <trkpt lat="28.829772949219" lon="107.34667205811">
        <ele>6888.48</ele>
        <time>2026-05-26T23:45:23</time>
      </trkpt>
      <trkpt lat="28.804895401001" lon="107.36470031738">
        <ele>6888.48</ele>
        <time>2026-05-26T23:45:38</time>
      </trkpt>
      <trkpt lat="28.779006958008" lon="107.38343811035">
        <ele>6888.48</ele>
        <time>2026-05-26T23:45:53</time>
      </trkpt>
      <trkpt lat="28.751359939575" lon="107.40352630615">
        <ele>6888.48</ele>
        <time>2026-05-26T23:46:08</time>
      </trkpt>
      <trkpt lat="28.728740692139" lon="107.42420959473">
        <ele>6888.48</ele>
        <time>2026-05-26T23:46:23</time>
      </trkpt>
      <trkpt lat="28.709060668945" lon="107.4521484375">
        <ele>6888.48</ele>
        <time>2026-05-26T23:46:38</time>
      </trkpt>
      <trkpt lat="28.6962890625" lon="107.48178100586">
        <ele>6888.48</ele>
        <time>2026-05-26T23:46:53</time>
      </trkpt>
      <trkpt lat="28.688930511475" lon="107.51500701904">
        <ele>6888.48</ele>
        <time>2026-05-26T23:47:08</time>
      </trkpt>
      <trkpt lat="28.687957763672" lon="107.54986572266">
        <ele>6888.48</ele>
        <time>2026-05-26T23:47:23</time>
      </trkpt>
      <trkpt lat="28.693269729614" lon="107.58371734619">
        <ele>6888.48</ele>
        <time>2026-05-26T23:47:38</time>
      </trkpt>
      <trkpt lat="28.704109191895" lon="107.631980896">
        <ele>6888.48</ele>
        <time>2026-05-26T23:48:03</time>
      </trkpt>
      <trkpt lat="28.711139678955" lon="107.66510009766">
        <ele>6888.48</ele>
        <time>2026-05-26T23:48:18</time>
      </trkpt>
      <trkpt lat="28.718349456787" lon="107.69983673096">
        <ele>6888.48</ele>
        <time>2026-05-26T23:48:33</time>
      </trkpt>
      <trkpt lat="28.726270675659" lon="107.73850250244">
        <ele>6888.48</ele>
        <time>2026-05-26T23:48:48</time>
      </trkpt>
      <trkpt lat="28.733549118042" lon="107.7737121582">
        <ele>6888.48</ele>
        <time>2026-05-26T23:49:03</time>
      </trkpt>
      <trkpt lat="28.740737915039" lon="107.80841827393">
        <ele>6888.48</ele>
        <time>2026-05-26T23:49:17</time>
      </trkpt>
      <trkpt lat="28.747821807861" lon="107.84239196777">
        <ele>6888.48</ele>
        <time>2026-05-26T23:49:32</time>
      </trkpt>
      <trkpt lat="28.75764465332" lon="107.88967132568">
        <ele>6888.48</ele>
        <time>2026-05-26T23:49:57</time>
      </trkpt>
      <trkpt lat="28.764629364014" lon="107.92324066162">
        <ele>6888.48</ele>
        <time>2026-05-26T23:50:11</time>
      </trkpt>
      <trkpt lat="28.771682739258" lon="107.95726013184">
        <ele>6888.48</ele>
        <time>2026-05-26T23:50:26</time>
      </trkpt>
      <trkpt lat="28.779600143433" lon="107.99555206299">
        <ele>6888.48</ele>
        <time>2026-05-26T23:50:41</time>
      </trkpt>
      <trkpt lat="28.786468505859" lon="108.02856445312">
        <ele>6888.48</ele>
        <time>2026-05-26T23:50:56</time>
      </trkpt>
      <trkpt lat="28.79347038269" lon="108.06226348877">
        <ele>6888.48</ele>
        <time>2026-05-26T23:51:11</time>
      </trkpt>
      <trkpt lat="28.800891876221" lon="108.09809112549">
        <ele>6888.48</ele>
        <time>2026-05-26T23:51:26</time>
      </trkpt>
      <trkpt lat="28.807920455933" lon="108.13185882568">
        <ele>6888.48</ele>
        <time>2026-05-26T23:51:41</time>
      </trkpt>
      <trkpt lat="28.815044403076" lon="108.16637420654">
        <ele>6888.48</ele>
        <time>2026-05-26T23:51:56</time>
      </trkpt>
      <trkpt lat="28.822259902954" lon="108.20138549805">
        <ele>6888.48</ele>
        <time>2026-05-26T23:52:11</time>
      </trkpt>
      <trkpt lat="28.82926940918" lon="108.23540496826">
        <ele>6888.48</ele>
        <time>2026-05-26T23:52:26</time>
      </trkpt>
      <trkpt lat="28.836685180664" lon="108.27116394043">
        <ele>6888.48</ele>
        <time>2026-05-26T23:52:40</time>
      </trkpt>
      <trkpt lat="28.843643188477" lon="108.3049697876">
        <ele>6888.48</ele>
        <time>2026-05-26T23:52:55</time>
      </trkpt>
      <trkpt lat="28.850780487061" lon="108.33982849121">
        <ele>6888.48</ele>
        <time>2026-05-26T23:53:10</time>
      </trkpt>
      <trkpt lat="28.857509613037" lon="108.37272644043">
        <ele>6888.48</ele>
        <time>2026-05-26T23:53:25</time>
      </trkpt>
      <trkpt lat="28.864715576172" lon="108.40785980225">
        <ele>6888.48</ele>
        <time>2026-05-26T23:53:40</time>
      </trkpt>
      <trkpt lat="28.874439239502" lon="108.45546722412">
        <ele>6888.48</ele>
        <time>2026-05-26T23:54:05</time>
      </trkpt>
      <trkpt lat="28.881610870361" lon="108.49063873291">
        <ele>6888.48</ele>
        <time>2026-05-26T23:54:20</time>
      </trkpt>
      <trkpt lat="28.8890209198" lon="108.52703857422">
        <ele>6888.48</ele>
        <time>2026-05-26T23:54:35</time>
      </trkpt>
      <trkpt lat="28.896600723267" lon="108.56426239014">
        <ele>6888.48</ele>
        <time>2026-05-26T23:54:49</time>
      </trkpt>
      <trkpt lat="28.903629302979" lon="108.59893798828">
        <ele>6888.48</ele>
        <time>2026-05-26T23:55:04</time>
      </trkpt>
      <trkpt lat="28.911029815674" lon="108.63539886475">
        <ele>6888.48</ele>
        <time>2026-05-26T23:55:19</time>
      </trkpt>
      <trkpt lat="28.918489456177" lon="108.67231750488">
        <ele>6888.48</ele>
        <time>2026-05-26T23:55:39</time>
      </trkpt>
      <trkpt lat="28.925510406494" lon="108.70702362061">
        <ele>6888.48</ele>
        <time>2026-05-26T23:55:54</time>
      </trkpt>
      <trkpt lat="28.93803024292" lon="108.76901245117">
        <ele>6888.48</ele>
        <time>2026-05-26T23:56:17</time>
      </trkpt>
      <trkpt lat="28.94487953186" lon="108.80310058594">
        <ele>6888.48</ele>
        <time>2026-05-26T23:56:32</time>
      </trkpt>
      <trkpt lat="28.951860427856" lon="108.83762359619">
        <ele>6888.48</ele>
        <time>2026-05-26T23:56:47</time>
      </trkpt>
      <trkpt lat="28.958839416504" lon="108.87229919434">
        <ele>6888.48</ele>
        <time>2026-05-26T23:57:02</time>
      </trkpt>
      <trkpt lat="28.965591430664" lon="108.9058303833">
        <ele>6888.48</ele>
        <time>2026-05-26T23:57:17</time>
      </trkpt>
      <trkpt lat="28.973230361938" lon="108.94393157959">
        <ele>6888.48</ele>
        <time>2026-05-26T23:57:36</time>
      </trkpt>
      <trkpt lat="28.980739593506" lon="108.98136138916">
        <ele>6888.48</ele>
        <time>2026-05-26T23:57:50</time>
      </trkpt>
      <trkpt lat="28.987520217896" lon="109.01544952393">
        <ele>6888.48</ele>
        <time>2026-05-26T23:58:05</time>
      </trkpt>
      <trkpt lat="28.994459152222" lon="109.0500793457">
        <ele>6888.48</ele>
        <time>2026-05-26T23:58:20</time>
      </trkpt>
      <trkpt lat="28.999603271484" lon="109.07601928711">
        <ele>6888.48</ele>
        <time>2026-05-26T23:58:34</time>
      </trkpt>
      <trkpt lat="29.006280899048" lon="109.10964202881">
        <ele>6888.48</ele>
        <time>2026-05-26T23:58:49</time>
      </trkpt>
      <trkpt lat="29.013149261475" lon="109.14479064941">
        <ele>6888.48</ele>
        <time>2026-05-26T23:59:04</time>
      </trkpt>
      <trkpt lat="29.019790649414" lon="109.17854309082">
        <ele>6888.48</ele>
        <time>2026-05-26T23:59:19</time>
      </trkpt>
      <trkpt lat="29.027940750122" lon="109.2154006958">
        <ele>6888.48</ele>
        <time>2026-05-26T23:59:34</time>
      </trkpt>
      <trkpt lat="29.037279129028" lon="109.24868774414">
        <ele>6888.48</ele>
        <time>2026-05-26T23:59:49</time>
      </trkpt>
      <trkpt lat="29.049730300903" lon="109.28575897217">
        <ele>6888.48</ele>
        <time>2026-05-27T00:00:04</time>
      </trkpt>
      <trkpt lat="29.063589096069" lon="109.32086181641">
        <ele>6888.48</ele>
        <time>2026-05-27T00:00:23</time>
      </trkpt>
      <trkpt lat="29.08561706543" lon="109.3678894043">
        <ele>6888.48</ele>
        <time>2026-05-27T00:00:47</time>
      </trkpt>
      <trkpt lat="29.100830078125" lon="109.40039825439">
        <ele>6888.48</ele>
        <time>2026-05-27T00:01:02</time>
      </trkpt>
      <trkpt lat="29.108730316162" lon="109.43360137939">
        <ele>6888.48</ele>
        <time>2026-05-27T00:01:16</time>
      </trkpt>
      <trkpt lat="29.11157989502" lon="109.4725112915">
        <ele>6888.48</ele>
        <time>2026-05-27T00:01:31</time>
      </trkpt>
      <trkpt lat="29.113300323486" lon="109.51069641113">
        <ele>6888.48</ele>
        <time>2026-05-27T00:01:46</time>
      </trkpt>
      <trkpt lat="29.114929199219" lon="109.54650878906">
        <ele>6888.48</ele>
        <time>2026-05-27T00:02:01</time>
      </trkpt>
      <trkpt lat="29.115970611572" lon="109.58645629883">
        <ele>6888.48</ele>
        <time>2026-05-27T00:02:21</time>
      </trkpt>
      <trkpt lat="29.109470367432" lon="109.62828826904">
        <ele>6888.48</ele>
        <time>2026-05-27T00:02:36</time>
      </trkpt>
      <trkpt lat="29.10046005249" lon="109.66246032715">
        <ele>6888.48</ele>
        <time>2026-05-27T00:02:51</time>
      </trkpt>
      <trkpt lat="29.08890914917" lon="109.69445037842">
        <ele>6888.48</ele>
        <time>2026-05-27T00:03:06</time>
      </trkpt>
      <trkpt lat="29.074989318848" lon="109.72762298584">
        <ele>6888.48</ele>
        <time>2026-05-27T00:03:21</time>
      </trkpt>
      <trkpt lat="29.06217956543" lon="109.7579574585">
        <ele>6888.48</ele>
        <time>2026-05-27T00:03:36</time>
      </trkpt>
      <trkpt lat="29.048040390015" lon="109.7917098999">
        <ele>6888.48</ele>
        <time>2026-05-27T00:03:56</time>
      </trkpt>
      <trkpt lat="29.033199310303" lon="109.8271484375">
        <ele>6888.48</ele>
        <time>2026-05-27T00:04:11</time>
      </trkpt>
      <trkpt lat="29.019729614258" lon="109.85989379883">
        <ele>6888.48</ele>
        <time>2026-05-27T00:04:26</time>
      </trkpt>
      <trkpt lat="29.006929397583" lon="109.89096069336">
        <ele>6888.48</ele>
        <time>2026-05-27T00:04:41</time>
      </trkpt>
      <trkpt lat="28.993572235107" lon="109.92333221436">
        <ele>6888.48</ele>
        <time>2026-05-27T00:04:56</time>
      </trkpt>
      <trkpt lat="28.980770111084" lon="109.9545135498">
        <ele>6888.48</ele>
        <time>2026-05-27T00:05:11</time>
      </trkpt>
      <trkpt lat="28.968059539795" lon="109.98545074463">
        <ele>6888.48</ele>
        <time>2026-05-27T00:05:26</time>
      </trkpt>
      <trkpt lat="28.952089309692" lon="110.01830291748">
        <ele>6888.48</ele>
        <time>2026-05-27T00:05:40</time>
      </trkpt>
      <trkpt lat="28.933380126953" lon="110.04611968994">
        <ele>6888.48</ele>
        <time>2026-05-27T00:05:55</time>
      </trkpt>
      <trkpt lat="28.915924072266" lon="110.06969451904">
        <ele>6888.48</ele>
        <time>2026-05-27T00:06:10</time>
      </trkpt>
      <trkpt lat="28.896379470825" lon="110.09594726562">
        <ele>6888.48</ele>
        <time>2026-05-27T00:06:25</time>
      </trkpt>
      <trkpt lat="28.876510620117" lon="110.12252044678">
        <ele>6888.48</ele>
        <time>2026-05-27T00:06:40</time>
      </trkpt>
      <trkpt lat="28.855770111084" lon="110.15045928955">
        <ele>6888.48</ele>
        <time>2026-05-27T00:06:55</time>
      </trkpt>
      <trkpt lat="28.834854125977" lon="110.17887115479">
        <ele>6888.48</ele>
        <time>2026-05-27T00:07:10</time>
      </trkpt>
      <trkpt lat="28.815319061279" lon="110.20562744141">
        <ele>6888.48</ele>
        <time>2026-05-27T00:07:25</time>
      </trkpt>
      <trkpt lat="28.794849395752" lon="110.23358917236">
        <ele>6888.48</ele>
        <time>2026-05-27T00:07:40</time>
      </trkpt>
      <trkpt lat="28.77552986145" lon="110.26016235352">
        <ele>6888.48</ele>
        <time>2026-05-27T00:07:55</time>
      </trkpt>
      <trkpt lat="28.75963973999" lon="110.28198242188">
        <ele>6888.48</ele>
        <time>2026-05-27T00:08:08</time>
      </trkpt>
      <trkpt lat="28.736209869385" lon="110.31382751465">
        <ele>6888.48</ele>
        <time>2026-05-27T00:08:23</time>
      </trkpt>
      <trkpt lat="28.716119766235" lon="110.34113311768">
        <ele>6888.48</ele>
        <time>2026-05-27T00:08:38</time>
      </trkpt>
      <trkpt lat="28.697080612183" lon="110.36730957031">
        <ele>6888.48</ele>
        <time>2026-05-27T00:08:53</time>
      </trkpt>
      <trkpt lat="28.677059173584" lon="110.39485168457">
        <ele>6888.48</ele>
        <time>2026-05-27T00:09:08</time>
      </trkpt>
      <trkpt lat="28.656879425049" lon="110.42253112793">
        <ele>6888.48</ele>
        <time>2026-05-27T00:09:23</time>
      </trkpt>
      <trkpt lat="28.634889602661" lon="110.45249938965">
        <ele>6888.48</ele>
        <time>2026-05-27T00:09:42</time>
      </trkpt>
      <trkpt lat="28.615631103516" lon="110.47878265381">
        <ele>6888.48</ele>
        <time>2026-05-27T00:09:56</time>
      </trkpt>
      <trkpt lat="28.59513092041" lon="110.50668334961">
        <ele>6888.48</ele>
        <time>2026-05-27T00:10:11</time>
      </trkpt>
      <trkpt lat="28.574752807617" lon="110.53434753418">
        <ele>6888.48</ele>
        <time>2026-05-27T00:10:26</time>
      </trkpt>
      <trkpt lat="28.554817199707" lon="110.56145477295">
        <ele>6888.48</ele>
        <time>2026-05-27T00:10:41</time>
      </trkpt>
      <trkpt lat="28.533330917358" lon="110.5905380249">
        <ele>6888.48</ele>
        <time>2026-05-27T00:10:55</time>
      </trkpt>
      <trkpt lat="28.512310028076" lon="110.61895751953">
        <ele>6888.48</ele>
        <time>2026-05-27T00:11:10</time>
      </trkpt>
      <trkpt lat="28.493089675903" lon="110.64530181885">
        <ele>6888.48</ele>
        <time>2026-05-27T00:11:25</time>
      </trkpt>
      <trkpt lat="28.471439361572" lon="110.67503356934">
        <ele>6888.48</ele>
        <time>2026-05-27T00:11:44</time>
      </trkpt>
      <trkpt lat="28.450870513916" lon="110.70330047607">
        <ele>6888.48</ele>
        <time>2026-05-27T00:11:58</time>
      </trkpt>
      <trkpt lat="28.430557250977" lon="110.73098754883">
        <ele>6888.48</ele>
        <time>2026-05-27T00:12:13</time>
      </trkpt>
      <trkpt lat="28.411010742188" lon="110.75834655762">
        <ele>6888.48</ele>
        <time>2026-05-27T00:12:28</time>
      </trkpt>
      <trkpt lat="28.39347076416" lon="110.78764343262">
        <ele>6888.48</ele>
        <time>2026-05-27T00:12:43</time>
      </trkpt>
      <trkpt lat="28.379920959473" lon="110.82431793213">
        <ele>6888.48</ele>
        <time>2026-05-27T00:12:58</time>
      </trkpt>
      <trkpt lat="28.372150421143" lon="110.85891723633">
        <ele>6888.48</ele>
        <time>2026-05-27T00:13:13</time>
      </trkpt>
      <trkpt lat="28.364589691162" lon="110.89398956299">
        <ele>6888.48</ele>
        <time>2026-05-27T00:13:28</time>
      </trkpt>
      <trkpt lat="28.356903076172" lon="110.92890167236">
        <ele>6888.48</ele>
        <time>2026-05-27T00:13:43</time>
      </trkpt>
      <trkpt lat="28.349395751953" lon="110.96281433105">
        <ele>6888.48</ele>
        <time>2026-05-27T00:13:58</time>
      </trkpt>
      <trkpt lat="28.341930389404" lon="110.99635314941">
        <ele>6888.48</ele>
        <time>2026-05-27T00:14:13</time>
      </trkpt>
      <trkpt lat="28.33411026001" lon="111.03121185303">
        <ele>6888.48</ele>
        <time>2026-05-27T00:14:28</time>
      </trkpt>
      <trkpt lat="28.326429367065" lon="111.06564331055">
        <ele>6888.48</ele>
        <time>2026-05-27T00:14:43</time>
      </trkpt>
      <trkpt lat="28.319820404053" lon="111.09519958496">
        <ele>6888.48</ele>
        <time>2026-05-27T00:14:58</time>
      </trkpt>
      <trkpt lat="28.313119888306" lon="111.1254196167">
        <ele>6888.48</ele>
        <time>2026-05-27T00:15:12</time>
      </trkpt>
      <trkpt lat="28.305770874023" lon="111.15850830078">
        <ele>6888.48</ele>
        <time>2026-05-27T00:15:27</time>
      </trkpt>
      <trkpt lat="28.298080444336" lon="111.19304656982">
        <ele>6888.48</ele>
        <time>2026-05-27T00:15:42</time>
      </trkpt>
      <trkpt lat="28.289609909058" lon="111.23059082031">
        <ele>6888.48</ele>
        <time>2026-05-27T00:15:57</time>
      </trkpt>
      <trkpt lat="28.282020568848" lon="111.26414489746">
        <ele>6888.48</ele>
        <time>2026-05-27T00:16:12</time>
      </trkpt>
      <trkpt lat="28.274429321289" lon="111.29791259766">
        <ele>6888.48</ele>
        <time>2026-05-27T00:16:27</time>
      </trkpt>
      <trkpt lat="28.266839981079" lon="111.33178710938">
        <ele>6888.48</ele>
        <time>2026-05-27T00:16:42</time>
      </trkpt>
      <trkpt lat="28.258800506592" lon="111.36776733398">
        <ele>6888.48</ele>
        <time>2026-05-27T00:16:57</time>
      </trkpt>
      <trkpt lat="28.251110076904" lon="111.40234375">
        <ele>6888.48</ele>
        <time>2026-05-27T00:17:12</time>
      </trkpt>
      <trkpt lat="28.243419647217" lon="111.43665313721">
        <ele>6888.48</ele>
        <time>2026-05-27T00:17:27</time>
      </trkpt>
      <trkpt lat="28.23583984375" lon="111.47045898438">
        <ele>6888.48</ele>
        <time>2026-05-27T00:17:42</time>
      </trkpt>
      <trkpt lat="28.227550506592" lon="111.50740814209">
        <ele>6888.48</ele>
        <time>2026-05-27T00:17:57</time>
      </trkpt>
      <trkpt lat="28.219850540161" lon="111.54164886475">
        <ele>6888.48</ele>
        <time>2026-05-27T00:18:12</time>
      </trkpt>
      <trkpt lat="28.211029052734" lon="111.5809173584">
        <ele>6888.48</ele>
        <time>2026-05-27T00:18:27</time>
      </trkpt>
      <trkpt lat="28.202180862427" lon="111.62007141113">
        <ele>6888.48</ele>
        <time>2026-05-27T00:18:47</time>
      </trkpt>
      <trkpt lat="28.194259643555" lon="111.65537261963">
        <ele>6888.48</ele>
        <time>2026-05-27T00:19:00</time>
      </trkpt>
      <trkpt lat="28.186639785767" lon="111.6891708374">
        <ele>6888.48</ele>
        <time>2026-05-27T00:19:15</time>
      </trkpt>
      <trkpt lat="28.178924560547" lon="111.7233505249">
        <ele>6888.48</ele>
        <time>2026-05-27T00:19:30</time>
      </trkpt>
      <trkpt lat="28.171096801758" lon="111.75800323486">
        <ele>6888.48</ele>
        <time>2026-05-27T00:19:45</time>
      </trkpt>
      <trkpt lat="28.16340637207" lon="111.79217529297">
        <ele>6888.48</ele>
        <time>2026-05-27T00:20:00</time>
      </trkpt>
      <trkpt lat="28.155807495117" lon="111.82598114014">
        <ele>6888.48</ele>
        <time>2026-05-27T00:20:15</time>
      </trkpt>
      <trkpt lat="28.148071289062" lon="111.8599395752">
        <ele>6888.48</ele>
        <time>2026-05-27T00:20:30</time>
      </trkpt>
      <trkpt lat="28.140035629272" lon="111.89510345459">
        <ele>6888.48</ele>
        <time>2026-05-27T00:20:45</time>
      </trkpt>
      <trkpt lat="28.132354736328" lon="111.92876434326">
        <ele>6888.48</ele>
        <time>2026-05-27T00:21:00</time>
      </trkpt>
      <trkpt lat="28.124267578125" lon="111.96389007568">
        <ele>6888.48</ele>
        <time>2026-05-27T00:21:15</time>
      </trkpt>
      <trkpt lat="28.116714477539" lon="111.99668884277">
        <ele>6888.48</ele>
        <time>2026-05-27T00:21:30</time>
      </trkpt>
      <trkpt lat="28.108846664429" lon="112.03087615967">
        <ele>6888.48</ele>
        <time>2026-05-27T00:21:45</time>
      </trkpt>
      <trkpt lat="28.100921630859" lon="112.06524658203">
        <ele>6888.48</ele>
        <time>2026-05-27T00:22:00</time>
      </trkpt>
      <trkpt lat="28.092878341675" lon="112.10034179688">
        <ele>6888.48</ele>
        <time>2026-05-27T00:22:15</time>
      </trkpt>
      <trkpt lat="28.084270477295" lon="112.13539886475">
        <ele>6888.48</ele>
        <time>2026-05-27T00:22:33</time>
      </trkpt>
      <trkpt lat="28.074188232422" lon="112.16887664795">
        <ele>6888.48</ele>
        <time>2026-05-27T00:22:47</time>
      </trkpt>
      <trkpt lat="28.062740325928" lon="112.20078277588">
        <ele>6888.48</ele>
        <time>2026-05-27T00:23:02</time>
      </trkpt>
      <trkpt lat="28.049011230469" lon="112.23358154297">
        <ele>6888.48</ele>
        <time>2026-05-27T00:23:17</time>
      </trkpt>
      <trkpt lat="28.034408569336" lon="112.26384735107">
        <ele>6888.48</ele>
        <time>2026-05-27T00:23:32</time>
      </trkpt>
      <trkpt lat="28.018442153931" lon="112.29303741455">
        <ele>6888.48</ele>
        <time>2026-05-27T00:23:47</time>
      </trkpt>
      <trkpt lat="28.003126144409" lon="112.32292938232">
        <ele>6888.48</ele>
        <time>2026-05-27T00:24:02</time>
      </trkpt>
      <trkpt lat="27.991424560547" lon="112.35611724854">
        <ele>6888.48</ele>
        <time>2026-05-27T00:24:17</time>
      </trkpt>
      <trkpt lat="27.984411239624" lon="112.39029693604">
        <ele>6888.48</ele>
        <time>2026-05-27T00:24:32</time>
      </trkpt>
      <trkpt lat="27.981582641602" lon="112.42483520508">
        <ele>6888.48</ele>
        <time>2026-05-27T00:24:46</time>
      </trkpt>
      <trkpt lat="27.979616165161" lon="112.46100616455">
        <ele>6888.48</ele>
        <time>2026-05-27T00:25:01</time>
      </trkpt>
      <trkpt lat="27.977569580078" lon="112.49542236328">
        <ele>6888.48</ele>
        <time>2026-05-27T00:25:16</time>
      </trkpt>
      <trkpt lat="27.975448608398" lon="112.52989196777">
        <ele>6888.48</ele>
        <time>2026-05-27T00:25:31</time>
      </trkpt>
      <trkpt lat="27.973285675049" lon="112.56440734863">
        <ele>6888.48</ele>
        <time>2026-05-27T00:25:46</time>
      </trkpt>
      <trkpt lat="27.971145629883" lon="112.59803009033">
        <ele>6888.48</ele>
        <time>2026-05-27T00:26:01</time>
      </trkpt>
      <trkpt lat="27.968957901001" lon="112.63210296631">
        <ele>6888.48</ele>
        <time>2026-05-27T00:26:16</time>
      </trkpt>
      <trkpt lat="27.965930938721" lon="112.67944335938">
        <ele>6888.48</ele>
        <time>2026-05-27T00:26:41</time>
      </trkpt>
      <trkpt lat="27.963790893555" lon="112.71321105957">
        <ele>6888.48</ele>
        <time>2026-05-27T00:26:56</time>
      </trkpt>
      <trkpt lat="27.961624145508" lon="112.7465057373">
        <ele>6888.48</ele>
        <time>2026-05-27T00:27:11</time>
      </trkpt>
      <trkpt lat="27.959426879883" lon="112.7808380127">
        <ele>6888.48</ele>
        <time>2026-05-27T00:27:26</time>
      </trkpt>
      <trkpt lat="27.957275390625" lon="112.81432342529">
        <ele>6888.48</ele>
        <time>2026-05-27T00:27:41</time>
      </trkpt>
      <trkpt lat="27.955083847046" lon="112.84881591797">
        <ele>6888.48</ele>
        <time>2026-05-27T00:27:56</time>
      </trkpt>
      <trkpt lat="27.952896118164" lon="112.88301086426">
        <ele>6888.48</ele>
        <time>2026-05-27T00:28:11</time>
      </trkpt>
      <trkpt lat="27.950847625732" lon="112.91737365723">
        <ele>6888.48</ele>
        <time>2026-05-27T00:28:26</time>
      </trkpt>
      <trkpt lat="27.950317382812" lon="112.95080566406">
        <ele>6888.48</ele>
        <time>2026-05-27T00:28:41</time>
      </trkpt>
      <trkpt lat="27.951553344727" lon="112.98524475098">
        <ele>6888.48</ele>
        <time>2026-05-27T00:28:56</time>
      </trkpt>
      <trkpt lat="27.954530715942" lon="113.01863098145">
        <ele>6888.48</ele>
        <time>2026-05-27T00:29:11</time>
      </trkpt>
      <trkpt lat="27.959087371826" lon="113.05335235596">
        <ele>6888.48</ele>
        <time>2026-05-27T00:29:25</time>
      </trkpt>
      <trkpt lat="27.963556289673" lon="113.08685302734">
        <ele>6888.48</ele>
        <time>2026-05-27T00:29:40</time>
      </trkpt>
      <trkpt lat="27.966955184937" lon="113.12072753906">
        <ele>6888.48</ele>
        <time>2026-05-27T00:29:55</time>
      </trkpt>
      <trkpt lat="27.963649749756" lon="113.15482330322">
        <ele>6888.48</ele>
        <time>2026-05-27T00:30:10</time>
      </trkpt>
      <trkpt lat="27.956634521484" lon="113.1872253418">
        <ele>6888.48</ele>
        <time>2026-05-27T00:30:25</time>
      </trkpt>
      <trkpt lat="27.948427200317" lon="113.22272491455">
        <ele>6888.48</ele>
        <time>2026-05-27T00:30:40</time>
      </trkpt>
      <trkpt lat="27.940980911255" lon="113.25514984131">
        <ele>6888.48</ele>
        <time>2026-05-27T00:30:55</time>
      </trkpt>
      <trkpt lat="27.933559417725" lon="113.2873916626">
        <ele>6888.48</ele>
        <time>2026-05-27T00:31:10</time>
      </trkpt>
      <trkpt lat="27.926010131836" lon="113.32061004639">
        <ele>6888.48</ele>
        <time>2026-05-27T00:31:25</time>
      </trkpt>
      <trkpt lat="27.918729782104" lon="113.3528137207">
        <ele>6888.48</ele>
        <time>2026-05-27T00:31:40</time>
      </trkpt>
      <trkpt lat="27.911140441895" lon="113.38619995117">
        <ele>6888.48</ele>
        <time>2026-05-27T00:31:55</time>
      </trkpt>
      <trkpt lat="27.903717041016" lon="113.41886138916">
        <ele>6888.48</ele>
        <time>2026-05-27T00:32:10</time>
      </trkpt>
      <trkpt lat="27.896209716797" lon="113.4518737793">
        <ele>6888.48</ele>
        <time>2026-05-27T00:32:25</time>
      </trkpt>
      <trkpt lat="27.888610839844" lon="113.48538970947">
        <ele>6888.48</ele>
        <time>2026-05-27T00:32:39</time>
      </trkpt>
      <trkpt lat="27.881349563599" lon="113.51692199707">
        <ele>6888.48</ele>
        <time>2026-05-27T00:32:54</time>
      </trkpt>
      <trkpt lat="27.873659133911" lon="113.5500869751">
        <ele>6888.48</ele>
        <time>2026-05-27T00:33:08</time>
      </trkpt>
      <trkpt lat="27.865980148315" lon="113.58294677734">
        <ele>6888.48</ele>
        <time>2026-05-27T00:33:23</time>
      </trkpt>
      <trkpt lat="27.858219146729" lon="113.61605072021">
        <ele>6888.48</ele>
        <time>2026-05-27T00:33:38</time>
      </trkpt>
      <trkpt lat="27.85066986084" lon="113.64817810059">
        <ele>6888.48</ele>
        <time>2026-05-27T00:33:53</time>
      </trkpt>
      <trkpt lat="27.842613220215" lon="113.68187713623">
        <ele>6888.48</ele>
        <time>2026-05-27T00:34:08</time>
      </trkpt>
      <trkpt lat="27.834886550903" lon="113.71420288086">
        <ele>6888.48</ele>
        <time>2026-05-27T00:34:23</time>
      </trkpt>
      <trkpt lat="27.827209472656" lon="113.74642181396">
        <ele>6888.48</ele>
        <time>2026-05-27T00:34:38</time>
      </trkpt>
      <trkpt lat="27.819396972656" lon="113.77918243408">
        <ele>6888.48</ele>
        <time>2026-05-27T00:34:53</time>
      </trkpt>
      <trkpt lat="27.811519622803" lon="113.81230163574">
        <ele>6888.48</ele>
        <time>2026-05-27T00:35:08</time>
      </trkpt>
      <trkpt lat="27.803560256958" lon="113.84545898438">
        <ele>6888.48</ele>
        <time>2026-05-27T00:35:23</time>
      </trkpt>
      <trkpt lat="27.795879364014" lon="113.87757110596">
        <ele>6888.48</ele>
        <time>2026-05-27T00:35:38</time>
      </trkpt>
      <trkpt lat="27.787170410156" lon="113.91355895996">
        <ele>6888.48</ele>
        <time>2026-05-27T00:35:58</time>
      </trkpt>
      <trkpt lat="27.779159545898" lon="113.94671630859">
        <ele>6888.48</ele>
        <time>2026-05-27T00:36:13</time>
      </trkpt>
      <trkpt lat="27.771560668945" lon="113.97853851318">
        <ele>6888.48</ele>
        <time>2026-05-27T00:36:28</time>
      </trkpt>
      <trkpt lat="27.763549804688" lon="114.0122833252">
        <ele>6888.48</ele>
        <time>2026-05-27T00:36:43</time>
      </trkpt>
      <trkpt lat="27.754400253296" lon="114.05097198486">
        <ele>6888.48</ele>
        <time>2026-05-27T00:36:58</time>
      </trkpt>
      <trkpt lat="27.746612548828" lon="114.08368682861">
        <ele>6888.48</ele>
        <time>2026-05-27T00:37:13</time>
      </trkpt>
      <trkpt lat="27.73810005188" lon="114.11947631836">
        <ele>6888.48</ele>
        <time>2026-05-27T00:37:28</time>
      </trkpt>
      <trkpt lat="27.730360031128" lon="114.15167999268">
        <ele>6888.48</ele>
        <time>2026-05-27T00:37:43</time>
      </trkpt>
      <trkpt lat="27.723999023438" lon="114.17836761475">
        <ele>6888.48</ele>
        <time>2026-05-27T00:37:57</time>
      </trkpt>
      <trkpt lat="27.716129302979" lon="114.21116638184">
        <ele>6888.48</ele>
        <time>2026-05-27T00:38:12</time>
      </trkpt>
      <trkpt lat="27.708251953125" lon="114.24423217773">
        <ele>6888.48</ele>
        <time>2026-05-27T00:38:27</time>
      </trkpt>
      <trkpt lat="27.697559356689" lon="114.28923797607">
        <ele>6888.48</ele>
        <time>2026-05-27T00:38:47</time>
      </trkpt>
      <trkpt lat="27.690170288086" lon="114.32025909424">
        <ele>6888.48</ele>
        <time>2026-05-27T00:39:02</time>
      </trkpt>
      <trkpt lat="27.681015014648" lon="114.35845184326">
        <ele>6888.48</ele>
        <time>2026-05-27T00:39:17</time>
      </trkpt>
      <trkpt lat="27.67214012146" lon="114.39577484131">
        <ele>6888.48</ele>
        <time>2026-05-27T00:39:37</time>
      </trkpt>
      <trkpt lat="27.664581298828" lon="114.427734375">
        <ele>6888.48</ele>
        <time>2026-05-27T00:39:52</time>
      </trkpt>
      <trkpt lat="27.656824111938" lon="114.46089935303">
        <ele>6888.48</ele>
        <time>2026-05-27T00:40:07</time>
      </trkpt>
      <trkpt lat="27.648193359375" lon="114.49800872803">
        <ele>6888.48</ele>
        <time>2026-05-27T00:40:22</time>
      </trkpt>
      <trkpt lat="27.640731811523" lon="114.52987670898">
        <ele>6888.48</ele>
        <time>2026-05-27T00:40:37</time>
      </trkpt>
      <trkpt lat="27.633041381836" lon="114.56257629395">
        <ele>6888.48</ele>
        <time>2026-05-27T00:40:52</time>
      </trkpt>
      <trkpt lat="27.623382568359" lon="114.60362243652">
        <ele>6888.48</ele>
        <time>2026-05-27T00:41:11</time>
      </trkpt>
      <trkpt lat="27.616149902344" lon="114.634765625">
        <ele>6888.48</ele>
        <time>2026-05-27T00:41:26</time>
      </trkpt>
      <trkpt lat="27.607955932617" lon="114.67000579834">
        <ele>6888.48</ele>
        <time>2026-05-27T00:41:41</time>
      </trkpt>
      <trkpt lat="27.600170135498" lon="114.70349884033">
        <ele>6888.48</ele>
        <time>2026-05-27T00:41:55</time>
      </trkpt>
      <trkpt lat="27.592803955078" lon="114.73571777344">
        <ele>6888.48</ele>
        <time>2026-05-27T00:42:10</time>
      </trkpt>
      <trkpt lat="27.581817626953" lon="114.78339385986">
        <ele>6888.48</ele>
        <time>2026-05-27T00:42:35</time>
      </trkpt>
      <trkpt lat="27.573682785034" lon="114.8186416626">
        <ele>6888.48</ele>
        <time>2026-05-27T00:42:50</time>
      </trkpt>
      <trkpt lat="27.566436767578" lon="114.85076141357">
        <ele>6888.48</ele>
        <time>2026-05-27T00:43:05</time>
      </trkpt>
      <trkpt lat="27.558109283447" lon="114.88677978516">
        <ele>6888.48</ele>
        <time>2026-05-27T00:43:20</time>
      </trkpt>
      <trkpt lat="27.554180145264" lon="114.9169921875">
        <ele>6888.48</ele>
        <time>2026-05-27T00:43:35</time>
      </trkpt>
      <trkpt lat="27.556230545044" lon="114.94657897949">
        <ele>6888.48</ele>
        <time>2026-05-27T00:43:50</time>
      </trkpt>
      <trkpt lat="27.572799682617" lon="115.02152252197">
        <ele>6888.48</ele>
        <time>2026-05-27T00:44:23</time>
      </trkpt>
      <trkpt lat="27.591520309448" lon="115.1018371582">
        <ele>6888.48</ele>
        <time>2026-05-27T00:44:58</time>
      </trkpt>
      <trkpt lat="27.597423553467" lon="115.12731933594">
        <ele>6888.48</ele>
        <time>2026-05-27T00:45:13</time>
      </trkpt>
      <trkpt lat="27.608459472656" lon="115.17527770996">
        <ele>6888.48</ele>
        <time>2026-05-27T00:45:36</time>
      </trkpt>
      <trkpt lat="27.616231918335" lon="115.20971679688">
        <ele>6888.48</ele>
        <time>2026-05-27T00:45:51</time>
      </trkpt>
      <trkpt lat="27.62377166748" lon="115.24314880371">
        <ele>6888.48</ele>
        <time>2026-05-27T00:46:06</time>
      </trkpt>
      <trkpt lat="27.630752563477" lon="115.2735824585">
        <ele>6888.48</ele>
        <time>2026-05-27T00:46:21</time>
      </trkpt>
      <trkpt lat="27.638759613037" lon="115.30773162842">
        <ele>6888.48</ele>
        <time>2026-05-27T00:46:36</time>
      </trkpt>
      <trkpt lat="27.645769119263" lon="115.33753204346">
        <ele>6888.48</ele>
        <time>2026-05-27T00:46:51</time>
      </trkpt>
      <trkpt lat="27.653329849243" lon="115.36901855469">
        <ele>6888.48</ele>
        <time>2026-05-27T00:47:06</time>
      </trkpt>
      <trkpt lat="27.665340423584" lon="115.4162902832">
        <ele>6888.48</ele>
        <time>2026-05-27T00:47:26</time>
      </trkpt>
      <trkpt lat="27.673782348633" lon="115.45024108887">
        <ele>6888.48</ele>
        <time>2026-05-27T00:47:46</time>
      </trkpt>
      <trkpt lat="27.685039520264" lon="115.49775695801">
        <ele>6888.48</ele>
        <time>2026-05-27T00:48:06</time>
      </trkpt>
      <trkpt lat="27.69319152832" lon="115.53248596191">
        <ele>6888.48</ele>
        <time>2026-05-27T00:48:21</time>
      </trkpt>
      <trkpt lat="27.700424194336" lon="115.5634765625">
        <ele>6888.48</ele>
        <time>2026-05-27T00:48:36</time>
      </trkpt>
      <trkpt lat="27.708078384399" lon="115.59613800049">
        <ele>6888.48</ele>
        <time>2026-05-27T00:48:51</time>
      </trkpt>
      <trkpt lat="27.718132019043" lon="115.63865661621">
        <ele>6888.48</ele>
        <time>2026-05-27T00:49:16</time>
      </trkpt>
      <trkpt lat="27.72580909729" lon="115.67088317871">
        <ele>6888.48</ele>
        <time>2026-05-27T00:49:31</time>
      </trkpt>
      <trkpt lat="27.733821868896" lon="115.70504760742">
        <ele>6888.48</ele>
        <time>2026-05-27T00:49:46</time>
      </trkpt>
      <trkpt lat="27.741256713867" lon="115.7366104126">
        <ele>6888.48</ele>
        <time>2026-05-27T00:50:01</time>
      </trkpt>
      <trkpt lat="27.749370574951" lon="115.7713394165">
        <ele>6888.48</ele>
        <time>2026-05-27T00:50:16</time>
      </trkpt>
      <trkpt lat="27.757049560547" lon="115.80409240723">
        <ele>6888.48</ele>
        <time>2026-05-27T00:50:31</time>
      </trkpt>
      <trkpt lat="27.764789581299" lon="115.8370513916">
        <ele>6888.48</ele>
        <time>2026-05-27T00:50:46</time>
      </trkpt>
      <trkpt lat="27.771854400635" lon="115.8678894043">
        <ele>6888.48</ele>
        <time>2026-05-27T00:51:01</time>
      </trkpt>
      <trkpt lat="27.779443740845" lon="115.90074157715">
        <ele>6888.48</ele>
        <time>2026-05-27T00:51:16</time>
      </trkpt>
      <trkpt lat="27.787031173706" lon="115.93243408203">
        <ele>6888.48</ele>
        <time>2026-05-27T00:51:31</time>
      </trkpt>
      <trkpt lat="27.794618606567" lon="115.96391296387">
        <ele>6888.48</ele>
        <time>2026-05-27T00:51:46</time>
      </trkpt>
      <trkpt lat="27.801740646362" lon="115.99491882324">
        <ele>6888.48</ele>
        <time>2026-05-27T00:52:01</time>
      </trkpt>
      <trkpt lat="27.808731079102" lon="116.02687072754">
        <ele>6888.48</ele>
        <time>2026-05-27T00:52:16</time>
      </trkpt>
      <trkpt lat="27.815614700317" lon="116.06015014648">
        <ele>6888.48</ele>
        <time>2026-05-27T00:52:31</time>
      </trkpt>
      <trkpt lat="27.821779251099" lon="116.09030151367">
        <ele>6888.48</ele>
        <time>2026-05-27T00:52:46</time>
      </trkpt>
      <trkpt lat="27.828695297241" lon="116.12438201904">
        <ele>6888.48</ele>
        <time>2026-05-27T00:53:05</time>
      </trkpt>
      <trkpt lat="27.835372924805" lon="116.15627288818">
        <ele>6888.48</ele>
        <time>2026-05-27T00:53:20</time>
      </trkpt>
      <trkpt lat="27.842054367065" lon="116.18775939941">
        <ele>6888.48</ele>
        <time>2026-05-27T00:53:35</time>
      </trkpt>
      <trkpt lat="27.848806381226" lon="116.21934509277">
        <ele>6888.48</ele>
        <time>2026-05-27T00:53:50</time>
      </trkpt>
      <trkpt lat="27.856155395508" lon="116.25328063965">
        <ele>6880.86</ele>
        <time>2026-05-27T00:54:05</time>
      </trkpt>
      <trkpt lat="27.863096237183" lon="116.28515625">
        <ele>6827.52</ele>
        <time>2026-05-27T00:54:20</time>
      </trkpt>
      <trkpt lat="27.869939804077" lon="116.31653594971">
        <ele>6751.32</ele>
        <time>2026-05-27T00:54:35</time>
      </trkpt>
      <trkpt lat="27.876550674438" lon="116.3478012085">
        <ele>6675.12</ele>
        <time>2026-05-27T00:54:50</time>
      </trkpt>
      <trkpt lat="27.884216308594" lon="116.37812042236">
        <ele>6598.92</ele>
        <time>2026-05-27T00:55:05</time>
      </trkpt>
      <trkpt lat="27.895294189453" lon="116.40673065186">
        <ele>6522.72</ele>
        <time>2026-05-27T00:55:20</time>
      </trkpt>
      <trkpt lat="27.909580230713" lon="116.43335723877">
        <ele>6454.14</ele>
        <time>2026-05-27T00:55:35</time>
      </trkpt>
      <trkpt lat="27.925384521484" lon="116.45893096924">
        <ele>6385.56</ele>
        <time>2026-05-27T00:55:50</time>
      </trkpt>
      <trkpt lat="27.941070556641" lon="116.4846572876">
        <ele>6316.98</ele>
        <time>2026-05-27T00:56:04</time>
      </trkpt>
      <trkpt lat="27.956630706787" lon="116.51038360596">
        <ele>6309.36</ele>
        <time>2026-05-27T00:56:19</time>
      </trkpt>
      <trkpt lat="27.971923828125" lon="116.53525543213">
        <ele>6309.36</ele>
        <time>2026-05-27T00:56:34</time>
      </trkpt>
      <trkpt lat="27.98844909668" lon="116.56251525879">
        <ele>6309.36</ele>
        <time>2026-05-27T00:56:49</time>
      </trkpt>
      <trkpt lat="28.003875732422" lon="116.58792114258">
        <ele>6309.36</ele>
        <time>2026-05-27T00:57:04</time>
      </trkpt>
      <trkpt lat="28.018936157227" lon="116.61237335205">
        <ele>6309.36</ele>
        <time>2026-05-27T00:57:19</time>
      </trkpt>
      <trkpt lat="28.033996582031" lon="116.63661956787">
        <ele>6309.36</ele>
        <time>2026-05-27T00:57:34</time>
      </trkpt>
      <trkpt lat="28.049259185791" lon="116.66166687012">
        <ele>6309.36</ele>
        <time>2026-05-27T00:57:49</time>
      </trkpt>
      <trkpt lat="28.064529418945" lon="116.68727111816">
        <ele>6309.36</ele>
        <time>2026-05-27T00:58:04</time>
      </trkpt>
      <trkpt lat="28.081008911133" lon="116.71519470215">
        <ele>6309.36</ele>
        <time>2026-05-27T00:58:23</time>
      </trkpt>
      <trkpt lat="28.099582672119" lon="116.73862457275">
        <ele>6309.36</ele>
        <time>2026-05-27T00:58:38</time>
      </trkpt>
      <trkpt lat="28.122997283936" lon="116.75779724121">
        <ele>6309.36</ele>
        <time>2026-05-27T00:58:53</time>
      </trkpt>
      <trkpt lat="28.145599365234" lon="116.77547454834">
        <ele>6309.36</ele>
        <time>2026-05-27T00:59:08</time>
      </trkpt>
      <trkpt lat="28.171365737915" lon="116.7957611084">
        <ele>6309.36</ele>
        <time>2026-05-27T00:59:23</time>
      </trkpt>
      <trkpt lat="28.196502685547" lon="116.8155670166">
        <ele>6309.36</ele>
        <time>2026-05-27T00:59:42</time>
      </trkpt>
      <trkpt lat="28.219593048096" lon="116.83378601074">
        <ele>6301.74</ele>
        <time>2026-05-27T00:59:57</time>
      </trkpt>
      <trkpt lat="28.244110107422" lon="116.85132598877">
        <ele>6225.54</ele>
        <time>2026-05-27T01:00:12</time>
      </trkpt>
      <trkpt lat="28.271072387695" lon="116.86199188232">
        <ele>6149.34</ele>
        <time>2026-05-27T01:00:27</time>
      </trkpt>
      <trkpt lat="28.297197341919" lon="116.86954498291">
        <ele>6080.76</ele>
        <time>2026-05-27T01:00:42</time>
      </trkpt>
      <trkpt lat="28.3235912323" lon="116.87713623047">
        <ele>6004.56</ele>
        <time>2026-05-27T01:00:57</time>
      </trkpt>
      <trkpt lat="28.34944152832" lon="116.88459777832">
        <ele>5928.36</ele>
        <time>2026-05-27T01:01:12</time>
      </trkpt>
      <trkpt lat="28.371870040894" lon="116.89114379883">
        <ele>5859.78</ele>
        <time>2026-05-27T01:01:27</time>
      </trkpt>
      <trkpt lat="28.395235061646" lon="116.89792633057">
        <ele>5791.2</ele>
        <time>2026-05-27T01:01:40</time>
      </trkpt>
      <trkpt lat="28.415765762329" lon="116.90390014648">
        <ele>5730.24</ele>
        <time>2026-05-27T01:01:55</time>
      </trkpt>
      <trkpt lat="28.441635131836" lon="116.91143035889">
        <ele>5699.76</ele>
        <time>2026-05-27T01:02:09</time>
      </trkpt>
      <trkpt lat="28.470199584961" lon="116.9197769165">
        <ele>5699.76</ele>
        <time>2026-05-27T01:02:24</time>
      </trkpt>
      <trkpt lat="28.496440887451" lon="116.92743682861">
        <ele>5699.76</ele>
        <time>2026-05-27T01:02:39</time>
      </trkpt>
      <trkpt lat="28.518550872803" lon="116.93385314941">
        <ele>5699.76</ele>
        <time>2026-05-27T01:02:54</time>
      </trkpt>
      <trkpt lat="28.547700881958" lon="116.94232940674">
        <ele>5699.76</ele>
        <time>2026-05-27T01:03:09</time>
      </trkpt>
      <trkpt lat="28.575439453125" lon="116.95049285889">
        <ele>5699.76</ele>
        <time>2026-05-27T01:03:24</time>
      </trkpt>
      <trkpt lat="28.602493286133" lon="116.95838928223">
        <ele>5699.76</ele>
        <time>2026-05-27T01:03:44</time>
      </trkpt>
      <trkpt lat="28.629999160767" lon="116.96643066406">
        <ele>5699.76</ele>
        <time>2026-05-27T01:03:59</time>
      </trkpt>
      <trkpt lat="28.65788269043" lon="116.97460174561">
        <ele>5699.76</ele>
        <time>2026-05-27T01:04:14</time>
      </trkpt>
      <trkpt lat="28.686630249023" lon="116.98300170898">
        <ele>5692.14</ele>
        <time>2026-05-27T01:04:29</time>
      </trkpt>
      <trkpt lat="28.712209701538" lon="116.99044799805">
        <ele>5631.18</ele>
        <time>2026-05-27T01:04:44</time>
      </trkpt>
      <trkpt lat="28.736976623535" lon="116.9977722168">
        <ele>5554.98</ele>
        <time>2026-05-27T01:04:59</time>
      </trkpt>
      <trkpt lat="28.761795043945" lon="117.00508117676">
        <ele>5486.4</ele>
        <time>2026-05-27T01:05:14</time>
      </trkpt>
      <trkpt lat="28.782411575317" lon="117.01112365723">
        <ele>5425.44</ele>
        <time>2026-05-27T01:05:28</time>
      </trkpt>
      <trkpt lat="28.809677124023" lon="117.01908111572">
        <ele>5341.62</ele>
        <time>2026-05-27T01:05:43</time>
      </trkpt>
      <trkpt lat="28.834409713745" lon="117.02631378174">
        <ele>5265.42</ele>
        <time>2026-05-27T01:05:58</time>
      </trkpt>
      <trkpt lat="28.85888671875" lon="117.03350067139">
        <ele>5181.6</ele>
        <time>2026-05-27T01:06:13</time>
      </trkpt>
      <trkpt lat="28.88410949707" lon="117.04089355469">
        <ele>5097.78</ele>
        <time>2026-05-27T01:06:28</time>
      </trkpt>
      <trkpt lat="28.908660888672" lon="117.04817962646">
        <ele>5021.58</ele>
        <time>2026-05-27T01:06:43</time>
      </trkpt>
      <trkpt lat="28.934230804443" lon="117.05573272705">
        <ele>4953.0</ele>
        <time>2026-05-27T01:06:58</time>
      </trkpt>
      <trkpt lat="28.961589813232" lon="117.06385040283">
        <ele>4869.18</ele>
        <time>2026-05-27T01:07:18</time>
      </trkpt>
      <trkpt lat="28.98747253418" lon="117.07144165039">
        <ele>4800.6</ele>
        <time>2026-05-27T01:07:33</time>
      </trkpt>
      <trkpt lat="29.011259078979" lon="117.07839202881">
        <ele>4785.36</ele>
        <time>2026-05-27T01:07:48</time>
      </trkpt>
      <trkpt lat="29.036270141602" lon="117.08568572998">
        <ele>4785.36</ele>
        <time>2026-05-27T01:08:03</time>
      </trkpt>
      <trkpt lat="29.062747955322" lon="117.09352111816">
        <ele>4785.36</ele>
        <time>2026-05-27T01:08:18</time>
      </trkpt>
      <trkpt lat="29.086212158203" lon="117.10047149658">
        <ele>4785.36</ele>
        <time>2026-05-27T01:08:33</time>
      </trkpt>
      <trkpt lat="29.110885620117" lon="117.10771179199">
        <ele>4785.36</ele>
        <time>2026-05-27T01:08:48</time>
      </trkpt>
      <trkpt lat="29.135969161987" lon="117.11506652832">
        <ele>4785.36</ele>
        <time>2026-05-27T01:09:03</time>
      </trkpt>
      <trkpt lat="29.162059783936" lon="117.12281036377">
        <ele>4785.36</ele>
        <time>2026-05-27T01:09:18</time>
      </trkpt>
      <trkpt lat="29.188346862793" lon="117.13063049316">
        <ele>4785.36</ele>
        <time>2026-05-27T01:09:33</time>
      </trkpt>
      <trkpt lat="29.21342086792" lon="117.13807678223">
        <ele>4785.36</ele>
        <time>2026-05-27T01:09:48</time>
      </trkpt>
      <trkpt lat="29.237785339355" lon="117.14527893066">
        <ele>4785.36</ele>
        <time>2026-05-27T01:10:03</time>
      </trkpt>
      <trkpt lat="29.259841918945" lon="117.15175628662">
        <ele>4785.36</ele>
        <time>2026-05-27T01:10:18</time>
      </trkpt>
      <trkpt lat="29.283731460571" lon="117.15895843506">
        <ele>4785.36</ele>
        <time>2026-05-27T01:10:33</time>
      </trkpt>
      <trkpt lat="29.313940048218" lon="117.16806030273">
        <ele>4785.36</ele>
        <time>2026-05-27T01:10:48</time>
      </trkpt>
      <trkpt lat="29.334230422974" lon="117.17420959473">
        <ele>4785.36</ele>
        <time>2026-05-27T01:11:03</time>
      </trkpt>
      <trkpt lat="29.358959197998" lon="117.18163299561">
        <ele>4785.36</ele>
        <time>2026-05-27T01:11:18</time>
      </trkpt>
      <trkpt lat="29.382890701294" lon="117.18852233887">
        <ele>4785.36</ele>
        <time>2026-05-27T01:11:33</time>
      </trkpt>
      <trkpt lat="29.422090530396" lon="117.19956207275">
        <ele>4785.36</ele>
        <time>2026-05-27T01:11:53</time>
      </trkpt>
      <trkpt lat="29.445789337158" lon="117.20622253418">
        <ele>4785.36</ele>
        <time>2026-05-27T01:12:08</time>
      </trkpt>
      <trkpt lat="29.469270706177" lon="117.21270751953">
        <ele>4785.36</ele>
        <time>2026-05-27T01:12:23</time>
      </trkpt>
      <trkpt lat="29.495590209961" lon="117.22003173828">
        <ele>4785.36</ele>
        <time>2026-05-27T01:12:42</time>
      </trkpt>
      <trkpt lat="29.528079986572" lon="117.22924041748">
        <ele>4785.36</ele>
        <time>2026-05-27T01:13:01</time>
      </trkpt>
      <trkpt lat="29.549739837646" lon="117.23542022705">
        <ele>4785.36</ele>
        <time>2026-05-27T01:13:15</time>
      </trkpt>
      <trkpt lat="29.980319976807" lon="117.3561706543">
        <ele>3467.1</ele>
        <time>2026-05-27T01:17:48</time>
      </trkpt>
      <trkpt lat="30.000820159912" lon="117.36199188232">
        <ele>3398.52</ele>
        <time>2026-05-27T01:18:00</time>
      </trkpt>
      <trkpt lat="30.030210494995" lon="117.37027740479">
        <ele>3238.5</ele>
        <time>2026-05-27T01:18:20</time>
      </trkpt>
      <trkpt lat="30.350242614746" lon="117.48796081543">
        <ele>2933.7</ele>
        <time>2026-05-27T01:22:29</time>
      </trkpt>
      <trkpt lat="30.386993408203" lon="117.50971221924">
        <ele>2171.7</ele>
        <time>2026-05-27T01:22:58</time>
      </trkpt>
      <trkpt lat="30.406198501587" lon="117.52102661133">
        <ele>2148.84</ele>
        <time>2026-05-27T01:23:11</time>
      </trkpt>
      <trkpt lat="30.416254043579" lon="117.52690124512">
        <ele>2141.22</ele>
        <time>2026-05-27T01:23:22</time>
      </trkpt>
      <trkpt lat="30.437295913696" lon="117.53910064697">
        <ele>2095.5</ele>
        <time>2026-05-27T01:23:36</time>
      </trkpt>
      <trkpt lat="30.455219268799" lon="117.54942321777">
        <ele>2057.4</ele>
        <time>2026-05-27T01:23:51</time>
      </trkpt>
      <trkpt lat="30.469882965088" lon="117.55788421631">
        <ele>2034.54</ele>
        <time>2026-05-27T01:24:03</time>
      </trkpt>
      <trkpt lat="30.486967086792" lon="117.56771850586">
        <ele>1996.4401</ele>
        <time>2026-05-27T01:24:19</time>
      </trkpt>
      <trkpt lat="30.506973266602" lon="117.5792388916">
        <ele>1958.34</ele>
        <time>2026-05-27T01:24:37</time>
      </trkpt>
      <trkpt lat="30.525924682617" lon="117.5901184082">
        <ele>1912.62</ele>
        <time>2026-05-27T01:24:52</time>
      </trkpt>
      <trkpt lat="30.543203353882" lon="117.60007476807">
        <ele>1882.14</ele>
        <time>2026-05-27T01:25:07</time>
      </trkpt>
      <trkpt lat="30.561172485352" lon="117.61047363281">
        <ele>1844.04</ele>
        <time>2026-05-27T01:25:21</time>
      </trkpt>
      <trkpt lat="30.579483032227" lon="117.62108612061">
        <ele>1805.9401</ele>
        <time>2026-05-27T01:25:36</time>
      </trkpt>
      <trkpt lat="30.597295761108" lon="117.63083648682">
        <ele>1767.84</ele>
        <time>2026-05-27T01:25:51</time>
      </trkpt>
      <trkpt lat="30.618301391602" lon="117.63314819336">
        <ele>1714.5</ele>
        <time>2026-05-27T01:26:07</time>
      </trkpt>
      <trkpt lat="30.635189056396" lon="117.62462615967">
        <ele>1684.02</ele>
        <time>2026-05-27T01:26:21</time>
      </trkpt>
      <trkpt lat="30.647735595703" lon="117.60832214355">
        <ele>1645.92</ele>
        <time>2026-05-27T01:26:36</time>
      </trkpt>
      <trkpt lat="30.656185150146" lon="117.59413909912">
        <ele>1623.06</ele>
        <time>2026-05-27T01:26:48</time>
      </trkpt>
      <trkpt lat="30.667922973633" lon="117.57471466064">
        <ele>1584.96</ele>
        <time>2026-05-27T01:27:07</time>
      </trkpt>
      <trkpt lat="30.693283081055" lon="117.53453826904">
        <ele>1493.52</ele>
        <time>2026-05-27T01:27:39</time>
      </trkpt>
    </trkseg>
  </trk>
</gpx>