<?xml version="1.0" encoding="UTF-8"?>
<gpx xmlns="http://www.topografix.com/GPX/1/1" xmlns:xsi="http://www.w3.org/2001/XMLSchema-instance" xsi:schemaLocation="http://www.topografix.com/GPX/1/1 http://www.topografix.com/GPX/1/1/gpx.xsd" version="1.1" creator="gpx.py -- https://github.com/tkrajina/gpxpy">
  <trk>
    <name>Variflight_MU9896_20260616.csv</name>
    <trkseg>
      <trkpt lat="34.484210968018" lon="114.00025177002">
        <ele>1455.42</ele>
        <time>2026-06-16T10:01:03</time>
      </trkpt>
      <trkpt lat="34.477939605713" lon="114.01947784424">
        <ele>1569.72</ele>
        <time>2026-06-16T10:01:18</time>
      </trkpt>
      <trkpt lat="34.470809936523" lon="114.04145812988">
        <ele>1790.7</ele>
        <time>2026-06-16T10:01:33</time>
      </trkpt>
      <trkpt lat="34.461360931396" lon="114.06463623047">
        <ele>1988.82</ele>
        <time>2026-06-16T10:01:48</time>
      </trkpt>
      <trkpt lat="34.449031829834" lon="114.08157348633">
        <ele>2186.94</ele>
        <time>2026-06-16T10:02:03</time>
      </trkpt>
      <trkpt lat="34.435321807861" lon="114.09924316406">
        <ele>2446.02</ele>
        <time>2026-06-16T10:02:18</time>
      </trkpt>
      <trkpt lat="34.420810699463" lon="114.11789703369">
        <ele>2667.0</ele>
        <time>2026-06-16T10:02:36</time>
      </trkpt>
      <trkpt lat="34.40503692627" lon="114.13822174072">
        <ele>2865.12</ele>
        <time>2026-06-16T10:02:56</time>
      </trkpt>
      <trkpt lat="34.389400482178" lon="114.15843200684">
        <ele>3101.34</ele>
        <time>2026-06-16T10:03:11</time>
      </trkpt>
      <trkpt lat="34.373329162598" lon="114.17931365967">
        <ele>3246.12</ele>
        <time>2026-06-16T10:03:26</time>
      </trkpt>
      <trkpt lat="34.358856201172" lon="114.19807434082">
        <ele>3307.08</ele>
        <time>2026-06-16T10:03:41</time>
      </trkpt>
      <trkpt lat="34.342750549316" lon="114.21890258789">
        <ele>3383.28</ele>
        <time>2026-06-16T10:03:56</time>
      </trkpt>
      <trkpt lat="34.327991485596" lon="114.23806762695">
        <ele>3444.24</ele>
        <time>2026-06-16T10:04:11</time>
      </trkpt>
      <trkpt lat="34.314468383789" lon="114.25563049316">
        <ele>3535.68</ele>
        <time>2026-06-16T10:04:26</time>
      </trkpt>
      <trkpt lat="34.290008544922" lon="114.28727722168">
        <ele>3771.9</ele>
        <time>2026-06-16T10:04:46</time>
      </trkpt>
      <trkpt lat="34.256790161133" lon="114.33023071289">
        <ele>4114.8</ele>
        <time>2026-06-16T10:05:16</time>
      </trkpt>
      <trkpt lat="34.232070922852" lon="114.36200714111">
        <ele>4328.16</ele>
        <time>2026-06-16T10:05:36</time>
      </trkpt>
      <trkpt lat="34.211612701416" lon="114.38278198242">
        <ele>4442.46</ele>
        <time>2026-06-16T10:05:51</time>
      </trkpt>
      <trkpt lat="34.187438964844" lon="114.396484375">
        <ele>4533.9</ele>
        <time>2026-06-16T10:06:06</time>
      </trkpt>
      <trkpt lat="34.16130065918" lon="114.40926361084">
        <ele>4671.06</ele>
        <time>2026-06-16T10:06:21</time>
      </trkpt>
      <trkpt lat="34.135025024414" lon="114.42205047607">
        <ele>4861.56</ele>
        <time>2026-06-16T10:06:36</time>
      </trkpt>
      <trkpt lat="34.10920715332" lon="114.43466186523">
        <ele>5013.96</ele>
        <time>2026-06-16T10:06:51</time>
      </trkpt>
      <trkpt lat="34.083778381348" lon="114.44721221924">
        <ele>5151.12</ele>
        <time>2026-06-16T10:07:06</time>
      </trkpt>
      <trkpt lat="34.057434082031" lon="114.46027374268">
        <ele>5295.9</ele>
        <time>2026-06-16T10:07:21</time>
      </trkpt>
      <trkpt lat="34.035179138184" lon="114.47135925293">
        <ele>5394.96</ele>
        <time>2026-06-16T10:07:36</time>
      </trkpt>
      <trkpt lat="34.009281158447" lon="114.48426818848">
        <ele>5509.26</ele>
        <time>2026-06-16T10:07:51</time>
      </trkpt>
      <trkpt lat="33.983039855957" lon="114.49733734131">
        <ele>5631.18</ele>
        <time>2026-06-16T10:08:06</time>
      </trkpt>
      <trkpt lat="33.957481384277" lon="114.5100402832">
        <ele>5692.14</ele>
        <time>2026-06-16T10:08:21</time>
      </trkpt>
      <trkpt lat="33.930858612061" lon="114.52326202393">
        <ele>5707.38</ele>
        <time>2026-06-16T10:08:36</time>
      </trkpt>
      <trkpt lat="33.90450668335" lon="114.53624725342">
        <ele>5707.38</ele>
        <time>2026-06-16T10:08:51</time>
      </trkpt>
      <trkpt lat="33.877319335938" lon="114.54969024658">
        <ele>5775.96</ele>
        <time>2026-06-16T10:09:06</time>
      </trkpt>
      <trkpt lat="33.851058959961" lon="114.56273651123">
        <ele>5852.16</ele>
        <time>2026-06-16T10:09:21</time>
      </trkpt>
      <trkpt lat="33.819408416748" lon="114.57847595215">
        <ele>5966.46</ele>
        <time>2026-06-16T10:09:36</time>
      </trkpt>
      <trkpt lat="33.790828704834" lon="114.59266662598">
        <ele>6096.0</ele>
        <time>2026-06-16T10:09:51</time>
      </trkpt>
      <trkpt lat="33.764240264893" lon="114.60584259033">
        <ele>6202.68</ele>
        <time>2026-06-16T10:10:06</time>
      </trkpt>
      <trkpt lat="33.735900878906" lon="114.61985778809">
        <ele>6278.88</ele>
        <time>2026-06-16T10:10:20</time>
      </trkpt>
      <trkpt lat="33.708759307861" lon="114.63324737549">
        <ele>6355.08</ele>
        <time>2026-06-16T10:10:35</time>
      </trkpt>
      <trkpt lat="33.67993927002" lon="114.64743041992">
        <ele>6416.04</ele>
        <time>2026-06-16T10:10:50</time>
      </trkpt>
      <trkpt lat="33.650981903076" lon="114.66161346436">
        <ele>6499.86</ele>
        <time>2026-06-16T10:11:05</time>
      </trkpt>
      <trkpt lat="33.623420715332" lon="114.674949646">
        <ele>6621.78</ele>
        <time>2026-06-16T10:11:20</time>
      </trkpt>
      <trkpt lat="33.594608306885" lon="114.68868255615">
        <ele>6728.46</ele>
        <time>2026-06-16T10:11:35</time>
      </trkpt>
      <trkpt lat="33.565280914307" lon="114.70252990723">
        <ele>6827.52</ele>
        <time>2026-06-16T10:11:50</time>
      </trkpt>
      <trkpt lat="33.543640136719" lon="114.71273803711">
        <ele>6873.24</ele>
        <time>2026-06-16T10:12:03</time>
      </trkpt>
      <trkpt lat="33.513191223145" lon="114.72731018066">
        <ele>6896.1</ele>
        <time>2026-06-16T10:12:18</time>
      </trkpt>
      <trkpt lat="33.485088348389" lon="114.74604034424">
        <ele>6934.2</ele>
        <time>2026-06-16T10:12:33</time>
      </trkpt>
      <trkpt lat="33.458038330078" lon="114.77504730225">
        <ele>7071.36</ele>
        <time>2026-06-16T10:12:52</time>
      </trkpt>
      <trkpt lat="33.439079284668" lon="114.80168914795">
        <ele>7216.14</ele>
        <time>2026-06-16T10:13:07</time>
      </trkpt>
      <trkpt lat="33.406860351562" lon="114.84670257568">
        <ele>7437.12</ele>
        <time>2026-06-16T10:13:27</time>
      </trkpt>
      <trkpt lat="33.387168884277" lon="114.87393951416">
        <ele>7498.08</ele>
        <time>2026-06-16T10:13:42</time>
      </trkpt>
      <trkpt lat="33.366733551025" lon="114.90208435059">
        <ele>7505.7</ele>
        <time>2026-06-16T10:13:57</time>
      </trkpt>
      <trkpt lat="33.345001220703" lon="114.93206787109">
        <ele>7505.7</ele>
        <time>2026-06-16T10:14:16</time>
      </trkpt>
      <trkpt lat="33.324970245361" lon="114.95973205566">
        <ele>7498.08</ele>
        <time>2026-06-16T10:14:31</time>
      </trkpt>
      <trkpt lat="33.303359985352" lon="114.98956298828">
        <ele>7498.08</ele>
        <time>2026-06-16T10:14:46</time>
      </trkpt>
      <trkpt lat="33.283451080322" lon="115.01708221436">
        <ele>7498.08</ele>
        <time>2026-06-16T10:15:00</time>
      </trkpt>
      <trkpt lat="33.263061523438" lon="115.04524230957">
        <ele>7498.08</ele>
        <time>2026-06-16T10:15:15</time>
      </trkpt>
      <trkpt lat="33.242301940918" lon="115.07388305664">
        <ele>7498.08</ele>
        <time>2026-06-16T10:15:30</time>
      </trkpt>
      <trkpt lat="33.221210479736" lon="115.10298156738">
        <ele>7498.08</ele>
        <time>2026-06-16T10:15:45</time>
      </trkpt>
      <trkpt lat="33.200588226318" lon="115.13144683838">
        <ele>7498.08</ele>
        <time>2026-06-16T10:16:00</time>
      </trkpt>
      <trkpt lat="33.180759429932" lon="115.15879821777">
        <ele>7498.08</ele>
        <time>2026-06-16T10:16:15</time>
      </trkpt>
      <trkpt lat="33.160629272461" lon="115.18653869629">
        <ele>7498.08</ele>
        <time>2026-06-16T10:16:30</time>
      </trkpt>
      <trkpt lat="33.139930725098" lon="115.21497344971">
        <ele>7498.08</ele>
        <time>2026-06-16T10:16:45</time>
      </trkpt>
      <trkpt lat="33.119750976562" lon="115.24268341064">
        <ele>7498.08</ele>
        <time>2026-06-16T10:17:00</time>
      </trkpt>
      <trkpt lat="33.099750518799" lon="115.27020263672">
        <ele>7498.08</ele>
        <time>2026-06-16T10:17:15</time>
      </trkpt>
      <trkpt lat="33.077449798584" lon="115.30084991455">
        <ele>7498.08</ele>
        <time>2026-06-16T10:17:33</time>
      </trkpt>
      <trkpt lat="33.057220458984" lon="115.32865142822">
        <ele>7498.08</ele>
        <time>2026-06-16T10:17:48</time>
      </trkpt>
      <trkpt lat="33.037380218506" lon="115.35594177246">
        <ele>7498.08</ele>
        <time>2026-06-16T10:18:03</time>
      </trkpt>
      <trkpt lat="33.017528533936" lon="115.38511657715">
        <ele>7498.08</ele>
        <time>2026-06-16T10:18:18</time>
      </trkpt>
      <trkpt lat="32.999809265137" lon="115.41440582275">
        <ele>7498.08</ele>
        <time>2026-06-16T10:18:33</time>
      </trkpt>
      <trkpt lat="32.982284545898" lon="115.44708251953">
        <ele>7498.08</ele>
        <time>2026-06-16T10:18:47</time>
      </trkpt>
      <trkpt lat="32.96312713623" lon="115.48049163818">
        <ele>7498.08</ele>
        <time>2026-06-16T10:19:06</time>
      </trkpt>
      <trkpt lat="32.943832397461" lon="115.51234436035">
        <ele>7498.08</ele>
        <time>2026-06-16T10:19:20</time>
      </trkpt>
      <trkpt lat="32.92557144165" lon="115.54206085205">
        <ele>7498.08</ele>
        <time>2026-06-16T10:19:35</time>
      </trkpt>
      <trkpt lat="32.907775878906" lon="115.57118225098">
        <ele>7498.08</ele>
        <time>2026-06-16T10:19:49</time>
      </trkpt>
      <trkpt lat="32.889575958252" lon="115.60122680664">
        <ele>7498.08</ele>
        <time>2026-06-16T10:20:04</time>
      </trkpt>
      <trkpt lat="32.871505737305" lon="115.63110351562">
        <ele>7498.08</ele>
        <time>2026-06-16T10:20:19</time>
      </trkpt>
      <trkpt lat="32.85298538208" lon="115.66114807129">
        <ele>7498.08</ele>
        <time>2026-06-16T10:20:34</time>
      </trkpt>
      <trkpt lat="32.832824707031" lon="115.68872833252">
        <ele>7498.08</ele>
        <time>2026-06-16T10:20:49</time>
      </trkpt>
      <trkpt lat="32.810340881348" lon="115.7137298584">
        <ele>7498.08</ele>
        <time>2026-06-16T10:21:04</time>
      </trkpt>
      <trkpt lat="32.786178588867" lon="115.73580169678">
        <ele>7498.08</ele>
        <time>2026-06-16T10:21:19</time>
      </trkpt>
      <trkpt lat="32.76123046875" lon="115.75904083252">
        <ele>7498.08</ele>
        <time>2026-06-16T10:21:34</time>
      </trkpt>
      <trkpt lat="32.739303588867" lon="115.78395843506">
        <ele>7498.08</ele>
        <time>2026-06-16T10:21:49</time>
      </trkpt>
      <trkpt lat="32.719009399414" lon="115.81170654297">
        <ele>7498.08</ele>
        <time>2026-06-16T10:22:04</time>
      </trkpt>
      <trkpt lat="32.703460693359" lon="115.83390045166">
        <ele>7498.08</ele>
        <time>2026-06-16T10:22:18</time>
      </trkpt>
      <trkpt lat="32.68355178833" lon="115.86225891113">
        <ele>7498.08</ele>
        <time>2026-06-16T10:22:33</time>
      </trkpt>
      <trkpt lat="32.663726806641" lon="115.89032745361">
        <ele>7498.08</ele>
        <time>2026-06-16T10:22:48</time>
      </trkpt>
      <trkpt lat="32.643592834473" lon="115.91876220703">
        <ele>7498.08</ele>
        <time>2026-06-16T10:23:03</time>
      </trkpt>
      <trkpt lat="32.623901367188" lon="115.94657897949">
        <ele>7528.56</ele>
        <time>2026-06-16T10:23:18</time>
      </trkpt>
      <trkpt lat="32.604125976562" lon="115.97447967529">
        <ele>7604.7603</ele>
        <time>2026-06-16T10:23:33</time>
      </trkpt>
      <trkpt lat="32.584209442139" lon="116.00254821777">
        <ele>7673.34</ele>
        <time>2026-06-16T10:23:48</time>
      </trkpt>
      <trkpt lat="32.563896179199" lon="116.03120422363">
        <ele>7787.64</ele>
        <time>2026-06-16T10:24:03</time>
      </trkpt>
      <trkpt lat="32.544250488281" lon="116.05883789062">
        <ele>7917.18</ele>
        <time>2026-06-16T10:24:18</time>
      </trkpt>
      <trkpt lat="32.524559020996" lon="116.08658599854">
        <ele>8046.72</ele>
        <time>2026-06-16T10:24:33</time>
      </trkpt>
      <trkpt lat="32.504306793213" lon="116.11500549316">
        <ele>8176.26</ele>
        <time>2026-06-16T10:24:48</time>
      </trkpt>
      <trkpt lat="32.484477996826" lon="116.14297485352">
        <ele>8313.42</ele>
        <time>2026-06-16T10:25:03</time>
      </trkpt>
      <trkpt lat="32.465484619141" lon="116.16999053955">
        <ele>8450.58</ele>
        <time>2026-06-16T10:25:18</time>
      </trkpt>
      <trkpt lat="32.44588470459" lon="116.19802093506">
        <ele>8580.12</ele>
        <time>2026-06-16T10:25:33</time>
      </trkpt>
      <trkpt lat="32.426471710205" lon="116.22570800781">
        <ele>8671.56</ele>
        <time>2026-06-16T10:25:48</time>
      </trkpt>
      <trkpt lat="32.407245635986" lon="116.25317382812">
        <ele>8755.38</ele>
        <time>2026-06-16T10:26:03</time>
      </trkpt>
      <trkpt lat="32.387088775635" lon="116.28187561035">
        <ele>8831.58</ele>
        <time>2026-06-16T10:26:18</time>
      </trkpt>
      <trkpt lat="32.367492675781" lon="116.30973052979">
        <ele>8869.68</ele>
        <time>2026-06-16T10:26:32</time>
      </trkpt>
      <trkpt lat="32.347473144531" lon="116.33815002441">
        <ele>8869.68</ele>
        <time>2026-06-16T10:26:47</time>
      </trkpt>
      <trkpt lat="32.326850891113" lon="116.36735534668">
        <ele>8869.68</ele>
        <time>2026-06-16T10:27:02</time>
      </trkpt>
      <trkpt lat="32.305763244629" lon="116.39723205566">
        <ele>8869.68</ele>
        <time>2026-06-16T10:27:16</time>
      </trkpt>
      <trkpt lat="32.285232543945" lon="116.42643737793">
        <ele>8869.68</ele>
        <time>2026-06-16T10:27:31</time>
      </trkpt>
      <trkpt lat="32.264751434326" lon="116.45626068115">
        <ele>8869.68</ele>
        <time>2026-06-16T10:27:46</time>
      </trkpt>
      <trkpt lat="32.244598388672" lon="116.48628234863">
        <ele>8869.68</ele>
        <time>2026-06-16T10:28:01</time>
      </trkpt>
      <trkpt lat="32.224437713623" lon="116.51651000977">
        <ele>8869.68</ele>
        <time>2026-06-16T10:28:16</time>
      </trkpt>
      <trkpt lat="32.204326629639" lon="116.54655456543">
        <ele>8869.68</ele>
        <time>2026-06-16T10:28:31</time>
      </trkpt>
      <trkpt lat="32.184028625488" lon="116.57671356201">
        <ele>8869.68</ele>
        <time>2026-06-16T10:28:46</time>
      </trkpt>
      <trkpt lat="32.163848876953" lon="116.6065826416">
        <ele>8869.68</ele>
        <time>2026-06-16T10:29:01</time>
      </trkpt>
      <trkpt lat="32.143798828125" lon="116.63623809814">
        <ele>8869.68</ele>
        <time>2026-06-16T10:29:16</time>
      </trkpt>
      <trkpt lat="32.121929168701" lon="116.66841125488">
        <ele>8869.68</ele>
        <time>2026-06-16T10:29:35</time>
      </trkpt>
      <trkpt lat="32.101959228516" lon="116.69749450684">
        <ele>8869.68</ele>
        <time>2026-06-16T10:29:50</time>
      </trkpt>
      <trkpt lat="32.080917358398" lon="116.72687530518">
        <ele>8869.68</ele>
        <time>2026-06-16T10:30:05</time>
      </trkpt>
      <trkpt lat="32.060062408447" lon="116.75540924072">
        <ele>8869.68</ele>
        <time>2026-06-16T10:30:20</time>
      </trkpt>
      <trkpt lat="32.038459777832" lon="116.78488922119">
        <ele>8869.68</ele>
        <time>2026-06-16T10:30:34</time>
      </trkpt>
      <trkpt lat="32.014846801758" lon="116.81729888916">
        <ele>8869.68</ele>
        <time>2026-06-16T10:30:49</time>
      </trkpt>
      <trkpt lat="31.993999481201" lon="116.84616088867">
        <ele>8869.68</ele>
        <time>2026-06-16T10:31:04</time>
      </trkpt>
      <trkpt lat="31.972457885742" lon="116.87596130371">
        <ele>8869.68</ele>
        <time>2026-06-16T10:31:19</time>
      </trkpt>
      <trkpt lat="31.951354980469" lon="116.90518951416">
        <ele>8869.68</ele>
        <time>2026-06-16T10:31:34</time>
      </trkpt>
      <trkpt lat="31.92254447937" lon="116.9450378418">
        <ele>8869.68</ele>
        <time>2026-06-16T10:31:59</time>
      </trkpt>
      <trkpt lat="31.901733398438" lon="116.9739074707">
        <ele>8869.68</ele>
        <time>2026-06-16T10:32:14</time>
      </trkpt>
      <trkpt lat="31.878709793091" lon="117.00588226318">
        <ele>8869.68</ele>
        <time>2026-06-16T10:32:29</time>
      </trkpt>
      <trkpt lat="31.856506347656" lon="117.03675079346">
        <ele>8869.68</ele>
        <time>2026-06-16T10:32:44</time>
      </trkpt>
      <trkpt lat="31.83430480957" lon="117.06756591797">
        <ele>8869.68</ele>
        <time>2026-06-16T10:32:59</time>
      </trkpt>
      <trkpt lat="31.813705444336" lon="117.09645843506">
        <ele>8869.68</ele>
        <time>2026-06-16T10:33:13</time>
      </trkpt>
      <trkpt lat="31.793600082397" lon="117.12715148926">
        <ele>8869.68</ele>
        <time>2026-06-16T10:33:28</time>
      </trkpt>
      <trkpt lat="31.774429321289" lon="117.15979766846">
        <ele>8869.68</ele>
        <time>2026-06-16T10:33:46</time>
      </trkpt>
      <trkpt lat="31.758316040039" lon="117.19422912598">
        <ele>8862.06</ele>
        <time>2026-06-16T10:34:01</time>
      </trkpt>
      <trkpt lat="31.744060516357" lon="117.22988891602">
        <ele>8869.68</ele>
        <time>2026-06-16T10:34:16</time>
      </trkpt>
      <trkpt lat="31.729934692383" lon="117.26467132568">
        <ele>8877.3</ele>
        <time>2026-06-16T10:34:31</time>
      </trkpt>
      <trkpt lat="31.717435836792" lon="117.30003356934">
        <ele>8877.3</ele>
        <time>2026-06-16T10:34:45</time>
      </trkpt>
      <trkpt lat="31.709802627563" lon="117.3409576416">
        <ele>8884.92</ele>
        <time>2026-06-16T10:35:00</time>
      </trkpt>
      <trkpt lat="31.708269119263" lon="117.39710235596">
        <ele>8884.92</ele>
        <time>2026-06-16T10:35:24</time>
      </trkpt>
      <trkpt lat="31.709426879883" lon="117.43518066406">
        <ele>8884.92</ele>
        <time>2026-06-16T10:35:38</time>
      </trkpt>
      <trkpt lat="31.709976196289" lon="117.46560668945">
        <ele>8884.92</ele>
        <time>2026-06-16T10:35:50</time>
      </trkpt>
      <trkpt lat="31.709518432617" lon="117.50647735596">
        <ele>8877.3</ele>
        <time>2026-06-16T10:36:05</time>
      </trkpt>
      <trkpt lat="31.707986831665" lon="117.54447937012">
        <ele>8877.3</ele>
        <time>2026-06-16T10:36:20</time>
      </trkpt>
      <trkpt lat="31.705400466919" lon="117.5877532959">
        <ele>8869.68</ele>
        <time>2026-06-16T10:36:39</time>
      </trkpt>
      <trkpt lat="31.702697753906" lon="117.62554931641">
        <ele>8869.68</ele>
        <time>2026-06-16T10:36:53</time>
      </trkpt>
      <trkpt lat="31.699653625488" lon="117.66659545898">
        <ele>8862.06</ele>
        <time>2026-06-16T10:37:08</time>
      </trkpt>
      <trkpt lat="31.697233200073" lon="117.70411682129">
        <ele>8862.06</ele>
        <time>2026-06-16T10:37:23</time>
      </trkpt>
      <trkpt lat="31.698211669922" lon="117.74214935303">
        <ele>8862.06</ele>
        <time>2026-06-16T10:37:38</time>
      </trkpt>
      <trkpt lat="31.703430175781" lon="117.78210449219">
        <ele>8862.06</ele>
        <time>2026-06-16T10:37:56</time>
      </trkpt>
      <trkpt lat="31.710250854492" lon="117.82347106934">
        <ele>8862.06</ele>
        <time>2026-06-16T10:38:11</time>
      </trkpt>
      <trkpt lat="31.716064453125" lon="117.85944366455">
        <ele>8862.06</ele>
        <time>2026-06-16T10:38:25</time>
      </trkpt>
      <trkpt lat="31.720230102539" lon="117.89013671875">
        <ele>8862.06</ele>
        <time>2026-06-16T10:38:38</time>
      </trkpt>
      <trkpt lat="31.722839355469" lon="117.91760253906">
        <ele>8862.06</ele>
        <time>2026-06-16T10:38:49</time>
      </trkpt>
      <trkpt lat="31.724578857422" lon="117.94701385498">
        <ele>8862.06</ele>
        <time>2026-06-16T10:39:01</time>
      </trkpt>
      <trkpt lat="31.725173950195" lon="117.98616027832">
        <ele>8862.06</ele>
        <time>2026-06-16T10:39:15</time>
      </trkpt>
      <trkpt lat="31.723983764648" lon="118.02337646484">
        <ele>8862.06</ele>
        <time>2026-06-16T10:39:30</time>
      </trkpt>
      <trkpt lat="31.722061157227" lon="118.05133056641">
        <ele>8869.68</ele>
        <time>2026-06-16T10:39:43</time>
      </trkpt>
      <trkpt lat="31.719039916992" lon="118.08918762207">
        <ele>8869.68</ele>
        <time>2026-06-16T10:39:58</time>
      </trkpt>
      <trkpt lat="31.716110229492" lon="118.1280670166">
        <ele>8869.68</ele>
        <time>2026-06-16T10:40:13</time>
      </trkpt>
      <trkpt lat="31.713430404663" lon="118.16609191895">
        <ele>8877.3</ele>
        <time>2026-06-16T10:40:28</time>
      </trkpt>
      <trkpt lat="31.710729598999" lon="118.20645904541">
        <ele>8869.68</ele>
        <time>2026-06-16T10:40:43</time>
      </trkpt>
      <trkpt lat="31.708145141602" lon="118.24542236328">
        <ele>8869.68</ele>
        <time>2026-06-16T10:40:58</time>
      </trkpt>
      <trkpt lat="31.705240249634" lon="118.28858947754">
        <ele>8869.68</ele>
        <time>2026-06-16T10:41:13</time>
      </trkpt>
      <trkpt lat="31.702239990234" lon="118.33180236816">
        <ele>8869.68</ele>
        <time>2026-06-16T10:41:28</time>
      </trkpt>
      <trkpt lat="31.699356079102" lon="118.37245941162">
        <ele>8869.68</ele>
        <time>2026-06-16T10:41:43</time>
      </trkpt>
      <trkpt lat="31.695928573608" lon="118.42025756836">
        <ele>8869.68</ele>
        <time>2026-06-16T10:42:02</time>
      </trkpt>
      <trkpt lat="31.692855834961" lon="118.46343231201">
        <ele>8869.68</ele>
        <time>2026-06-16T10:42:17</time>
      </trkpt>
      <trkpt lat="31.689830780029" lon="118.50523376465">
        <ele>8869.68</ele>
        <time>2026-06-16T10:42:32</time>
      </trkpt>
      <trkpt lat="31.686849594116" lon="118.54654693604">
        <ele>8869.68</ele>
        <time>2026-06-16T10:42:46</time>
      </trkpt>
      <trkpt lat="31.683685302734" lon="118.59037780762">
        <ele>8869.68</ele>
        <time>2026-06-16T10:43:04</time>
      </trkpt>
      <trkpt lat="31.680633544922" lon="118.63198852539">
        <ele>8869.68</ele>
        <time>2026-06-16T10:43:18</time>
      </trkpt>
      <trkpt lat="31.677030563354" lon="118.68157196045">
        <ele>8862.06</ele>
        <time>2026-06-16T10:43:36</time>
      </trkpt>
      <trkpt lat="31.674041748047" lon="118.72171020508">
        <ele>8877.3</ele>
        <time>2026-06-16T10:43:50</time>
      </trkpt>
      <trkpt lat="31.671798706055" lon="118.75148773193">
        <ele>8877.3</ele>
        <time>2026-06-16T10:44:04</time>
      </trkpt>
      <trkpt lat="31.66877746582" lon="118.79273986816">
        <ele>8869.68</ele>
        <time>2026-06-16T10:44:19</time>
      </trkpt>
      <trkpt lat="31.665950775146" lon="118.83087158203">
        <ele>8869.68</ele>
        <time>2026-06-16T10:44:34</time>
      </trkpt>
      <trkpt lat="31.663055419922" lon="118.86937713623">
        <ele>8869.68</ele>
        <time>2026-06-16T10:44:49</time>
      </trkpt>
      <trkpt lat="31.660079956055" lon="118.90981292725">
        <ele>8869.68</ele>
        <time>2026-06-16T10:45:04</time>
      </trkpt>
      <trkpt lat="31.657289505005" lon="118.94725036621">
        <ele>8869.68</ele>
        <time>2026-06-16T10:45:19</time>
      </trkpt>
      <trkpt lat="31.654357910156" lon="118.98580932617">
        <ele>8869.68</ele>
        <time>2026-06-16T10:45:34</time>
      </trkpt>
      <trkpt lat="31.651424407959" lon="119.02445220947">
        <ele>8869.68</ele>
        <time>2026-06-16T10:45:49</time>
      </trkpt>
      <trkpt lat="31.648498535156" lon="119.06368255615">
        <ele>8869.68</ele>
        <time>2026-06-16T10:46:04</time>
      </trkpt>
      <trkpt lat="31.646118164062" lon="119.10388183594">
        <ele>8869.68</ele>
        <time>2026-06-16T10:46:19</time>
      </trkpt>
      <trkpt lat="31.644287109375" lon="119.14236450195">
        <ele>8869.68</ele>
        <time>2026-06-16T10:46:34</time>
      </trkpt>
      <trkpt lat="31.642673492432" lon="119.18144226074">
        <ele>8877.3</ele>
        <time>2026-06-16T10:46:49</time>
      </trkpt>
      <trkpt lat="31.641183853149" lon="119.2205581665">
        <ele>8884.92</ele>
        <time>2026-06-16T10:47:04</time>
      </trkpt>
      <trkpt lat="31.639617919922" lon="119.26014709473">
        <ele>8884.92</ele>
        <time>2026-06-16T10:47:19</time>
      </trkpt>
      <trkpt lat="31.638107299805" lon="119.29789733887">
        <ele>8884.92</ele>
        <time>2026-06-16T10:47:34</time>
      </trkpt>
      <trkpt lat="31.6364402771" lon="119.33712005615">
        <ele>8884.92</ele>
        <time>2026-06-16T10:47:49</time>
      </trkpt>
      <trkpt lat="31.634666442871" lon="119.37535095215">
        <ele>8877.3</ele>
        <time>2026-06-16T10:48:04</time>
      </trkpt>
      <trkpt lat="31.632888793945" lon="119.41379547119">
        <ele>8877.3</ele>
        <time>2026-06-16T10:48:19</time>
      </trkpt>
      <trkpt lat="31.631454467773" lon="119.44325256348">
        <ele>8869.68</ele>
        <time>2026-06-16T10:48:33</time>
      </trkpt>
      <trkpt lat="31.629589080811" lon="119.48191833496">
        <ele>8869.68</ele>
        <time>2026-06-16T10:48:48</time>
      </trkpt>
      <trkpt lat="31.627716064453" lon="119.52063751221">
        <ele>8869.68</ele>
        <time>2026-06-16T10:49:03</time>
      </trkpt>
      <trkpt lat="31.625885009766" lon="119.55882263184">
        <ele>8869.68</ele>
        <time>2026-06-16T10:49:18</time>
      </trkpt>
      <trkpt lat="31.624052047729" lon="119.59727478027">
        <ele>8862.06</ele>
        <time>2026-06-16T10:49:33</time>
      </trkpt>
      <trkpt lat="31.622129440308" lon="119.63648223877">
        <ele>8862.06</ele>
        <time>2026-06-16T10:49:48</time>
      </trkpt>
      <trkpt lat="31.620254516602" lon="119.67461395264">
        <ele>8869.68</ele>
        <time>2026-06-16T10:50:03</time>
      </trkpt>
      <trkpt lat="31.61837387085" lon="119.71324157715">
        <ele>8869.68</ele>
        <time>2026-06-16T10:50:18</time>
      </trkpt>
      <trkpt lat="31.616590499878" lon="119.75161743164">
        <ele>8862.06</ele>
        <time>2026-06-16T10:50:33</time>
      </trkpt>
      <trkpt lat="31.614835739136" lon="119.79085540771">
        <ele>8862.06</ele>
        <time>2026-06-16T10:50:48</time>
      </trkpt>
      <trkpt lat="31.613065719604" lon="119.82985687256">
        <ele>8823.96</ele>
        <time>2026-06-16T10:51:03</time>
      </trkpt>
      <trkpt lat="31.611282348633" lon="119.86827087402">
        <ele>8702.04</ele>
        <time>2026-06-16T10:51:18</time>
      </trkpt>
      <trkpt lat="31.609497070312" lon="119.90710449219">
        <ele>8564.88</ele>
        <time>2026-06-16T10:51:33</time>
      </trkpt>
      <trkpt lat="31.607666015625" lon="119.94603729248">
        <ele>8420.1</ele>
        <time>2026-06-16T10:51:47</time>
      </trkpt>
      <trkpt lat="31.60597038269" lon="119.98259735107">
        <ele>8267.7</ele>
        <time>2026-06-16T10:52:02</time>
      </trkpt>
      <trkpt lat="31.604034423828" lon="120.0234375">
        <ele>8122.92</ele>
        <time>2026-06-16T10:52:17</time>
      </trkpt>
      <trkpt lat="31.6022605896" lon="120.06031799316">
        <ele>7978.14</ele>
        <time>2026-06-16T10:52:32</time>
      </trkpt>
      <trkpt lat="31.600524902344" lon="120.09720611572">
        <ele>7840.98</ele>
        <time>2026-06-16T10:52:47</time>
      </trkpt>
      <trkpt lat="31.598775863647" lon="120.13307952881">
        <ele>7719.06</ele>
        <time>2026-06-16T10:53:02</time>
      </trkpt>
      <trkpt lat="31.597091674805" lon="120.16845703125">
        <ele>7604.7603</ele>
        <time>2026-06-16T10:53:17</time>
      </trkpt>
      <trkpt lat="31.595169067383" lon="120.20690917969">
        <ele>7490.46</ele>
        <time>2026-06-16T10:53:32</time>
      </trkpt>
      <trkpt lat="31.59342956543" lon="120.24180603027">
        <ele>7376.16</ele>
        <time>2026-06-16T10:53:47</time>
      </trkpt>
      <trkpt lat="31.590534210205" lon="120.2767791748">
        <ele>7261.86</ele>
        <time>2026-06-16T10:54:02</time>
      </trkpt>
      <trkpt lat="31.585739135742" lon="120.31198120117">
        <ele>7155.18</ele>
        <time>2026-06-16T10:54:17</time>
      </trkpt>
      <trkpt lat="31.57884979248" lon="120.3486328125">
        <ele>7033.26</ele>
        <time>2026-06-16T10:54:36</time>
      </trkpt>
      <trkpt lat="31.570610046387" lon="120.3825302124">
        <ele>6934.2</ele>
        <time>2026-06-16T10:54:51</time>
      </trkpt>
      <trkpt lat="31.56130027771" lon="120.41427612305">
        <ele>6896.1</ele>
        <time>2026-06-16T10:55:06</time>
      </trkpt>
      <trkpt lat="31.551431655884" lon="120.44706726074">
        <ele>6888.48</ele>
        <time>2026-06-16T10:55:21</time>
      </trkpt>
      <trkpt lat="31.541469573975" lon="120.48040771484">
        <ele>6888.48</ele>
        <time>2026-06-16T10:55:36</time>
      </trkpt>
      <trkpt lat="31.531692504883" lon="120.51320648193">
        <ele>6888.48</ele>
        <time>2026-06-16T10:55:51</time>
      </trkpt>
      <trkpt lat="31.522064208984" lon="120.54538726807">
        <ele>6888.48</ele>
        <time>2026-06-16T10:56:06</time>
      </trkpt>
      <trkpt lat="31.512279510498" lon="120.57814025879">
        <ele>6888.48</ele>
        <time>2026-06-16T10:56:21</time>
      </trkpt>
      <trkpt lat="31.502380371094" lon="120.61135864258">
        <ele>6888.48</ele>
        <time>2026-06-16T10:56:36</time>
      </trkpt>
      <trkpt lat="31.492774963379" lon="120.64350891113">
        <ele>6888.48</ele>
        <time>2026-06-16T10:56:51</time>
      </trkpt>
      <trkpt lat="31.483062744141" lon="120.67597961426">
        <ele>6842.76</ele>
        <time>2026-06-16T10:57:06</time>
      </trkpt>
      <trkpt lat="31.47340965271" lon="120.70805358887">
        <ele>6766.56</ele>
        <time>2026-06-16T10:57:21</time>
      </trkpt>
      <trkpt lat="31.46390914917" lon="120.73975372314">
        <ele>6697.98</ele>
        <time>2026-06-16T10:57:36</time>
      </trkpt>
      <trkpt lat="31.454742431641" lon="120.77033996582">
        <ele>6629.4</ele>
        <time>2026-06-16T10:57:51</time>
      </trkpt>
      <trkpt lat="31.445291519165" lon="120.80176544189">
        <ele>6560.82</ele>
        <time>2026-06-16T10:58:06</time>
      </trkpt>
      <trkpt lat="31.436325073242" lon="120.83129882812">
        <ele>6484.62</ele>
        <time>2026-06-16T10:58:21</time>
      </trkpt>
      <trkpt lat="31.426666259766" lon="120.86318206787">
        <ele>6416.04</ele>
        <time>2026-06-16T10:58:36</time>
      </trkpt>
      <trkpt lat="31.41773223877" lon="120.89295196533">
        <ele>6339.84</ele>
        <time>2026-06-16T10:58:51</time>
      </trkpt>
      <trkpt lat="31.408493041992" lon="120.92350006104">
        <ele>6309.36</ele>
        <time>2026-06-16T10:59:06</time>
      </trkpt>
      <trkpt lat="31.399438858032" lon="120.9535369873">
        <ele>6309.36</ele>
        <time>2026-06-16T10:59:21</time>
      </trkpt>
      <trkpt lat="31.389987945557" lon="120.98446655273">
        <ele>6309.36</ele>
        <time>2026-06-16T10:59:36</time>
      </trkpt>
      <trkpt lat="31.380981445312" lon="121.01413726807">
        <ele>6309.36</ele>
        <time>2026-06-16T10:59:51</time>
      </trkpt>
      <trkpt lat="31.371688842773" lon="121.04461669922">
        <ele>6309.36</ele>
        <time>2026-06-16T11:00:06</time>
      </trkpt>
      <trkpt lat="31.362579345703" lon="121.07450866699">
        <ele>6309.36</ele>
        <time>2026-06-16T11:00:21</time>
      </trkpt>
      <trkpt lat="31.353149414062" lon="121.10536193848">
        <ele>6309.36</ele>
        <time>2026-06-16T11:00:36</time>
      </trkpt>
      <trkpt lat="31.344039916992" lon="121.13520050049">
        <ele>6309.36</ele>
        <time>2026-06-16T11:00:51</time>
      </trkpt>
      <trkpt lat="31.334684371948" lon="121.16541290283">
        <ele>6309.36</ele>
        <time>2026-06-16T11:01:06</time>
      </trkpt>
      <trkpt lat="31.325317382812" lon="121.19541168213">
        <ele>6309.36</ele>
        <time>2026-06-16T11:01:21</time>
      </trkpt>
      <trkpt lat="31.315923690796" lon="121.22556304932">
        <ele>6309.36</ele>
        <time>2026-06-16T11:01:36</time>
      </trkpt>
      <trkpt lat="31.306411743164" lon="121.25626373291">
        <ele>6294.12</ele>
        <time>2026-06-16T11:01:51</time>
      </trkpt>
      <trkpt lat="31.297256469727" lon="121.28554534912">
        <ele>6225.54</ele>
        <time>2026-06-16T11:02:06</time>
      </trkpt>
      <trkpt lat="31.284713745117" lon="121.31259918213">
        <ele>6141.72</ele>
        <time>2026-06-16T11:02:21</time>
      </trkpt>
      <trkpt lat="31.266311645508" lon="121.33279418945">
        <ele>6065.52</ele>
        <time>2026-06-16T11:02:36</time>
      </trkpt>
      <trkpt lat="31.244604110718" lon="121.34492492676">
        <ele>5989.32</ele>
        <time>2026-06-16T11:02:51</time>
      </trkpt>
      <trkpt lat="31.222183227539" lon="121.35374450684">
        <ele>5920.74</ele>
        <time>2026-06-16T11:03:06</time>
      </trkpt>
      <trkpt lat="31.199403762817" lon="121.36261749268">
        <ele>5844.54</ele>
        <time>2026-06-16T11:03:21</time>
      </trkpt>
      <trkpt lat="31.176034927368" lon="121.37168121338">
        <ele>5768.34</ele>
        <time>2026-06-16T11:03:36</time>
      </trkpt>
      <trkpt lat="31.153656005859" lon="121.38045501709">
        <ele>5692.14</ele>
        <time>2026-06-16T11:03:51</time>
      </trkpt>
      <trkpt lat="31.131500244141" lon="121.38939666748">
        <ele>5615.94</ele>
        <time>2026-06-16T11:04:06</time>
      </trkpt>
      <trkpt lat="31.109464645386" lon="121.40112304688">
        <ele>5539.74</ele>
        <time>2026-06-16T11:04:21</time>
      </trkpt>
      <trkpt lat="31.087863922119" lon="121.4136505127">
        <ele>5471.16</ele>
        <time>2026-06-16T11:04:36</time>
      </trkpt>
      <trkpt lat="31.067001342773" lon="121.4256362915">
        <ele>5410.2</ele>
        <time>2026-06-16T11:04:51</time>
      </trkpt>
      <trkpt lat="31.045547485352" lon="121.43787384033">
        <ele>5394.96</ele>
        <time>2026-06-16T11:05:06</time>
      </trkpt>
      <trkpt lat="31.024566650391" lon="121.44982147217">
        <ele>5372.1</ele>
        <time>2026-06-16T11:05:21</time>
      </trkpt>
      <trkpt lat="31.003650665283" lon="121.46165466309">
        <ele>5288.28</ele>
        <time>2026-06-16T11:05:36</time>
      </trkpt>
      <trkpt lat="30.981956481934" lon="121.47225952148">
        <ele>5173.98</ele>
        <time>2026-06-16T11:05:51</time>
      </trkpt>
      <trkpt lat="30.959705352783" lon="121.47802734375">
        <ele>5067.3</ele>
        <time>2026-06-16T11:06:06</time>
      </trkpt>
      <trkpt lat="30.937313079834" lon="121.48307800293">
        <ele>4960.62</ele>
        <time>2026-06-16T11:06:21</time>
      </trkpt>
      <trkpt lat="30.91543006897" lon="121.48792266846">
        <ele>4853.94</ele>
        <time>2026-06-16T11:06:36</time>
      </trkpt>
      <trkpt lat="30.892913818359" lon="121.49301147461">
        <ele>4739.64</ele>
        <time>2026-06-16T11:06:51</time>
      </trkpt>
      <trkpt lat="30.870929718018" lon="121.49797058105">
        <ele>4625.34</ele>
        <time>2026-06-16T11:07:06</time>
      </trkpt>
      <trkpt lat="30.848602294922" lon="121.50302886963">
        <ele>4511.04</ele>
        <time>2026-06-16T11:07:21</time>
      </trkpt>
      <trkpt lat="30.827125549316" lon="121.50796508789">
        <ele>4404.36</ele>
        <time>2026-06-16T11:07:36</time>
      </trkpt>
      <trkpt lat="30.805070877075" lon="121.51299285889">
        <ele>4290.06</ele>
        <time>2026-06-16T11:07:51</time>
      </trkpt>
      <trkpt lat="30.783319473267" lon="121.51790618896">
        <ele>4183.38</ele>
        <time>2026-06-16T11:08:06</time>
      </trkpt>
      <trkpt lat="30.761951446533" lon="121.5227432251">
        <ele>4069.08</ele>
        <time>2026-06-16T11:08:21</time>
      </trkpt>
      <trkpt lat="30.739700317383" lon="121.52779388428">
        <ele>3954.78</ele>
        <time>2026-06-16T11:08:36</time>
      </trkpt>
      <trkpt lat="30.7184715271" lon="121.53257751465">
        <ele>3840.48</ele>
        <time>2026-06-16T11:08:51</time>
      </trkpt>
      <trkpt lat="30.697429656982" lon="121.53718566895">
        <ele>3733.8</ele>
        <time>2026-06-16T11:09:06</time>
      </trkpt>
      <trkpt lat="30.675933837891" lon="121.53776550293">
        <ele>3611.88</ele>
        <time>2026-06-16T11:09:21</time>
      </trkpt>
      <trkpt lat="30.654880523682" lon="121.53422546387">
        <ele>3512.82</ele>
        <time>2026-06-16T11:09:36</time>
      </trkpt>
      <trkpt lat="30.634048461914" lon="121.53070831299">
        <ele>3436.62</ele>
        <time>2026-06-16T11:09:51</time>
      </trkpt>
      <trkpt lat="30.61344909668" lon="121.52741241455">
        <ele>3368.04</ele>
        <time>2026-06-16T11:10:06</time>
      </trkpt>
      <trkpt lat="30.593032836914" lon="121.52419281006">
        <ele>3291.84</ele>
        <time>2026-06-16T11:10:21</time>
      </trkpt>
      <trkpt lat="30.571840286255" lon="121.52085113525">
        <ele>3215.64</ele>
        <time>2026-06-16T11:10:36</time>
      </trkpt>
      <trkpt lat="30.552154541016" lon="121.51778411865">
        <ele>3139.44</ele>
        <time>2026-06-16T11:10:51</time>
      </trkpt>
      <trkpt lat="30.531192779541" lon="121.51445007324">
        <ele>3070.86</ele>
        <time>2026-06-16T11:11:06</time>
      </trkpt>
      <trkpt lat="30.511690139771" lon="121.51136779785">
        <ele>2994.66</ele>
        <time>2026-06-16T11:11:21</time>
      </trkpt>
      <trkpt lat="30.490997314453" lon="121.5080871582">
        <ele>2918.46</ele>
        <time>2026-06-16T11:11:36</time>
      </trkpt>
      <trkpt lat="30.471092224121" lon="121.50483703613">
        <ele>2849.88</ele>
        <time>2026-06-16T11:11:51</time>
      </trkpt>
      <trkpt lat="30.451490402222" lon="121.5016784668">
        <ele>2781.3</ele>
        <time>2026-06-16T11:12:06</time>
      </trkpt>
      <trkpt lat="30.432266235352" lon="121.49398040771">
        <ele>2758.44</ele>
        <time>2026-06-16T11:12:21</time>
      </trkpt>
      <trkpt lat="30.418117523193" lon="121.47885131836">
        <ele>2758.44</ele>
        <time>2026-06-16T11:12:36</time>
      </trkpt>
      <trkpt lat="30.405128479004" lon="121.461769104">
        <ele>2758.44</ele>
        <time>2026-06-16T11:12:51</time>
      </trkpt>
      <trkpt lat="30.392990112305" lon="121.44561767578">
        <ele>2743.2</ele>
        <time>2026-06-16T11:13:06</time>
      </trkpt>
      <trkpt lat="30.379943847656" lon="121.42836761475">
        <ele>2689.86</ele>
        <time>2026-06-16T11:13:21</time>
      </trkpt>
      <trkpt lat="30.367218017578" lon="121.4116897583">
        <ele>2636.52</ele>
        <time>2026-06-16T11:13:36</time>
      </trkpt>
      <trkpt lat="30.354530334473" lon="121.39463806152">
        <ele>2575.56</ele>
        <time>2026-06-16T11:13:51</time>
      </trkpt>
      <trkpt lat="30.343189239502" lon="121.37554931641">
        <ele>2514.6</ele>
        <time>2026-06-16T11:14:06</time>
      </trkpt>
      <trkpt lat="30.332885742188" lon="121.35718536377">
        <ele>2461.26</ele>
        <time>2026-06-16T11:14:21</time>
      </trkpt>
      <trkpt lat="30.322778701782" lon="121.33915710449">
        <ele>2400.3</ele>
        <time>2026-06-16T11:14:36</time>
      </trkpt>
      <trkpt lat="30.312194824219" lon="121.32035064697">
        <ele>2339.34</ele>
        <time>2026-06-16T11:14:51</time>
      </trkpt>
      <trkpt lat="30.301271438599" lon="121.3009262085">
        <ele>2278.38</ele>
        <time>2026-06-16T11:15:06</time>
      </trkpt>
      <trkpt lat="30.290800094604" lon="121.28231048584">
        <ele>2209.8</ele>
        <time>2026-06-16T11:15:21</time>
      </trkpt>
      <trkpt lat="30.280469894409" lon="121.26402282715">
        <ele>2156.46</ele>
        <time>2026-06-16T11:15:36</time>
      </trkpt>
      <trkpt lat="30.268590927124" lon="121.24314117432">
        <ele>2148.84</ele>
        <time>2026-06-16T11:15:51</time>
      </trkpt>
      <trkpt lat="30.257949829102" lon="121.22518920898">
        <ele>2141.22</ele>
        <time>2026-06-16T11:16:06</time>
      </trkpt>
      <trkpt lat="30.242340087891" lon="121.21040344238">
        <ele>2148.84</ele>
        <time>2026-06-16T11:16:21</time>
      </trkpt>
      <trkpt lat="30.22526550293" lon="121.19745635986">
        <ele>2148.84</ele>
        <time>2026-06-16T11:16:41</time>
      </trkpt>
      <trkpt lat="30.209659576416" lon="121.185546875">
        <ele>2148.84</ele>
        <time>2026-06-16T11:16:56</time>
      </trkpt>
      <trkpt lat="30.193040847778" lon="121.17276763916">
        <ele>2148.84</ele>
        <time>2026-06-16T11:17:11</time>
      </trkpt>
      <trkpt lat="30.17592048645" lon="121.15949249268">
        <ele>2148.84</ele>
        <time>2026-06-16T11:17:26</time>
      </trkpt>
      <trkpt lat="30.160079956055" lon="121.14711761475">
        <ele>2148.84</ele>
        <time>2026-06-16T11:17:41</time>
      </trkpt>
      <trkpt lat="30.143552780151" lon="121.1342086792">
        <ele>2148.84</ele>
        <time>2026-06-16T11:17:56</time>
      </trkpt>
      <trkpt lat="30.12753868103" lon="121.12174224854">
        <ele>2148.84</ele>
        <time>2026-06-16T11:18:11</time>
      </trkpt>
      <trkpt lat="30.1110496521" lon="121.10891723633">
        <ele>2148.84</ele>
        <time>2026-06-16T11:18:26</time>
      </trkpt>
      <trkpt lat="30.094760894775" lon="121.0962600708">
        <ele>2148.84</ele>
        <time>2026-06-16T11:18:41</time>
      </trkpt>
      <trkpt lat="30.078657150269" lon="121.0838394165">
        <ele>2148.84</ele>
        <time>2026-06-16T11:18:56</time>
      </trkpt>
      <trkpt lat="30.061899185181" lon="121.0708694458">
        <ele>2148.84</ele>
        <time>2026-06-16T11:19:11</time>
      </trkpt>
      <trkpt lat="30.045930862427" lon="121.05857086182">
        <ele>2148.84</ele>
        <time>2026-06-16T11:19:26</time>
      </trkpt>
      <trkpt lat="30.028427124023" lon="121.04493713379">
        <ele>2148.84</ele>
        <time>2026-06-16T11:19:41</time>
      </trkpt>
      <trkpt lat="30.011989593506" lon="121.03225708008">
        <ele>2148.84</ele>
        <time>2026-06-16T11:19:56</time>
      </trkpt>
      <trkpt lat="29.995979309082" lon="121.01989746094">
        <ele>2148.84</ele>
        <time>2026-06-16T11:20:11</time>
      </trkpt>
      <trkpt lat="29.979360580444" lon="121.00714874268">
        <ele>2148.84</ele>
        <time>2026-06-16T11:20:26</time>
      </trkpt>
      <trkpt lat="29.960693359375" lon="120.99940490723">
        <ele>2125.98</ele>
        <time>2026-06-16T11:20:41</time>
      </trkpt>
      <trkpt lat="29.940673828125" lon="121.00212860107">
        <ele>2072.64</ele>
        <time>2026-06-16T11:20:56</time>
      </trkpt>
      <trkpt lat="29.924430847168" lon="121.01473236084">
        <ele>2019.3</ele>
        <time>2026-06-16T11:21:11</time>
      </trkpt>
      <trkpt lat="29.913257598877" lon="121.03478240967">
        <ele>1973.58</ele>
        <time>2026-06-16T11:21:26</time>
      </trkpt>
      <trkpt lat="29.903499603271" lon="121.05592346191">
        <ele>1920.24</ele>
        <time>2026-06-16T11:21:41</time>
      </trkpt>
      <trkpt lat="29.893890380859" lon="121.07655334473">
        <ele>1874.52</ele>
        <time>2026-06-16T11:21:56</time>
      </trkpt>
      <trkpt lat="29.884302139282" lon="121.09648132324">
        <ele>1844.04</ele>
        <time>2026-06-16T11:22:11</time>
      </trkpt>
      <trkpt lat="29.87434387207" lon="121.11687469482">
        <ele>1836.42</ele>
        <time>2026-06-16T11:22:26</time>
      </trkpt>
      <trkpt lat="29.864330291748" lon="121.1371383667">
        <ele>1844.04</ele>
        <time>2026-06-16T11:22:41</time>
      </trkpt>
      <trkpt lat="29.854560852051" lon="121.15711975098">
        <ele>1844.04</ele>
        <time>2026-06-16T11:22:56</time>
      </trkpt>
      <trkpt lat="29.844451904297" lon="121.17755889893">
        <ele>1844.04</ele>
        <time>2026-06-16T11:23:11</time>
      </trkpt>
      <trkpt lat="29.834470748901" lon="121.19795227051">
        <ele>1844.04</ele>
        <time>2026-06-16T11:23:26</time>
      </trkpt>
      <trkpt lat="29.824810028076" lon="121.21771240234">
        <ele>1844.04</ele>
        <time>2026-06-16T11:23:41</time>
      </trkpt>
      <trkpt lat="29.814889907837" lon="121.23805999756">
        <ele>1844.04</ele>
        <time>2026-06-16T11:23:56</time>
      </trkpt>
      <trkpt lat="29.805070877075" lon="121.25826263428">
        <ele>1844.04</ele>
        <time>2026-06-16T11:24:11</time>
      </trkpt>
      <trkpt lat="29.794235229492" lon="121.2805557251">
        <ele>1844.04</ele>
        <time>2026-06-16T11:24:26</time>
      </trkpt>
      <trkpt lat="29.784870147705" lon="121.29988861084">
        <ele>1844.04</ele>
        <time>2026-06-16T11:24:41</time>
      </trkpt>
      <trkpt lat="29.774780273438" lon="121.32043457031">
        <ele>1844.04</ele>
        <time>2026-06-16T11:24:56</time>
      </trkpt>
      <trkpt lat="29.764616012573" lon="121.34114074707">
        <ele>1844.04</ele>
        <time>2026-06-16T11:25:11</time>
      </trkpt>
      <trkpt lat="29.754638671875" lon="121.36148071289">
        <ele>1844.04</ele>
        <time>2026-06-16T11:25:26</time>
      </trkpt>
      <trkpt lat="29.744567871094" lon="121.38202667236">
        <ele>1844.04</ele>
        <time>2026-06-16T11:25:41</time>
      </trkpt>
      <trkpt lat="29.734869003296" lon="121.40183258057">
        <ele>1844.04</ele>
        <time>2026-06-16T11:25:56</time>
      </trkpt>
      <trkpt lat="29.725093841553" lon="121.42181396484">
        <ele>1844.04</ele>
        <time>2026-06-16T11:26:11</time>
      </trkpt>
      <trkpt lat="29.71489906311" lon="121.44255065918">
        <ele>1844.04</ele>
        <time>2026-06-16T11:26:26</time>
      </trkpt>
      <trkpt lat="29.705429077148" lon="121.4617767334">
        <ele>1844.04</ele>
        <time>2026-06-16T11:26:41</time>
      </trkpt>
      <trkpt lat="29.695404052734" lon="121.48217010498">
        <ele>1836.42</ele>
        <time>2026-06-16T11:26:56</time>
      </trkpt>
      <trkpt lat="29.685800552368" lon="121.50179290771">
        <ele>1798.32</ele>
        <time>2026-06-16T11:27:11</time>
      </trkpt>
      <trkpt lat="29.676540374756" lon="121.52053070068">
        <ele>1729.74</ele>
        <time>2026-06-16T11:27:26</time>
      </trkpt>
      <trkpt lat="29.667297363281" lon="121.53921508789">
        <ele>1653.54</ele>
        <time>2026-06-16T11:27:41</time>
      </trkpt>
      <trkpt lat="29.65837097168" lon="121.55727386475">
        <ele>1577.34</ele>
        <time>2026-06-16T11:27:56</time>
      </trkpt>
      <trkpt lat="29.649446487427" lon="121.57540893555">
        <ele>1531.62</ele>
        <time>2026-06-16T11:28:11</time>
      </trkpt>
      <trkpt lat="29.641159057617" lon="121.59229278564">
        <ele>1463.04</ele>
        <time>2026-06-16T11:28:26</time>
      </trkpt>
      <trkpt lat="29.633800506592" lon="121.60981750488">
        <ele>1409.7</ele>
        <time>2026-06-16T11:28:41</time>
      </trkpt>
      <trkpt lat="29.633478164673" lon="121.62812805176">
        <ele>1356.36</ele>
        <time>2026-06-16T11:28:56</time>
      </trkpt>
      <trkpt lat="29.641019821167" lon="121.64363861084">
        <ele>1303.02</ele>
        <time>2026-06-16T11:29:11</time>
      </trkpt>
      <trkpt lat="29.650634765625" lon="121.65139770508">
        <ele>1264.92</ele>
        <time>2026-06-16T11:29:26</time>
      </trkpt>
      <trkpt lat="29.662759780884" lon="121.6600112915">
        <ele>1196.34</ele>
        <time>2026-06-16T11:29:41</time>
      </trkpt>
      <trkpt lat="29.674530029297" lon="121.66951751709">
        <ele>1158.24</ele>
        <time>2026-06-16T11:29:56</time>
      </trkpt>
      <trkpt lat="29.687118530273" lon="121.67723083496">
        <ele>1143.0</ele>
        <time>2026-06-16T11:30:11</time>
      </trkpt>
      <trkpt lat="29.700141906738" lon="121.67444610596">
        <ele>1135.38</ele>
        <time>2026-06-16T11:30:26</time>
      </trkpt>
      <trkpt lat="29.709228515625" lon="121.66487121582">
        <ele>1150.62</ele>
        <time>2026-06-16T11:30:41</time>
      </trkpt>
      <trkpt lat="29.716342926025" lon="121.65419769287">
        <ele>1104.9</ele>
        <time>2026-06-16T11:30:56</time>
      </trkpt>
      <trkpt lat="29.722579956055" lon="121.64353179932">
        <ele>1059.18</ele>
        <time>2026-06-16T11:31:11</time>
      </trkpt>
      <trkpt lat="29.728910446167" lon="121.63265228271">
        <ele>982.98</ele>
        <time>2026-06-16T11:31:26</time>
      </trkpt>
      <trkpt lat="29.735046386719" lon="121.62203216553">
        <ele>906.78</ele>
        <time>2026-06-16T11:31:41</time>
      </trkpt>
      <trkpt lat="29.741199493408" lon="121.61138153076">
        <ele>838.2</ele>
        <time>2026-06-16T11:31:56</time>
      </trkpt>
      <trkpt lat="29.747268676758" lon="121.60079956055">
        <ele>784.86</ele>
        <time>2026-06-16T11:32:11</time>
      </trkpt>
      <trkpt lat="29.753400802612" lon="121.58997344971">
        <ele>723.9</ele>
        <time>2026-06-16T11:32:26</time>
      </trkpt>
      <trkpt lat="29.758979797363" lon="121.5803604126">
        <ele>670.56</ele>
        <time>2026-06-16T11:32:41</time>
      </trkpt>
      <trkpt lat="29.764476776123" lon="121.57083129883">
        <ele>609.6</ele>
        <time>2026-06-16T11:32:56</time>
      </trkpt>
      <trkpt lat="29.769559860229" lon="121.56198120117">
        <ele>556.26</ele>
        <time>2026-06-16T11:33:11</time>
      </trkpt>
      <trkpt lat="29.774669647217" lon="121.55300140381">
        <ele>502.92</ele>
        <time>2026-06-16T11:33:26</time>
      </trkpt>
      <trkpt lat="29.779907226562" lon="121.54396820068">
        <ele>449.58</ele>
        <time>2026-06-16T11:33:41</time>
      </trkpt>
      <trkpt lat="29.785009384155" lon="121.5350189209">
        <ele>396.24</ele>
        <time>2026-06-16T11:33:56</time>
      </trkpt>
      <trkpt lat="29.790079116821" lon="121.52607727051">
        <ele>342.9</ele>
        <time>2026-06-16T11:34:11</time>
      </trkpt>
      <trkpt lat="29.795480728149" lon="121.51676177979">
        <ele>289.56</ele>
        <time>2026-06-16T11:34:26</time>
      </trkpt>
      <trkpt lat="29.80046081543" lon="121.50798034668">
        <ele>236.22</ele>
        <time>2026-06-16T11:34:41</time>
      </trkpt>
      <trkpt lat="29.805730819702" lon="121.49886322021">
        <ele>182.88</ele>
        <time>2026-06-16T11:34:56</time>
      </trkpt>
      <trkpt lat="29.810710906982" lon="121.49004364014">
        <ele>137.16</ele>
        <time>2026-06-16T11:35:11</time>
      </trkpt>
      <trkpt lat="29.817123413086" lon="121.47889709473">
        <ele>68.58</ele>
        <time>2026-06-16T11:35:27</time>
      </trkpt>
      <trkpt lat="29.822154998779" lon="121.47006988525">
        <ele>30.48</ele>
        <time>2026-06-16T11:35:42</time>
      </trkpt>
      <trkpt lat="29.826204299927" lon="121.46298217773">
        <ele>0.0</ele>
        <time>2026-06-16T11:35:56</time>
      </trkpt>
      <trkpt lat="29.827823638916" lon="121.46000671387">
        <ele>0.0</ele>
        <time>2026-06-16T11:36:11</time>
      </trkpt>
      <trkpt lat="29.828199386597" lon="121.45810699463">
        <ele>0.0</ele>
        <time>2026-06-16T11:36:26</time>
      </trkpt>
      <trkpt lat="29.828269958496" lon="121.45713043213">
        <ele>0.0</ele>
        <time>2026-06-16T11:36:41</time>
      </trkpt>
      <trkpt lat="29.827730178833" lon="121.45699310303">
        <ele>0.0</ele>
        <time>2026-06-16T11:36:56</time>
      </trkpt>
      <trkpt lat="29.82728767395" lon="121.45769500732">
        <ele>0.0</ele>
        <time>2026-06-16T11:37:11</time>
      </trkpt>
      <trkpt lat="29.826599121094" lon="121.45888519287">
        <ele>0.0</ele>
        <time>2026-06-16T11:37:30</time>
      </trkpt>
      <trkpt lat="29.825979232788" lon="121.4599609375">
        <ele>0.0</ele>
        <time>2026-06-16T11:37:45</time>
      </trkpt>
      <trkpt lat="29.825626373291" lon="121.46059417725">
        <ele>0.0</ele>
        <time>2026-06-16T11:38:00</time>
      </trkpt>
      <trkpt lat="29.825220108032" lon="121.46131896973">
        <ele>0.0</ele>
        <time>2026-06-16T11:38:15</time>
      </trkpt>
      <trkpt lat="29.824756622314" lon="121.46180725098">
        <ele>0.0</ele>
        <time>2026-06-16T11:38:30</time>
      </trkpt>
      <trkpt lat="29.824172973633" lon="121.46170043945">
        <ele>0.0</ele>
        <time>2026-06-16T11:38:45</time>
      </trkpt>
      <trkpt lat="29.823738098145" lon="121.46236419678">
        <ele>0.0</ele>
        <time>2026-06-16T11:39:00</time>
      </trkpt>
      <trkpt lat="29.823389053345" lon="121.46298217773">
        <ele>0.0</ele>
        <time>2026-06-16T11:39:11</time>
      </trkpt>
      <trkpt lat="29.822992324829" lon="121.46369934082">
        <ele>0.0</ele>
        <time>2026-06-16T11:39:23</time>
      </trkpt>
      <trkpt lat="29.822330474854" lon="121.46484375">
        <ele>0.0</ele>
        <time>2026-06-16T11:39:38</time>
      </trkpt>
      <trkpt lat="29.821794509888" lon="121.46578979492">
        <ele>0.0</ele>
        <time>2026-06-16T11:39:50</time>
      </trkpt>
      <trkpt lat="29.821096420288" lon="121.46699523926">
        <ele>0.0</ele>
        <time>2026-06-16T11:40:04</time>
      </trkpt>
      <trkpt lat="29.820514678955" lon="121.46803283691">
        <ele>0.0</ele>
        <time>2026-06-16T11:40:19</time>
      </trkpt>
      <trkpt lat="29.819709777832" lon="121.46942901611">
        <ele>0.0</ele>
        <time>2026-06-16T11:40:33</time>
      </trkpt>
      <trkpt lat="29.81867980957" lon="121.47123718262">
        <ele>0.0</ele>
        <time>2026-06-16T11:40:53</time>
      </trkpt>
      <trkpt lat="29.818130493164" lon="121.47217559814">
        <ele>0.0</ele>
        <time>2026-06-16T11:41:11</time>
      </trkpt>
      <trkpt lat="29.817697525024" lon="121.47218322754">
        <ele>0.0</ele>
        <time>2026-06-16T11:41:27</time>
      </trkpt>
      <trkpt lat="29.817441940308" lon="121.47199249268">
        <ele>0.0</ele>
        <time>2026-06-16T11:41:42</time>
      </trkpt>
      <trkpt lat="29.817314147949" lon="121.47188568115">
        <ele>0.0</ele>
        <time>2026-06-16T11:41:57</time>
      </trkpt>
    </trkseg>
  </trk>
</gpx>