<?xml version="1.0" encoding="UTF-8"?>
<gpx xmlns="http://www.topografix.com/GPX/1/1" xmlns:xsi="http://www.w3.org/2001/XMLSchema-instance" xsi:schemaLocation="http://www.topografix.com/GPX/1/1 http://www.topografix.com/GPX/1/1/gpx.xsd" version="1.1" creator="gpx.py -- https://github.com/tkrajina/gpxpy">
  <trk>
    <name>Variflight_HU7378_20260523.csv</name>
    <trkseg>
      <trkpt lat="30.250671386719" lon="120.44480895996">
        <ele>0.0</ele>
        <time>2026-05-22T23:23:03</time>
      </trkpt>
      <trkpt lat="30.250680923462" lon="120.44481658936">
        <ele>0.0</ele>
        <time>2026-05-22T23:23:25</time>
      </trkpt>
      <trkpt lat="30.250671386719" lon="120.44480895996">
        <ele>0.0</ele>
        <time>2026-05-22T23:23:35</time>
      </trkpt>
      <trkpt lat="30.250680923462" lon="120.44481658936">
        <ele>0.0</ele>
        <time>2026-05-22T23:23:56</time>
      </trkpt>
      <trkpt lat="30.250680923462" lon="120.44481658936">
        <ele>0.0</ele>
        <time>2026-05-22T23:24:09</time>
      </trkpt>
      <trkpt lat="30.250671386719" lon="120.44480895996">
        <ele>0.0</ele>
        <time>2026-05-22T23:24:19</time>
      </trkpt>
      <trkpt lat="30.250671386719" lon="120.44480895996">
        <ele>0.0</ele>
        <time>2026-05-22T23:25:03</time>
      </trkpt>
      <trkpt lat="30.250680923462" lon="120.44481658936">
        <ele>0.0</ele>
        <time>2026-05-22T23:25:08</time>
      </trkpt>
      <trkpt lat="30.250671386719" lon="120.44480895996">
        <ele>0.0</ele>
        <time>2026-05-22T23:25:28</time>
      </trkpt>
      <trkpt lat="30.250671386719" lon="120.44480895996">
        <ele>0.0</ele>
        <time>2026-05-22T23:25:38</time>
      </trkpt>
      <trkpt lat="30.250680923462" lon="120.44481658936">
        <ele>0.0</ele>
        <time>2026-05-22T23:25:48</time>
      </trkpt>
      <trkpt lat="30.250671386719" lon="120.44480895996">
        <ele>0.0</ele>
        <time>2026-05-22T23:25:54</time>
      </trkpt>
      <trkpt lat="30.250680923462" lon="120.44481658936">
        <ele>0.0</ele>
        <time>2026-05-22T23:26:08</time>
      </trkpt>
      <trkpt lat="30.250671386719" lon="120.44480895996">
        <ele>0.0</ele>
        <time>2026-05-22T23:26:13</time>
      </trkpt>
      <trkpt lat="30.25065612793" lon="120.44483184814">
        <ele>0.0</ele>
        <time>2026-05-22T23:26:18</time>
      </trkpt>
      <trkpt lat="30.25061416626" lon="120.44485473633">
        <ele>0.0</ele>
        <time>2026-05-22T23:26:23</time>
      </trkpt>
      <trkpt lat="30.250587463379" lon="120.44486999512">
        <ele>0.0</ele>
        <time>2026-05-22T23:26:28</time>
      </trkpt>
      <trkpt lat="30.250539779663" lon="120.44488525391">
        <ele>0.0</ele>
        <time>2026-05-22T23:26:33</time>
      </trkpt>
      <trkpt lat="30.250494003296" lon="120.44491577148">
        <ele>0.0</ele>
        <time>2026-05-22T23:26:38</time>
      </trkpt>
      <trkpt lat="30.25044631958" lon="120.44493865967">
        <ele>0.0</ele>
        <time>2026-05-22T23:26:43</time>
      </trkpt>
      <trkpt lat="30.250396728516" lon="120.44497680664">
        <ele>0.0</ele>
        <time>2026-05-22T23:26:52</time>
      </trkpt>
      <trkpt lat="30.250350952148" lon="120.44499969482">
        <ele>0.0</ele>
        <time>2026-05-22T23:26:57</time>
      </trkpt>
      <trkpt lat="30.250305175781" lon="120.4450302124">
        <ele>0.0</ele>
        <time>2026-05-22T23:27:02</time>
      </trkpt>
      <trkpt lat="30.250261306763" lon="120.44505310059">
        <ele>0.0</ele>
        <time>2026-05-22T23:27:07</time>
      </trkpt>
      <trkpt lat="30.250202178955" lon="120.44507598877">
        <ele>0.0</ele>
        <time>2026-05-22T23:27:12</time>
      </trkpt>
      <trkpt lat="30.25016784668" lon="120.44512176514">
        <ele>0.0</ele>
        <time>2026-05-22T23:27:17</time>
      </trkpt>
      <trkpt lat="30.250133514404" lon="120.44515991211">
        <ele>0.0</ele>
        <time>2026-05-22T23:27:22</time>
      </trkpt>
      <trkpt lat="30.250085830688" lon="120.44520568848">
        <ele>0.0</ele>
        <time>2026-05-22T23:27:27</time>
      </trkpt>
      <trkpt lat="30.250064849854" lon="120.44524383545">
        <ele>0.0</ele>
        <time>2026-05-22T23:27:32</time>
      </trkpt>
      <trkpt lat="30.250030517578" lon="120.44529724121">
        <ele>0.0</ele>
        <time>2026-05-22T23:27:37</time>
      </trkpt>
      <trkpt lat="30.249996185303" lon="120.44535064697">
        <ele>0.0</ele>
        <time>2026-05-22T23:27:42</time>
      </trkpt>
      <trkpt lat="30.249984741211" lon="120.44540405273">
        <ele>0.0</ele>
        <time>2026-05-22T23:27:46</time>
      </trkpt>
      <trkpt lat="30.249961853027" lon="120.44551086426">
        <ele>0.0</ele>
        <time>2026-05-22T23:27:56</time>
      </trkpt>
      <trkpt lat="30.249969482422" lon="120.44557189941">
        <ele>0.0</ele>
        <time>2026-05-22T23:28:00</time>
      </trkpt>
      <trkpt lat="30.249982833862" lon="120.44570922852">
        <ele>0.0</ele>
        <time>2026-05-22T23:28:08</time>
      </trkpt>
      <trkpt lat="30.249982833862" lon="120.44570922852">
        <ele>0.0</ele>
        <time>2026-05-22T23:28:17</time>
      </trkpt>
      <trkpt lat="30.249982833862" lon="120.44570922852">
        <ele>0.0</ele>
        <time>2026-05-22T23:28:22</time>
      </trkpt>
      <trkpt lat="30.249982833862" lon="120.44570922852">
        <ele>0.0</ele>
        <time>2026-05-22T23:28:27</time>
      </trkpt>
      <trkpt lat="30.249982833862" lon="120.44570922852">
        <ele>0.0</ele>
        <time>2026-05-22T23:28:32</time>
      </trkpt>
      <trkpt lat="30.249984741211" lon="120.44571685791">
        <ele>0.0</ele>
        <time>2026-05-22T23:28:37</time>
      </trkpt>
      <trkpt lat="30.249984741211" lon="120.44571685791">
        <ele>0.0</ele>
        <time>2026-05-22T23:28:42</time>
      </trkpt>
      <trkpt lat="30.249982833862" lon="120.44570922852">
        <ele>0.0</ele>
        <time>2026-05-22T23:28:52</time>
      </trkpt>
      <trkpt lat="30.249984741211" lon="120.44570159912">
        <ele>0.0</ele>
        <time>2026-05-22T23:29:02</time>
      </trkpt>
      <trkpt lat="30.249984741211" lon="120.44570159912">
        <ele>0.0</ele>
        <time>2026-05-22T23:29:12</time>
      </trkpt>
      <trkpt lat="30.249984741211" lon="120.44570159912">
        <ele>0.0</ele>
        <time>2026-05-22T23:29:22</time>
      </trkpt>
      <trkpt lat="30.249982833862" lon="120.44570922852">
        <ele>0.0</ele>
        <time>2026-05-22T23:29:32</time>
      </trkpt>
      <trkpt lat="30.249984741211" lon="120.44570159912">
        <ele>0.0</ele>
        <time>2026-05-22T23:29:37</time>
      </trkpt>
      <trkpt lat="30.249984741211" lon="120.44570159912">
        <ele>0.0</ele>
        <time>2026-05-22T23:29:47</time>
      </trkpt>
      <trkpt lat="30.249984741211" lon="120.44570159912">
        <ele>0.0</ele>
        <time>2026-05-22T23:29:52</time>
      </trkpt>
      <trkpt lat="30.249984741211" lon="120.44570159912">
        <ele>0.0</ele>
        <time>2026-05-22T23:29:57</time>
      </trkpt>
      <trkpt lat="30.249982833862" lon="120.44570922852">
        <ele>0.0</ele>
        <time>2026-05-22T23:30:07</time>
      </trkpt>
      <trkpt lat="30.249982833862" lon="120.44570922852">
        <ele>0.0</ele>
        <time>2026-05-22T23:30:12</time>
      </trkpt>
      <trkpt lat="30.249982833862" lon="120.44570922852">
        <ele>0.0</ele>
        <time>2026-05-22T23:30:22</time>
      </trkpt>
      <trkpt lat="30.249982833862" lon="120.44570922852">
        <ele>0.0</ele>
        <time>2026-05-22T23:30:32</time>
      </trkpt>
      <trkpt lat="30.249982833862" lon="120.44570922852">
        <ele>0.0</ele>
        <time>2026-05-22T23:30:37</time>
      </trkpt>
      <trkpt lat="30.249982833862" lon="120.44570922852">
        <ele>0.0</ele>
        <time>2026-05-22T23:30:42</time>
      </trkpt>
      <trkpt lat="30.249982833862" lon="120.44570922852">
        <ele>0.0</ele>
        <time>2026-05-22T23:30:47</time>
      </trkpt>
      <trkpt lat="30.249982833862" lon="120.44570922852">
        <ele>0.0</ele>
        <time>2026-05-22T23:30:51</time>
      </trkpt>
      <trkpt lat="30.249982833862" lon="120.44570922852">
        <ele>0.0</ele>
        <time>2026-05-22T23:31:01</time>
      </trkpt>
      <trkpt lat="30.249984741211" lon="120.44570159912">
        <ele>0.0</ele>
        <time>2026-05-22T23:31:06</time>
      </trkpt>
      <trkpt lat="30.249982833862" lon="120.44570922852">
        <ele>0.0</ele>
        <time>2026-05-22T23:31:11</time>
      </trkpt>
      <trkpt lat="30.249984741211" lon="120.44570159912">
        <ele>0.0</ele>
        <time>2026-05-22T23:31:16</time>
      </trkpt>
      <trkpt lat="30.249984741211" lon="120.44570159912">
        <ele>0.0</ele>
        <time>2026-05-22T23:31:21</time>
      </trkpt>
      <trkpt lat="30.249982833862" lon="120.44570922852">
        <ele>0.0</ele>
        <time>2026-05-22T23:31:26</time>
      </trkpt>
      <trkpt lat="30.249982833862" lon="120.44570922852">
        <ele>0.0</ele>
        <time>2026-05-22T23:31:31</time>
      </trkpt>
      <trkpt lat="30.249984741211" lon="120.44570159912">
        <ele>0.0</ele>
        <time>2026-05-22T23:31:36</time>
      </trkpt>
      <trkpt lat="30.249984741211" lon="120.44570159912">
        <ele>0.0</ele>
        <time>2026-05-22T23:31:45</time>
      </trkpt>
      <trkpt lat="30.249984741211" lon="120.44570159912">
        <ele>0.0</ele>
        <time>2026-05-22T23:31:55</time>
      </trkpt>
      <trkpt lat="30.249982833862" lon="120.44570922852">
        <ele>0.0</ele>
        <time>2026-05-22T23:32:00</time>
      </trkpt>
      <trkpt lat="30.249982833862" lon="120.44570922852">
        <ele>0.0</ele>
        <time>2026-05-22T23:32:05</time>
      </trkpt>
      <trkpt lat="30.249982833862" lon="120.44570922852">
        <ele>0.0</ele>
        <time>2026-05-22T23:32:10</time>
      </trkpt>
      <trkpt lat="30.249984741211" lon="120.44570159912">
        <ele>0.0</ele>
        <time>2026-05-22T23:32:15</time>
      </trkpt>
      <trkpt lat="30.249984741211" lon="120.44570159912">
        <ele>0.0</ele>
        <time>2026-05-22T23:32:20</time>
      </trkpt>
      <trkpt lat="30.249984741211" lon="120.44570159912">
        <ele>0.0</ele>
        <time>2026-05-22T23:32:25</time>
      </trkpt>
      <trkpt lat="30.249984741211" lon="120.44570159912">
        <ele>0.0</ele>
        <time>2026-05-22T23:32:30</time>
      </trkpt>
      <trkpt lat="30.249982833862" lon="120.44570922852">
        <ele>0.0</ele>
        <time>2026-05-22T23:32:35</time>
      </trkpt>
      <trkpt lat="30.249982833862" lon="120.44570922852">
        <ele>0.0</ele>
        <time>2026-05-22T23:32:40</time>
      </trkpt>
      <trkpt lat="30.249982833862" lon="120.44570922852">
        <ele>0.0</ele>
        <time>2026-05-22T23:32:45</time>
      </trkpt>
      <trkpt lat="30.249982833862" lon="120.44570922852">
        <ele>0.0</ele>
        <time>2026-05-22T23:32:50</time>
      </trkpt>
      <trkpt lat="30.249982833862" lon="120.44570922852">
        <ele>0.0</ele>
        <time>2026-05-22T23:32:55</time>
      </trkpt>
      <trkpt lat="30.249984741211" lon="120.44570159912">
        <ele>0.0</ele>
        <time>2026-05-22T23:33:10</time>
      </trkpt>
      <trkpt lat="30.249950408936" lon="120.44563293457">
        <ele>0.0</ele>
        <time>2026-05-22T23:33:23</time>
      </trkpt>
      <trkpt lat="30.249877929688" lon="120.44546508789">
        <ele>0.0</ele>
        <time>2026-05-22T23:33:28</time>
      </trkpt>
      <trkpt lat="30.249795913696" lon="120.44527435303">
        <ele>0.0</ele>
        <time>2026-05-22T23:33:33</time>
      </trkpt>
      <trkpt lat="30.249691009521" lon="120.44500732422">
        <ele>0.0</ele>
        <time>2026-05-22T23:33:38</time>
      </trkpt>
      <trkpt lat="30.24959564209" lon="120.44473266602">
        <ele>0.0</ele>
        <time>2026-05-22T23:33:43</time>
      </trkpt>
      <trkpt lat="30.249492645264" lon="120.44436645508">
        <ele>0.0</ele>
        <time>2026-05-22T23:33:48</time>
      </trkpt>
      <trkpt lat="30.249389648438" lon="120.44406890869">
        <ele>0.0</ele>
        <time>2026-05-22T23:33:54</time>
      </trkpt>
      <trkpt lat="30.249252319336" lon="120.44374847412">
        <ele>0.0</ele>
        <time>2026-05-22T23:33:59</time>
      </trkpt>
      <trkpt lat="30.249114990234" lon="120.44343566895">
        <ele>0.0</ele>
        <time>2026-05-22T23:34:03</time>
      </trkpt>
      <trkpt lat="30.24896812439" lon="120.44309997559">
        <ele>0.0</ele>
        <time>2026-05-22T23:34:07</time>
      </trkpt>
      <trkpt lat="30.248817443848" lon="120.44274902344">
        <ele>0.0</ele>
        <time>2026-05-22T23:34:12</time>
      </trkpt>
      <trkpt lat="30.248668670654" lon="120.44241333008">
        <ele>0.0</ele>
        <time>2026-05-22T23:34:17</time>
      </trkpt>
      <trkpt lat="30.248508453369" lon="120.44205474854">
        <ele>0.0</ele>
        <time>2026-05-22T23:34:22</time>
      </trkpt>
      <trkpt lat="30.248329162598" lon="120.44163513184">
        <ele>0.0</ele>
        <time>2026-05-22T23:34:27</time>
      </trkpt>
      <trkpt lat="30.248176574707" lon="120.44128417969">
        <ele>0.0</ele>
        <time>2026-05-22T23:34:32</time>
      </trkpt>
      <trkpt lat="30.24800491333" lon="120.44089508057">
        <ele>0.0</ele>
        <time>2026-05-22T23:34:37</time>
      </trkpt>
      <trkpt lat="30.247840881348" lon="120.44053649902">
        <ele>0.0</ele>
        <time>2026-05-22T23:34:42</time>
      </trkpt>
      <trkpt lat="30.247724533081" lon="120.440284729">
        <ele>0.0</ele>
        <time>2026-05-22T23:34:47</time>
      </trkpt>
      <trkpt lat="30.247688293457" lon="120.44005584717">
        <ele>0.0</ele>
        <time>2026-05-22T23:34:52</time>
      </trkpt>
      <trkpt lat="30.247776031494" lon="120.43989562988">
        <ele>0.0</ele>
        <time>2026-05-22T23:34:56</time>
      </trkpt>
      <trkpt lat="30.247936248779" lon="120.43977355957">
        <ele>0.0</ele>
        <time>2026-05-22T23:35:01</time>
      </trkpt>
      <trkpt lat="30.24813079834" lon="120.43964385986">
        <ele>0.0</ele>
        <time>2026-05-22T23:35:06</time>
      </trkpt>
      <trkpt lat="30.248329162598" lon="120.43952941895">
        <ele>0.0</ele>
        <time>2026-05-22T23:35:11</time>
      </trkpt>
      <trkpt lat="30.248588562012" lon="120.43938446045">
        <ele>0.0</ele>
        <time>2026-05-22T23:35:21</time>
      </trkpt>
      <trkpt lat="30.248794555664" lon="120.43926239014">
        <ele>0.0</ele>
        <time>2026-05-22T23:35:26</time>
      </trkpt>
      <trkpt lat="30.249015808105" lon="120.43913269043">
        <ele>0.0</ele>
        <time>2026-05-22T23:35:31</time>
      </trkpt>
      <trkpt lat="30.249240875244" lon="120.43899536133">
        <ele>0.0</ele>
        <time>2026-05-22T23:35:36</time>
      </trkpt>
      <trkpt lat="30.24946975708" lon="120.43885803223">
        <ele>0.0</ele>
        <time>2026-05-22T23:35:41</time>
      </trkpt>
      <trkpt lat="30.249629974365" lon="120.43883514404">
        <ele>0.0</ele>
        <time>2026-05-22T23:35:46</time>
      </trkpt>
      <trkpt lat="30.249795913696" lon="120.43894195557">
        <ele>0.0</ele>
        <time>2026-05-22T23:35:51</time>
      </trkpt>
      <trkpt lat="30.249938964844" lon="120.43915557861">
        <ele>0.0</ele>
        <time>2026-05-22T23:35:56</time>
      </trkpt>
      <trkpt lat="30.250030517578" lon="120.43936157227">
        <ele>0.0</ele>
        <time>2026-05-22T23:36:01</time>
      </trkpt>
      <trkpt lat="30.250053405762" lon="120.43942260742">
        <ele>0.0</ele>
        <time>2026-05-22T23:36:06</time>
      </trkpt>
      <trkpt lat="30.250053405762" lon="120.43942260742">
        <ele>0.0</ele>
        <time>2026-05-22T23:36:11</time>
      </trkpt>
      <trkpt lat="30.250053405762" lon="120.43942260742">
        <ele>0.0</ele>
        <time>2026-05-22T23:36:16</time>
      </trkpt>
      <trkpt lat="30.250053405762" lon="120.43942260742">
        <ele>0.0</ele>
        <time>2026-05-22T23:36:21</time>
      </trkpt>
      <trkpt lat="30.250053405762" lon="120.43942260742">
        <ele>0.0</ele>
        <time>2026-05-22T23:36:26</time>
      </trkpt>
      <trkpt lat="30.250051498413" lon="120.43943786621">
        <ele>0.0</ele>
        <time>2026-05-22T23:36:32</time>
      </trkpt>
      <trkpt lat="30.250053405762" lon="120.43942260742">
        <ele>0.0</ele>
        <time>2026-05-22T23:36:36</time>
      </trkpt>
      <trkpt lat="30.250051498413" lon="120.43943786621">
        <ele>0.0</ele>
        <time>2026-05-22T23:36:41</time>
      </trkpt>
      <trkpt lat="30.250051498413" lon="120.43942260742">
        <ele>0.0</ele>
        <time>2026-05-22T23:36:47</time>
      </trkpt>
      <trkpt lat="30.250051498413" lon="120.43942260742">
        <ele>0.0</ele>
        <time>2026-05-22T23:36:52</time>
      </trkpt>
      <trkpt lat="30.250053405762" lon="120.43942260742">
        <ele>0.0</ele>
        <time>2026-05-22T23:36:56</time>
      </trkpt>
      <trkpt lat="30.250062942505" lon="120.43942260742">
        <ele>0.0</ele>
        <time>2026-05-22T23:37:01</time>
      </trkpt>
      <trkpt lat="30.250053405762" lon="120.43942260742">
        <ele>0.0</ele>
        <time>2026-05-22T23:37:06</time>
      </trkpt>
      <trkpt lat="30.250062942505" lon="120.43943786621">
        <ele>0.0</ele>
        <time>2026-05-22T23:37:12</time>
      </trkpt>
      <trkpt lat="30.250053405762" lon="120.43942260742">
        <ele>0.0</ele>
        <time>2026-05-22T23:37:16</time>
      </trkpt>
      <trkpt lat="30.250053405762" lon="120.43942260742">
        <ele>0.0</ele>
        <time>2026-05-22T23:37:21</time>
      </trkpt>
      <trkpt lat="30.250062942505" lon="120.43944549561">
        <ele>0.0</ele>
        <time>2026-05-22T23:37:31</time>
      </trkpt>
      <trkpt lat="30.250074386597" lon="120.43947601318">
        <ele>0.0</ele>
        <time>2026-05-22T23:37:36</time>
      </trkpt>
      <trkpt lat="30.25009727478" lon="120.43952941895">
        <ele>0.0</ele>
        <time>2026-05-22T23:37:41</time>
      </trkpt>
      <trkpt lat="30.250133514404" lon="120.4395980835">
        <ele>0.0</ele>
        <time>2026-05-22T23:37:46</time>
      </trkpt>
      <trkpt lat="30.25016784668" lon="120.43969726562">
        <ele>0.0</ele>
        <time>2026-05-22T23:37:51</time>
      </trkpt>
      <trkpt lat="30.250225067139" lon="120.43981933594">
        <ele>0.0</ele>
        <time>2026-05-22T23:37:56</time>
      </trkpt>
      <trkpt lat="30.250272750854" lon="120.43994140625">
        <ele>0.0</ele>
        <time>2026-05-22T23:38:01</time>
      </trkpt>
      <trkpt lat="30.250331878662" lon="120.44009399414">
        <ele>0.0</ele>
        <time>2026-05-22T23:38:06</time>
      </trkpt>
      <trkpt lat="30.250411987305" lon="120.44026184082">
        <ele>0.0</ele>
        <time>2026-05-22T23:38:11</time>
      </trkpt>
      <trkpt lat="30.250528335571" lon="120.44040679932">
        <ele>0.0</ele>
        <time>2026-05-22T23:38:16</time>
      </trkpt>
      <trkpt lat="30.250717163086" lon="120.44043731689">
        <ele>0.0</ele>
        <time>2026-05-22T23:38:21</time>
      </trkpt>
      <trkpt lat="30.250865936279" lon="120.44036865234">
        <ele>0.0</ele>
        <time>2026-05-22T23:38:26</time>
      </trkpt>
      <trkpt lat="30.25093460083" lon="120.44033050537">
        <ele>0.0</ele>
        <time>2026-05-22T23:38:31</time>
      </trkpt>
      <trkpt lat="30.25093460083" lon="120.44033050537">
        <ele>0.0</ele>
        <time>2026-05-22T23:38:36</time>
      </trkpt>
      <trkpt lat="30.25093460083" lon="120.44033050537">
        <ele>0.0</ele>
        <time>2026-05-22T23:38:41</time>
      </trkpt>
      <trkpt lat="30.250923156738" lon="120.44033050537">
        <ele>0.0</ele>
        <time>2026-05-22T23:38:46</time>
      </trkpt>
      <trkpt lat="30.25093460083" lon="120.44033050537">
        <ele>0.0</ele>
        <time>2026-05-22T23:38:50</time>
      </trkpt>
      <trkpt lat="30.25093460083" lon="120.44033050537">
        <ele>0.0</ele>
        <time>2026-05-22T23:38:55</time>
      </trkpt>
      <trkpt lat="30.250936508179" lon="120.44033050537">
        <ele>0.0</ele>
        <time>2026-05-22T23:39:00</time>
      </trkpt>
      <trkpt lat="30.25093460083" lon="120.44033050537">
        <ele>0.0</ele>
        <time>2026-05-22T23:39:06</time>
      </trkpt>
      <trkpt lat="30.250936508179" lon="120.44033050537">
        <ele>0.0</ele>
        <time>2026-05-22T23:39:10</time>
      </trkpt>
      <trkpt lat="30.250936508179" lon="120.44033050537">
        <ele>0.0</ele>
        <time>2026-05-22T23:39:24</time>
      </trkpt>
      <trkpt lat="30.25093460083" lon="120.44033050537">
        <ele>0.0</ele>
        <time>2026-05-22T23:39:29</time>
      </trkpt>
      <trkpt lat="30.25093460083" lon="120.44033050537">
        <ele>0.0</ele>
        <time>2026-05-22T23:39:34</time>
      </trkpt>
      <trkpt lat="30.25093460083" lon="120.44033050537">
        <ele>0.0</ele>
        <time>2026-05-22T23:39:39</time>
      </trkpt>
      <trkpt lat="30.250936508179" lon="120.44033050537">
        <ele>0.0</ele>
        <time>2026-05-22T23:39:44</time>
      </trkpt>
      <trkpt lat="30.250936508179" lon="120.44033050537">
        <ele>0.0</ele>
        <time>2026-05-22T23:39:54</time>
      </trkpt>
      <trkpt lat="30.25093460083" lon="120.44033050537">
        <ele>0.0</ele>
        <time>2026-05-22T23:39:59</time>
      </trkpt>
      <trkpt lat="30.25093460083" lon="120.44033050537">
        <ele>0.0</ele>
        <time>2026-05-22T23:40:09</time>
      </trkpt>
      <trkpt lat="30.250936508179" lon="120.44033050537">
        <ele>0.0</ele>
        <time>2026-05-22T23:40:14</time>
      </trkpt>
      <trkpt lat="30.250959396362" lon="120.44031524658">
        <ele>0.0</ele>
        <time>2026-05-22T23:40:19</time>
      </trkpt>
      <trkpt lat="30.251014709473" lon="120.440284729">
        <ele>0.0</ele>
        <time>2026-05-22T23:40:24</time>
      </trkpt>
      <trkpt lat="30.25114440918" lon="120.44020080566">
        <ele>0.0</ele>
        <time>2026-05-22T23:40:29</time>
      </trkpt>
      <trkpt lat="30.251289367676" lon="120.44012451172">
        <ele>0.0</ele>
        <time>2026-05-22T23:40:34</time>
      </trkpt>
      <trkpt lat="30.251483917236" lon="120.44000244141">
        <ele>0.0</ele>
        <time>2026-05-22T23:40:39</time>
      </trkpt>
      <trkpt lat="30.251735687256" lon="120.43982696533">
        <ele>0.0</ele>
        <time>2026-05-22T23:40:48</time>
      </trkpt>
      <trkpt lat="30.251867294312" lon="120.43966674805">
        <ele>0.0</ele>
        <time>2026-05-22T23:40:53</time>
      </trkpt>
      <trkpt lat="30.251918792725" lon="120.43943786621">
        <ele>0.0</ele>
        <time>2026-05-22T23:40:58</time>
      </trkpt>
      <trkpt lat="30.251901626587" lon="120.43925476074">
        <ele>0.0</ele>
        <time>2026-05-22T23:41:03</time>
      </trkpt>
      <trkpt lat="30.251831054688" lon="120.43906402588">
        <ele>0.0</ele>
        <time>2026-05-22T23:41:07</time>
      </trkpt>
      <trkpt lat="30.251804351807" lon="120.43901062012">
        <ele>0.0</ele>
        <time>2026-05-22T23:41:12</time>
      </trkpt>
      <trkpt lat="30.25178527832" lon="120.43895721436">
        <ele>0.0</ele>
        <time>2026-05-22T23:41:17</time>
      </trkpt>
      <trkpt lat="30.251739501953" lon="120.43885803223">
        <ele>0.0</ele>
        <time>2026-05-22T23:41:22</time>
      </trkpt>
      <trkpt lat="30.251667022705" lon="120.43868255615">
        <ele>0.0</ele>
        <time>2026-05-22T23:41:27</time>
      </trkpt>
      <trkpt lat="30.251495361328" lon="120.43830871582">
        <ele>0.0</ele>
        <time>2026-05-22T23:41:33</time>
      </trkpt>
      <trkpt lat="30.251214981079" lon="120.43767547607">
        <ele>0.0</ele>
        <time>2026-05-22T23:41:37</time>
      </trkpt>
      <trkpt lat="30.250556945801" lon="120.43619537354">
        <ele>0.0</ele>
        <time>2026-05-22T23:41:42</time>
      </trkpt>
      <trkpt lat="30.249835968018" lon="120.43459320068">
        <ele>0.0</ele>
        <time>2026-05-22T23:41:47</time>
      </trkpt>
      <trkpt lat="30.242889404297" lon="120.41887664795">
        <ele>83.82</ele>
        <time>2026-05-22T23:42:12</time>
      </trkpt>
      <trkpt lat="30.237680435181" lon="120.40740966797">
        <ele>259.08</ele>
        <time>2026-05-22T23:42:27</time>
      </trkpt>
      <trkpt lat="30.232223510742" lon="120.39545440674">
        <ele>411.48</ele>
        <time>2026-05-22T23:42:42</time>
      </trkpt>
      <trkpt lat="30.226787567139" lon="120.38356781006">
        <ele>617.22</ele>
        <time>2026-05-22T23:42:57</time>
      </trkpt>
      <trkpt lat="30.221433639526" lon="120.37203216553">
        <ele>754.38</ele>
        <time>2026-05-22T23:43:12</time>
      </trkpt>
      <trkpt lat="30.21612739563" lon="120.35956573486">
        <ele>883.92</ele>
        <time>2026-05-22T23:43:27</time>
      </trkpt>
      <trkpt lat="30.210632324219" lon="120.34660339355">
        <ele>1028.7</ele>
        <time>2026-05-22T23:43:42</time>
      </trkpt>
      <trkpt lat="30.204940795898" lon="120.33351898193">
        <ele>1127.76</ele>
        <time>2026-05-22T23:43:57</time>
      </trkpt>
      <trkpt lat="30.198390960693" lon="120.31852722168">
        <ele>1203.96</ele>
        <time>2026-05-22T23:44:12</time>
      </trkpt>
      <trkpt lat="30.191390991211" lon="120.30261230469">
        <ele>1280.16</ele>
        <time>2026-05-22T23:44:27</time>
      </trkpt>
      <trkpt lat="30.183725357056" lon="120.28535461426">
        <ele>1409.7</ele>
        <time>2026-05-22T23:44:42</time>
      </trkpt>
      <trkpt lat="30.17578125" lon="120.26782226562">
        <ele>1508.76</ele>
        <time>2026-05-22T23:44:57</time>
      </trkpt>
      <trkpt lat="30.166921615601" lon="120.24816131592">
        <ele>1668.78</ele>
        <time>2026-05-22T23:45:12</time>
      </trkpt>
      <trkpt lat="30.158477783203" lon="120.22828674316">
        <ele>1851.66</ele>
        <time>2026-05-22T23:45:27</time>
      </trkpt>
      <trkpt lat="30.156633377075" lon="120.20542907715">
        <ele>2049.78</ele>
        <time>2026-05-22T23:45:42</time>
      </trkpt>
      <trkpt lat="30.163801193237" lon="120.18537902832">
        <ele>2240.28</ele>
        <time>2026-05-22T23:45:57</time>
      </trkpt>
      <trkpt lat="30.177766799927" lon="120.16933441162">
        <ele>2407.92</ele>
        <time>2026-05-22T23:46:12</time>
      </trkpt>
      <trkpt lat="30.194805145264" lon="120.15785217285">
        <ele>2598.42</ele>
        <time>2026-05-22T23:46:27</time>
      </trkpt>
      <trkpt lat="30.211807250977" lon="120.14669799805">
        <ele>2788.92</ele>
        <time>2026-05-22T23:46:42</time>
      </trkpt>
      <trkpt lat="30.229843139648" lon="120.13523101807">
        <ele>2971.8</ele>
        <time>2026-05-22T23:46:57</time>
      </trkpt>
      <trkpt lat="30.247375488281" lon="120.1240234375">
        <ele>3139.44</ele>
        <time>2026-05-22T23:47:12</time>
      </trkpt>
      <trkpt lat="30.265424728394" lon="120.11248016357">
        <ele>3223.26</ele>
        <time>2026-05-22T23:47:27</time>
      </trkpt>
      <trkpt lat="30.285209655762" lon="120.10243225098">
        <ele>3299.46</ele>
        <time>2026-05-22T23:47:42</time>
      </trkpt>
      <trkpt lat="30.306930541992" lon="120.09381103516">
        <ele>3375.66</ele>
        <time>2026-05-22T23:47:57</time>
      </trkpt>
      <trkpt lat="30.328994750977" lon="120.08509063721">
        <ele>3497.58</ele>
        <time>2026-05-22T23:48:12</time>
      </trkpt>
      <trkpt lat="30.351219177246" lon="120.07627868652">
        <ele>3642.36</ele>
        <time>2026-05-22T23:48:27</time>
      </trkpt>
      <trkpt lat="30.37353515625" lon="120.06742858887">
        <ele>3802.3801</ele>
        <time>2026-05-22T23:48:42</time>
      </trkpt>
      <trkpt lat="30.397064208984" lon="120.05794525146">
        <ele>3977.64</ele>
        <time>2026-05-22T23:49:01</time>
      </trkpt>
      <trkpt lat="30.420444488525" lon="120.04859924316">
        <ele>4137.66</ele>
        <time>2026-05-22T23:49:16</time>
      </trkpt>
      <trkpt lat="30.442840576172" lon="120.03952789307">
        <ele>4259.58</ele>
        <time>2026-05-22T23:49:31</time>
      </trkpt>
      <trkpt lat="30.465789794922" lon="120.03025054932">
        <ele>4389.12</ele>
        <time>2026-05-22T23:49:46</time>
      </trkpt>
      <trkpt lat="30.488983154297" lon="120.02089691162">
        <ele>4511.04</ele>
        <time>2026-05-22T23:50:01</time>
      </trkpt>
      <trkpt lat="30.512741088867" lon="120.0113067627">
        <ele>4617.72</ele>
        <time>2026-05-22T23:50:16</time>
      </trkpt>
      <trkpt lat="30.536361694336" lon="120.00177764893">
        <ele>4747.26</ele>
        <time>2026-05-22T23:50:31</time>
      </trkpt>
      <trkpt lat="30.559659957886" lon="119.99234771729">
        <ele>4892.04</ele>
        <time>2026-05-22T23:50:46</time>
      </trkpt>
      <trkpt lat="30.583843231201" lon="119.98262023926">
        <ele>5029.2</ele>
        <time>2026-05-22T23:51:01</time>
      </trkpt>
      <trkpt lat="30.606950759888" lon="119.97339630127">
        <ele>5151.12</ele>
        <time>2026-05-22T23:51:16</time>
      </trkpt>
      <trkpt lat="30.631185531616" lon="119.96361541748">
        <ele>5234.94</ele>
        <time>2026-05-22T23:51:31</time>
      </trkpt>
      <trkpt lat="30.655300140381" lon="119.95389556885">
        <ele>5311.14</ele>
        <time>2026-05-22T23:51:46</time>
      </trkpt>
      <trkpt lat="30.679460525513" lon="119.94415283203">
        <ele>5387.34</ele>
        <time>2026-05-22T23:52:01</time>
      </trkpt>
      <trkpt lat="30.704320907593" lon="119.93412017822">
        <ele>5394.96</ele>
        <time>2026-05-22T23:52:16</time>
      </trkpt>
      <trkpt lat="30.729179382324" lon="119.92406463623">
        <ele>5394.96</ele>
        <time>2026-05-22T23:52:31</time>
      </trkpt>
      <trkpt lat="30.752780914307" lon="119.91269683838">
        <ele>5394.96</ele>
        <time>2026-05-22T23:52:46</time>
      </trkpt>
      <trkpt lat="30.775638580322" lon="119.89786529541">
        <ele>5394.96</ele>
        <time>2026-05-22T23:53:01</time>
      </trkpt>
      <trkpt lat="30.796539306641" lon="119.8807220459">
        <ele>5394.96</ele>
        <time>2026-05-22T23:53:16</time>
      </trkpt>
      <trkpt lat="30.816980361938" lon="119.86325836182">
        <ele>5394.96</ele>
        <time>2026-05-22T23:53:31</time>
      </trkpt>
      <trkpt lat="30.837110519409" lon="119.84607696533">
        <ele>5402.58</ele>
        <time>2026-05-22T23:53:46</time>
      </trkpt>
      <trkpt lat="30.857666015625" lon="119.82842254639">
        <ele>5478.78</ele>
        <time>2026-05-22T23:54:01</time>
      </trkpt>
      <trkpt lat="30.878494262695" lon="119.81059265137">
        <ele>5562.6</ele>
        <time>2026-05-22T23:54:16</time>
      </trkpt>
      <trkpt lat="30.899917602539" lon="119.79212188721">
        <ele>5638.8</ele>
        <time>2026-05-22T23:54:31</time>
      </trkpt>
      <trkpt lat="30.921112060547" lon="119.77375793457">
        <ele>5722.62</ele>
        <time>2026-05-22T23:54:46</time>
      </trkpt>
      <trkpt lat="30.940990447998" lon="119.756690979">
        <ele>5806.44</ele>
        <time>2026-05-22T23:55:01</time>
      </trkpt>
      <trkpt lat="30.963039398193" lon="119.73777770996">
        <ele>5890.26</ele>
        <time>2026-05-22T23:55:16</time>
      </trkpt>
      <trkpt lat="30.984786987305" lon="119.71903991699">
        <ele>5966.46</ele>
        <time>2026-05-22T23:55:31</time>
      </trkpt>
      <trkpt lat="31.006210327148" lon="119.70062255859">
        <ele>6042.66</ele>
        <time>2026-05-22T23:55:46</time>
      </trkpt>
      <trkpt lat="31.028091430664" lon="119.68170928955">
        <ele>6118.86</ele>
        <time>2026-05-22T23:56:01</time>
      </trkpt>
      <trkpt lat="31.050016403198" lon="119.66270446777">
        <ele>6195.06</ele>
        <time>2026-05-22T23:56:16</time>
      </trkpt>
      <trkpt lat="31.072080612183" lon="119.64363861084">
        <ele>6278.88</ele>
        <time>2026-05-22T23:56:31</time>
      </trkpt>
      <trkpt lat="31.093551635742" lon="119.62506103516">
        <ele>6355.08</ele>
        <time>2026-05-22T23:56:46</time>
      </trkpt>
      <trkpt lat="31.115934371948" lon="119.60578918457">
        <ele>6431.28</ele>
        <time>2026-05-22T23:57:01</time>
      </trkpt>
      <trkpt lat="31.137268066406" lon="119.58736419678">
        <ele>6507.48</ele>
        <time>2026-05-22T23:57:16</time>
      </trkpt>
      <trkpt lat="31.159194946289" lon="119.56841278076">
        <ele>6583.68</ele>
        <time>2026-05-22T23:57:31</time>
      </trkpt>
      <trkpt lat="31.180362701416" lon="119.54998016357">
        <ele>6614.16</ele>
        <time>2026-05-22T23:57:46</time>
      </trkpt>
      <trkpt lat="31.201995849609" lon="119.53119659424">
        <ele>6614.16</ele>
        <time>2026-05-22T23:58:01</time>
      </trkpt>
      <trkpt lat="31.223648071289" lon="119.51234436035">
        <ele>6614.16</ele>
        <time>2026-05-22T23:58:16</time>
      </trkpt>
      <trkpt lat="31.244247436523" lon="119.4944152832">
        <ele>6659.88</ele>
        <time>2026-05-22T23:58:31</time>
      </trkpt>
      <trkpt lat="31.264575958252" lon="119.47676086426">
        <ele>6736.08</ele>
        <time>2026-05-22T23:58:46</time>
      </trkpt>
      <trkpt lat="31.286270141602" lon="119.45795440674">
        <ele>6812.28</ele>
        <time>2026-05-22T23:59:01</time>
      </trkpt>
      <trkpt lat="31.307739257812" lon="119.43937683105">
        <ele>6888.48</ele>
        <time>2026-05-22T23:59:16</time>
      </trkpt>
      <trkpt lat="31.32886505127" lon="119.42111206055">
        <ele>6972.3</ele>
        <time>2026-05-22T23:59:31</time>
      </trkpt>
      <trkpt lat="31.351226806641" lon="119.40167236328">
        <ele>7048.5</ele>
        <time>2026-05-22T23:59:46</time>
      </trkpt>
      <trkpt lat="31.373519897461" lon="119.38233947754">
        <ele>7132.32</ele>
        <time>2026-05-23T00:00:01</time>
      </trkpt>
      <trkpt lat="31.395574569702" lon="119.36310577393">
        <ele>7193.28</ele>
        <time>2026-05-23T00:00:16</time>
      </trkpt>
      <trkpt lat="31.41717338562" lon="119.34437561035">
        <ele>7193.28</ele>
        <time>2026-05-23T00:00:31</time>
      </trkpt>
      <trkpt lat="31.439895629883" lon="119.32455444336">
        <ele>7193.28</ele>
        <time>2026-05-23T00:00:46</time>
      </trkpt>
      <trkpt lat="31.460723876953" lon="119.30635070801">
        <ele>7193.28</ele>
        <time>2026-05-23T00:01:01</time>
      </trkpt>
      <trkpt lat="31.48210144043" lon="119.28761291504">
        <ele>7193.28</ele>
        <time>2026-05-23T00:01:16</time>
      </trkpt>
      <trkpt lat="31.503845214844" lon="119.26854705811">
        <ele>7193.28</ele>
        <time>2026-05-23T00:01:31</time>
      </trkpt>
      <trkpt lat="31.525360107422" lon="119.24974822998">
        <ele>7193.28</ele>
        <time>2026-05-23T00:01:46</time>
      </trkpt>
      <trkpt lat="31.546636581421" lon="119.23094177246">
        <ele>7193.28</ele>
        <time>2026-05-23T00:02:01</time>
      </trkpt>
      <trkpt lat="31.567539215088" lon="119.2124786377">
        <ele>7193.28</ele>
        <time>2026-05-23T00:02:16</time>
      </trkpt>
      <trkpt lat="31.58863067627" lon="119.19386291504">
        <ele>7193.28</ele>
        <time>2026-05-23T00:02:31</time>
      </trkpt>
      <trkpt lat="31.610641479492" lon="119.17435455322">
        <ele>7193.28</ele>
        <time>2026-05-23T00:02:46</time>
      </trkpt>
      <trkpt lat="31.631830215454" lon="119.15563201904">
        <ele>7193.28</ele>
        <time>2026-05-23T00:03:01</time>
      </trkpt>
      <trkpt lat="31.656219482422" lon="119.14084625244">
        <ele>7193.28</ele>
        <time>2026-05-23T00:03:16</time>
      </trkpt>
      <trkpt lat="31.681030273438" lon="119.12992095947">
        <ele>7193.28</ele>
        <time>2026-05-23T00:03:31</time>
      </trkpt>
      <trkpt lat="31.705032348633" lon="119.11602783203">
        <ele>7193.28</ele>
        <time>2026-05-23T00:03:46</time>
      </trkpt>
      <trkpt lat="31.728519439697" lon="119.09887695312">
        <ele>7193.28</ele>
        <time>2026-05-23T00:04:01</time>
      </trkpt>
      <trkpt lat="31.750259399414" lon="119.08280181885">
        <ele>7193.28</ele>
        <time>2026-05-23T00:04:16</time>
      </trkpt>
      <trkpt lat="31.773149490356" lon="119.0666885376">
        <ele>7193.28</ele>
        <time>2026-05-23T00:04:31</time>
      </trkpt>
      <trkpt lat="31.796670913696" lon="119.05026245117">
        <ele>7193.28</ele>
        <time>2026-05-23T00:04:46</time>
      </trkpt>
      <trkpt lat="31.819799423218" lon="119.03401184082">
        <ele>7193.28</ele>
        <time>2026-05-23T00:05:01</time>
      </trkpt>
      <trkpt lat="31.842569351196" lon="119.01886749268">
        <ele>7193.28</ele>
        <time>2026-05-23T00:05:16</time>
      </trkpt>
      <trkpt lat="31.867538452148" lon="119.00577545166">
        <ele>7193.28</ele>
        <time>2026-05-23T00:05:31</time>
      </trkpt>
      <trkpt lat="31.893630981445" lon="118.99407196045">
        <ele>7193.28</ele>
        <time>2026-05-23T00:05:46</time>
      </trkpt>
      <trkpt lat="31.918355941772" lon="118.98294067383">
        <ele>7193.28</ele>
        <time>2026-05-23T00:06:01</time>
      </trkpt>
      <trkpt lat="31.9455909729" lon="118.97071838379">
        <ele>7193.28</ele>
        <time>2026-05-23T00:06:16</time>
      </trkpt>
      <trkpt lat="31.970586776733" lon="118.95951080322">
        <ele>7193.28</ele>
        <time>2026-05-23T00:06:31</time>
      </trkpt>
      <trkpt lat="31.996170043945" lon="118.94792938232">
        <ele>7193.28</ele>
        <time>2026-05-23T00:06:46</time>
      </trkpt>
      <trkpt lat="32.021301269531" lon="118.93660736084">
        <ele>7193.28</ele>
        <time>2026-05-23T00:07:01</time>
      </trkpt>
      <trkpt lat="32.04606628418" lon="118.92552185059">
        <ele>7193.28</ele>
        <time>2026-05-23T00:07:16</time>
      </trkpt>
      <trkpt lat="32.07137298584" lon="118.91416931152">
        <ele>7193.28</ele>
        <time>2026-05-23T00:07:31</time>
      </trkpt>
      <trkpt lat="32.096920013428" lon="118.90271759033">
        <ele>7193.28</ele>
        <time>2026-05-23T00:07:46</time>
      </trkpt>
      <trkpt lat="32.122146606445" lon="118.89134979248">
        <ele>7193.28</ele>
        <time>2026-05-23T00:08:01</time>
      </trkpt>
      <trkpt lat="32.147415161133" lon="118.87998199463">
        <ele>7193.28</ele>
        <time>2026-05-23T00:08:16</time>
      </trkpt>
      <trkpt lat="32.172821044922" lon="118.86860656738">
        <ele>7193.28</ele>
        <time>2026-05-23T00:08:31</time>
      </trkpt>
      <trkpt lat="32.197860717773" lon="118.85734558105">
        <ele>7193.28</ele>
        <time>2026-05-23T00:08:46</time>
      </trkpt>
      <trkpt lat="32.223224639893" lon="118.84594726562">
        <ele>7193.28</ele>
        <time>2026-05-23T00:09:01</time>
      </trkpt>
      <trkpt lat="32.249111175537" lon="118.83422851562">
        <ele>7193.28</ele>
        <time>2026-05-23T00:09:16</time>
      </trkpt>
      <trkpt lat="32.27368927002" lon="118.82313537598">
        <ele>7193.28</ele>
        <time>2026-05-23T00:09:31</time>
      </trkpt>
      <trkpt lat="32.299530029297" lon="118.81147766113">
        <ele>7193.28</ele>
        <time>2026-05-23T00:09:46</time>
      </trkpt>
      <trkpt lat="32.323970794678" lon="118.80043792725">
        <ele>7193.28</ele>
        <time>2026-05-23T00:10:01</time>
      </trkpt>
      <trkpt lat="32.349472045898" lon="118.78884887695">
        <ele>7193.28</ele>
        <time>2026-05-23T00:10:16</time>
      </trkpt>
      <trkpt lat="32.374801635742" lon="118.77734375">
        <ele>7193.28</ele>
        <time>2026-05-23T00:10:31</time>
      </trkpt>
      <trkpt lat="32.400054931641" lon="118.76588439941">
        <ele>7193.28</ele>
        <time>2026-05-23T00:10:46</time>
      </trkpt>
      <trkpt lat="32.425262451172" lon="118.7544708252">
        <ele>7193.28</ele>
        <time>2026-05-23T00:11:01</time>
      </trkpt>
      <trkpt lat="32.450260162354" lon="118.74314880371">
        <ele>7193.28</ele>
        <time>2026-05-23T00:11:16</time>
      </trkpt>
      <trkpt lat="32.475360870361" lon="118.73177337646">
        <ele>7193.28</ele>
        <time>2026-05-23T00:11:31</time>
      </trkpt>
      <trkpt lat="32.50080871582" lon="118.72023773193">
        <ele>7193.28</ele>
        <time>2026-05-23T00:11:46</time>
      </trkpt>
      <trkpt lat="32.526168823242" lon="118.7087020874">
        <ele>7193.28</ele>
        <time>2026-05-23T00:12:01</time>
      </trkpt>
      <trkpt lat="32.551029205322" lon="118.69744110107">
        <ele>7193.28</ele>
        <time>2026-05-23T00:12:16</time>
      </trkpt>
      <trkpt lat="32.576557159424" lon="118.68580627441">
        <ele>7193.28</ele>
        <time>2026-05-23T00:12:31</time>
      </trkpt>
      <trkpt lat="32.601608276367" lon="118.67448425293">
        <ele>7193.28</ele>
        <time>2026-05-23T00:12:46</time>
      </trkpt>
      <trkpt lat="32.626789093018" lon="118.66304779053">
        <ele>7193.28</ele>
        <time>2026-05-23T00:13:01</time>
      </trkpt>
      <trkpt lat="32.652282714844" lon="118.65141296387">
        <ele>7193.28</ele>
        <time>2026-05-23T00:13:16</time>
      </trkpt>
      <trkpt lat="32.677459716797" lon="118.63998413086">
        <ele>7193.28</ele>
        <time>2026-05-23T00:13:31</time>
      </trkpt>
      <trkpt lat="32.702911376953" lon="118.62971496582">
        <ele>7193.28</ele>
        <time>2026-05-23T00:13:46</time>
      </trkpt>
      <trkpt lat="32.729141235352" lon="118.62042999268">
        <ele>7193.28</ele>
        <time>2026-05-23T00:14:01</time>
      </trkpt>
      <trkpt lat="32.754959106445" lon="118.61125183105">
        <ele>7193.28</ele>
        <time>2026-05-23T00:14:16</time>
      </trkpt>
      <trkpt lat="32.780776977539" lon="118.60202789307">
        <ele>7193.28</ele>
        <time>2026-05-23T00:14:31</time>
      </trkpt>
      <trkpt lat="32.806945800781" lon="118.59265136719">
        <ele>7193.28</ele>
        <time>2026-05-23T00:14:46</time>
      </trkpt>
      <trkpt lat="32.832046508789" lon="118.58367919922">
        <ele>7193.28</ele>
        <time>2026-05-23T00:15:01</time>
      </trkpt>
      <trkpt lat="32.858432769775" lon="118.57420349121">
        <ele>7193.28</ele>
        <time>2026-05-23T00:15:16</time>
      </trkpt>
      <trkpt lat="32.884170532227" lon="118.5650100708">
        <ele>7193.28</ele>
        <time>2026-05-23T00:15:31</time>
      </trkpt>
      <trkpt lat="32.909870147705" lon="118.5559387207">
        <ele>7193.28</ele>
        <time>2026-05-23T00:15:46</time>
      </trkpt>
      <trkpt lat="32.935684204102" lon="118.54670715332">
        <ele>7193.28</ele>
        <time>2026-05-23T00:16:01</time>
      </trkpt>
      <trkpt lat="32.961639404297" lon="118.53743743896">
        <ele>7193.28</ele>
        <time>2026-05-23T00:16:16</time>
      </trkpt>
      <trkpt lat="32.987426757812" lon="118.52812957764">
        <ele>7223.76</ele>
        <time>2026-05-23T00:16:31</time>
      </trkpt>
      <trkpt lat="33.013320922852" lon="118.51879882812">
        <ele>7299.96</ele>
        <time>2026-05-23T00:16:46</time>
      </trkpt>
      <trkpt lat="33.039505004883" lon="118.5093536377">
        <ele>7383.78</ele>
        <time>2026-05-23T00:17:01</time>
      </trkpt>
      <trkpt lat="33.066520690918" lon="118.49965667725">
        <ele>7467.6</ele>
        <time>2026-05-23T00:17:16</time>
      </trkpt>
      <trkpt lat="33.093288421631" lon="118.49007415771">
        <ele>7543.8</ele>
        <time>2026-05-23T00:17:31</time>
      </trkpt>
      <trkpt lat="33.121170043945" lon="118.48007965088">
        <ele>7627.62</ele>
        <time>2026-05-23T00:17:46</time>
      </trkpt>
      <trkpt lat="33.149047851562" lon="118.4701385498">
        <ele>7711.44</ele>
        <time>2026-05-23T00:18:01</time>
      </trkpt>
      <trkpt lat="33.176239013672" lon="118.46046447754">
        <ele>7787.64</ele>
        <time>2026-05-23T00:18:16</time>
      </trkpt>
      <trkpt lat="33.206680297852" lon="118.44953918457">
        <ele>7802.88</ele>
        <time>2026-05-23T00:18:31</time>
      </trkpt>
      <trkpt lat="33.234191894531" lon="118.43965148926">
        <ele>7802.88</ele>
        <time>2026-05-23T00:18:46</time>
      </trkpt>
      <trkpt lat="33.262596130371" lon="118.42948150635">
        <ele>7802.88</ele>
        <time>2026-05-23T00:19:01</time>
      </trkpt>
      <trkpt lat="33.290111541748" lon="118.41961669922">
        <ele>7802.88</ele>
        <time>2026-05-23T00:19:16</time>
      </trkpt>
      <trkpt lat="33.317295074463" lon="118.4097442627">
        <ele>7802.88</ele>
        <time>2026-05-23T00:19:31</time>
      </trkpt>
      <trkpt lat="33.344150543213" lon="118.40003967285">
        <ele>7802.88</ele>
        <time>2026-05-23T00:19:46</time>
      </trkpt>
      <trkpt lat="33.371158599854" lon="118.39024353027">
        <ele>7802.88</ele>
        <time>2026-05-23T00:20:01</time>
      </trkpt>
      <trkpt lat="33.398250579834" lon="118.38043212891">
        <ele>7802.88</ele>
        <time>2026-05-23T00:20:16</time>
      </trkpt>
      <trkpt lat="33.426128387451" lon="118.37037658691">
        <ele>7802.88</ele>
        <time>2026-05-23T00:20:31</time>
      </trkpt>
      <trkpt lat="33.452819824219" lon="118.3607711792">
        <ele>7802.88</ele>
        <time>2026-05-23T00:20:46</time>
      </trkpt>
      <trkpt lat="33.479549407959" lon="118.3511505127">
        <ele>7802.88</ele>
        <time>2026-05-23T00:21:01</time>
      </trkpt>
      <trkpt lat="33.506561279297" lon="118.3413772583">
        <ele>7802.88</ele>
        <time>2026-05-23T00:21:16</time>
      </trkpt>
      <trkpt lat="33.532791137695" lon="118.33194732666">
        <ele>7802.88</ele>
        <time>2026-05-23T00:21:31</time>
      </trkpt>
      <trkpt lat="33.559799194336" lon="118.32218933105">
        <ele>7802.88</ele>
        <time>2026-05-23T00:21:46</time>
      </trkpt>
      <trkpt lat="33.586231231689" lon="118.31268310547">
        <ele>7802.88</ele>
        <time>2026-05-23T00:22:01</time>
      </trkpt>
      <trkpt lat="33.612899780273" lon="118.30302429199">
        <ele>7802.88</ele>
        <time>2026-05-23T00:22:16</time>
      </trkpt>
      <trkpt lat="33.640228271484" lon="118.29315948486">
        <ele>7802.88</ele>
        <time>2026-05-23T00:22:31</time>
      </trkpt>
      <trkpt lat="33.667331695557" lon="118.28328704834">
        <ele>7802.88</ele>
        <time>2026-05-23T00:22:46</time>
      </trkpt>
      <trkpt lat="33.693878173828" lon="118.27359771729">
        <ele>7810.5</ele>
        <time>2026-05-23T00:23:01</time>
      </trkpt>
      <trkpt lat="33.721019744873" lon="118.26373291016">
        <ele>7802.88</ele>
        <time>2026-05-23T00:23:16</time>
      </trkpt>
      <trkpt lat="33.747711181641" lon="118.25402832031">
        <ele>7802.88</ele>
        <time>2026-05-23T00:23:31</time>
      </trkpt>
      <trkpt lat="33.774490356445" lon="118.2442779541">
        <ele>7802.88</ele>
        <time>2026-05-23T00:23:46</time>
      </trkpt>
      <trkpt lat="33.800579071045" lon="118.23480987549">
        <ele>7802.88</ele>
        <time>2026-05-23T00:24:01</time>
      </trkpt>
      <trkpt lat="33.827419281006" lon="118.2250213623">
        <ele>7802.88</ele>
        <time>2026-05-23T00:24:16</time>
      </trkpt>
      <trkpt lat="33.854179382324" lon="118.21528625488">
        <ele>7802.88</ele>
        <time>2026-05-23T00:24:31</time>
      </trkpt>
      <trkpt lat="33.880771636963" lon="118.20568084717">
        <ele>7802.88</ele>
        <time>2026-05-23T00:24:46</time>
      </trkpt>
      <trkpt lat="33.906970977783" lon="118.19624328613">
        <ele>7802.88</ele>
        <time>2026-05-23T00:25:01</time>
      </trkpt>
      <trkpt lat="33.934841156006" lon="118.18609619141">
        <ele>7802.88</ele>
        <time>2026-05-23T00:25:16</time>
      </trkpt>
      <trkpt lat="33.960338592529" lon="118.17678833008">
        <ele>7802.88</ele>
        <time>2026-05-23T00:25:31</time>
      </trkpt>
      <trkpt lat="33.986480712891" lon="118.16732025146">
        <ele>7802.88</ele>
        <time>2026-05-23T00:25:46</time>
      </trkpt>
      <trkpt lat="34.01362991333" lon="118.15740203857">
        <ele>7802.88</ele>
        <time>2026-05-23T00:26:01</time>
      </trkpt>
      <trkpt lat="34.03971862793" lon="118.14792633057">
        <ele>7802.88</ele>
        <time>2026-05-23T00:26:16</time>
      </trkpt>
      <trkpt lat="34.066738128662" lon="118.13822174072">
        <ele>7802.88</ele>
        <time>2026-05-23T00:26:31</time>
      </trkpt>
      <trkpt lat="34.093559265137" lon="118.1284866333">
        <ele>7802.88</ele>
        <time>2026-05-23T00:26:46</time>
      </trkpt>
      <trkpt lat="34.119483947754" lon="118.11916351318">
        <ele>7802.88</ele>
        <time>2026-05-23T00:27:01</time>
      </trkpt>
      <trkpt lat="34.145370483398" lon="118.10977935791">
        <ele>7802.88</ele>
        <time>2026-05-23T00:27:16</time>
      </trkpt>
      <trkpt lat="34.172138214111" lon="118.10011291504">
        <ele>7802.88</ele>
        <time>2026-05-23T00:27:31</time>
      </trkpt>
      <trkpt lat="34.198719024658" lon="118.09037780762">
        <ele>7802.88</ele>
        <time>2026-05-23T00:27:46</time>
      </trkpt>
      <trkpt lat="34.224739074707" lon="118.08083343506">
        <ele>7802.88</ele>
        <time>2026-05-23T00:28:01</time>
      </trkpt>
      <trkpt lat="34.251209259033" lon="118.07112884521">
        <ele>7802.88</ele>
        <time>2026-05-23T00:28:16</time>
      </trkpt>
      <trkpt lat="34.277900695801" lon="118.06130981445">
        <ele>7802.88</ele>
        <time>2026-05-23T00:28:31</time>
      </trkpt>
      <trkpt lat="34.305690765381" lon="118.0511932373">
        <ele>7802.88</ele>
        <time>2026-05-23T00:28:46</time>
      </trkpt>
      <trkpt lat="34.331108093262" lon="118.04219818115">
        <ele>7802.88</ele>
        <time>2026-05-23T00:29:01</time>
      </trkpt>
      <trkpt lat="34.358001708984" lon="118.0327911377">
        <ele>7802.88</ele>
        <time>2026-05-23T00:29:16</time>
      </trkpt>
      <trkpt lat="34.384510040283" lon="118.02342987061">
        <ele>7802.88</ele>
        <time>2026-05-23T00:29:31</time>
      </trkpt>
      <trkpt lat="34.411056518555" lon="118.01406860352">
        <ele>7802.88</ele>
        <time>2026-05-23T00:29:46</time>
      </trkpt>
      <trkpt lat="34.437194824219" lon="118.00482177734">
        <ele>7802.88</ele>
        <time>2026-05-23T00:30:01</time>
      </trkpt>
      <trkpt lat="34.465042114258" lon="117.99482727051">
        <ele>7802.88</ele>
        <time>2026-05-23T00:30:16</time>
      </trkpt>
      <trkpt lat="34.490840911865" lon="117.98560333252">
        <ele>7802.88</ele>
        <time>2026-05-23T00:30:31</time>
      </trkpt>
      <trkpt lat="34.517971038818" lon="117.97588348389">
        <ele>7802.88</ele>
        <time>2026-05-23T00:30:45</time>
      </trkpt>
      <trkpt lat="34.543853759766" lon="117.96667480469">
        <ele>7802.88</ele>
        <time>2026-05-23T00:31:00</time>
      </trkpt>
      <trkpt lat="34.570861816406" lon="117.95706939697">
        <ele>7802.88</ele>
        <time>2026-05-23T00:31:15</time>
      </trkpt>
      <trkpt lat="34.597438812256" lon="117.94755554199">
        <ele>7802.88</ele>
        <time>2026-05-23T00:31:29</time>
      </trkpt>
      <trkpt lat="34.623458862305" lon="117.93823242188">
        <ele>7802.88</ele>
        <time>2026-05-23T00:31:44</time>
      </trkpt>
      <trkpt lat="34.651622772217" lon="117.92816162109">
        <ele>7802.88</ele>
        <time>2026-05-23T00:31:59</time>
      </trkpt>
      <trkpt lat="34.676441192627" lon="117.91918182373">
        <ele>7802.88</ele>
        <time>2026-05-23T00:32:14</time>
      </trkpt>
      <trkpt lat="34.704895019531" lon="117.90892028809">
        <ele>7802.88</ele>
        <time>2026-05-23T00:32:34</time>
      </trkpt>
      <trkpt lat="34.731369018555" lon="117.89938354492">
        <ele>7802.88</ele>
        <time>2026-05-23T00:32:49</time>
      </trkpt>
      <trkpt lat="34.757717132568" lon="117.88993835449">
        <ele>7802.88</ele>
        <time>2026-05-23T00:33:04</time>
      </trkpt>
      <trkpt lat="34.783218383789" lon="117.88077545166">
        <ele>7802.88</ele>
        <time>2026-05-23T00:33:19</time>
      </trkpt>
      <trkpt lat="34.810363769531" lon="117.87107849121">
        <ele>7802.88</ele>
        <time>2026-05-23T00:33:34</time>
      </trkpt>
      <trkpt lat="34.838069915771" lon="117.85870361328">
        <ele>7802.88</ele>
        <time>2026-05-23T00:33:49</time>
      </trkpt>
      <trkpt lat="34.861175537109" lon="117.84468078613">
        <ele>7802.88</ele>
        <time>2026-05-23T00:34:04</time>
      </trkpt>
      <trkpt lat="34.886573791504" lon="117.82619476318">
        <ele>7802.88</ele>
        <time>2026-05-23T00:34:19</time>
      </trkpt>
      <trkpt lat="34.907894134521" lon="117.81057739258">
        <ele>7802.88</ele>
        <time>2026-05-23T00:34:34</time>
      </trkpt>
      <trkpt lat="34.932147979736" lon="117.79272460938">
        <ele>7802.88</ele>
        <time>2026-05-23T00:34:49</time>
      </trkpt>
      <trkpt lat="34.953830718994" lon="117.77680206299">
        <ele>7802.88</ele>
        <time>2026-05-23T00:35:04</time>
      </trkpt>
      <trkpt lat="34.977035522461" lon="117.75970458984">
        <ele>7802.88</ele>
        <time>2026-05-23T00:35:19</time>
      </trkpt>
      <trkpt lat="34.999969482422" lon="117.74276733398">
        <ele>7802.88</ele>
        <time>2026-05-23T00:35:33</time>
      </trkpt>
      <trkpt lat="35.023670196533" lon="117.72525787354">
        <ele>7802.88</ele>
        <time>2026-05-23T00:35:48</time>
      </trkpt>
      <trkpt lat="35.046340942383" lon="117.70858764648">
        <ele>7802.88</ele>
        <time>2026-05-23T00:36:03</time>
      </trkpt>
      <trkpt lat="35.071243286133" lon="117.69030761719">
        <ele>7802.88</ele>
        <time>2026-05-23T00:36:18</time>
      </trkpt>
      <trkpt lat="35.093822479248" lon="117.67369842529">
        <ele>7802.88</ele>
        <time>2026-05-23T00:36:33</time>
      </trkpt>
      <trkpt lat="35.117099761963" lon="117.65653991699">
        <ele>7802.88</ele>
        <time>2026-05-23T00:36:48</time>
      </trkpt>
      <trkpt lat="35.139770507812" lon="117.63977050781">
        <ele>7802.88</ele>
        <time>2026-05-23T00:37:03</time>
      </trkpt>
      <trkpt lat="35.164260864258" lon="117.6216506958">
        <ele>7802.88</ele>
        <time>2026-05-23T00:37:22</time>
      </trkpt>
      <trkpt lat="35.187671661377" lon="117.60417938232">
        <ele>7802.88</ele>
        <time>2026-05-23T00:37:37</time>
      </trkpt>
      <trkpt lat="35.212390899658" lon="117.58575439453">
        <ele>7802.88</ele>
        <time>2026-05-23T00:37:51</time>
      </trkpt>
      <trkpt lat="35.236923217773" lon="117.56750488281">
        <ele>7802.88</ele>
        <time>2026-05-23T00:38:06</time>
      </trkpt>
      <trkpt lat="35.252990722656" lon="117.55558013916">
        <ele>7802.88</ele>
        <time>2026-05-23T00:38:19</time>
      </trkpt>
      <trkpt lat="35.276260375977" lon="117.53834533691">
        <ele>7802.88</ele>
        <time>2026-05-23T00:38:34</time>
      </trkpt>
      <trkpt lat="35.299579620361" lon="117.52098846436">
        <ele>7802.88</ele>
        <time>2026-05-23T00:38:49</time>
      </trkpt>
      <trkpt lat="35.322601318359" lon="117.50399017334">
        <ele>7802.88</ele>
        <time>2026-05-23T00:39:04</time>
      </trkpt>
      <trkpt lat="35.344787597656" lon="117.48750305176">
        <ele>7802.88</ele>
        <time>2026-05-23T00:39:19</time>
      </trkpt>
      <trkpt lat="35.367969512939" lon="117.47026062012">
        <ele>7802.88</ele>
        <time>2026-05-23T00:39:34</time>
      </trkpt>
      <trkpt lat="35.390548706055" lon="117.45336914062">
        <ele>7802.88</ele>
        <time>2026-05-23T00:39:49</time>
      </trkpt>
      <trkpt lat="35.414199829102" lon="117.43572235107">
        <ele>7802.88</ele>
        <time>2026-05-23T00:40:04</time>
      </trkpt>
      <trkpt lat="35.436447143555" lon="117.41906738281">
        <ele>7802.88</ele>
        <time>2026-05-23T00:40:19</time>
      </trkpt>
      <trkpt lat="35.459060668945" lon="117.40219116211">
        <ele>7802.88</ele>
        <time>2026-05-23T00:40:34</time>
      </trkpt>
      <trkpt lat="35.481903076172" lon="117.38525390625">
        <ele>7802.88</ele>
        <time>2026-05-23T00:40:48</time>
      </trkpt>
      <trkpt lat="35.504333496094" lon="117.36854553223">
        <ele>7802.88</ele>
        <time>2026-05-23T00:41:03</time>
      </trkpt>
      <trkpt lat="35.527359008789" lon="117.35134124756">
        <ele>7802.88</ele>
        <time>2026-05-23T00:41:18</time>
      </trkpt>
      <trkpt lat="35.549697875977" lon="117.33461761475">
        <ele>7802.88</ele>
        <time>2026-05-23T00:41:33</time>
      </trkpt>
      <trkpt lat="35.572330474854" lon="117.31761932373">
        <ele>7802.88</ele>
        <time>2026-05-23T00:41:48</time>
      </trkpt>
      <trkpt lat="35.595699310303" lon="117.30010986328">
        <ele>7802.88</ele>
        <time>2026-05-23T00:42:03</time>
      </trkpt>
      <trkpt lat="35.617958068848" lon="117.28343963623">
        <ele>7802.88</ele>
        <time>2026-05-23T00:42:18</time>
      </trkpt>
      <trkpt lat="35.6409034729" lon="117.26619720459">
        <ele>7802.88</ele>
        <time>2026-05-23T00:42:32</time>
      </trkpt>
      <trkpt lat="35.665374755859" lon="117.24781036377">
        <ele>7802.88</ele>
        <time>2026-05-23T00:42:52</time>
      </trkpt>
      <trkpt lat="35.688899993896" lon="117.23013305664">
        <ele>7802.88</ele>
        <time>2026-05-23T00:43:07</time>
      </trkpt>
      <trkpt lat="35.710872650146" lon="117.21366119385">
        <ele>7802.88</ele>
        <time>2026-05-23T00:43:21</time>
      </trkpt>
      <trkpt lat="35.732849121094" lon="117.19711303711">
        <ele>7795.26</ele>
        <time>2026-05-23T00:43:36</time>
      </trkpt>
      <trkpt lat="35.754447937012" lon="117.18087768555">
        <ele>7802.88</ele>
        <time>2026-05-23T00:43:51</time>
      </trkpt>
      <trkpt lat="35.777770996094" lon="117.16329193115">
        <ele>7802.88</ele>
        <time>2026-05-23T00:44:06</time>
      </trkpt>
      <trkpt lat="35.7978515625" lon="117.1480178833">
        <ele>7802.88</ele>
        <time>2026-05-23T00:44:21</time>
      </trkpt>
      <trkpt lat="35.818950653076" lon="117.13194274902">
        <ele>7802.88</ele>
        <time>2026-05-23T00:44:36</time>
      </trkpt>
      <trkpt lat="35.839599609375" lon="117.11631774902">
        <ele>7802.88</ele>
        <time>2026-05-23T00:44:51</time>
      </trkpt>
      <trkpt lat="35.860198974609" lon="117.10075378418">
        <ele>7802.88</ele>
        <time>2026-05-23T00:45:06</time>
      </trkpt>
      <trkpt lat="35.881206512451" lon="117.08503723145">
        <ele>7802.88</ele>
        <time>2026-05-23T00:45:21</time>
      </trkpt>
      <trkpt lat="35.901306152344" lon="117.06991577148">
        <ele>7802.88</ele>
        <time>2026-05-23T00:45:36</time>
      </trkpt>
      <trkpt lat="35.921939849854" lon="117.05417633057">
        <ele>7802.88</ele>
        <time>2026-05-23T00:45:51</time>
      </trkpt>
      <trkpt lat="35.942642211914" lon="117.03844451904">
        <ele>7802.88</ele>
        <time>2026-05-23T00:46:06</time>
      </trkpt>
      <trkpt lat="35.963470458984" lon="117.02265167236">
        <ele>7802.88</ele>
        <time>2026-05-23T00:46:21</time>
      </trkpt>
      <trkpt lat="35.984275817871" lon="117.00790405273">
        <ele>7802.88</ele>
        <time>2026-05-23T00:46:35</time>
      </trkpt>
      <trkpt lat="36.008571624756" lon="116.99674224854">
        <ele>7802.88</ele>
        <time>2026-05-23T00:46:50</time>
      </trkpt>
      <trkpt lat="36.033294677734" lon="116.99130249023">
        <ele>7802.88</ele>
        <time>2026-05-23T00:47:05</time>
      </trkpt>
      <trkpt lat="36.058849334717" lon="116.98850250244">
        <ele>7802.88</ele>
        <time>2026-05-23T00:47:20</time>
      </trkpt>
      <trkpt lat="36.084316253662" lon="116.98569488525">
        <ele>7802.88</ele>
        <time>2026-05-23T00:47:35</time>
      </trkpt>
      <trkpt lat="36.109039306641" lon="116.98304748535">
        <ele>7802.88</ele>
        <time>2026-05-23T00:47:50</time>
      </trkpt>
      <trkpt lat="36.134811401367" lon="116.98030090332">
        <ele>7802.88</ele>
        <time>2026-05-23T00:48:05</time>
      </trkpt>
      <trkpt lat="36.161087036133" lon="116.97750091553">
        <ele>7802.88</ele>
        <time>2026-05-23T00:48:20</time>
      </trkpt>
      <trkpt lat="36.185623168945" lon="116.97486877441">
        <ele>7802.88</ele>
        <time>2026-05-23T00:48:35</time>
      </trkpt>
      <trkpt lat="36.210048675537" lon="116.97225189209">
        <ele>7802.88</ele>
        <time>2026-05-23T00:48:50</time>
      </trkpt>
      <trkpt lat="36.235656738281" lon="116.9694519043">
        <ele>7802.88</ele>
        <time>2026-05-23T00:49:05</time>
      </trkpt>
      <trkpt lat="36.260654449463" lon="116.96670532227">
        <ele>7802.88</ele>
        <time>2026-05-23T00:49:20</time>
      </trkpt>
      <trkpt lat="36.286102294922" lon="116.96399688721">
        <ele>7802.88</ele>
        <time>2026-05-23T00:49:35</time>
      </trkpt>
      <trkpt lat="36.311908721924" lon="116.96126556396">
        <ele>7802.88</ele>
        <time>2026-05-23T00:49:50</time>
      </trkpt>
      <trkpt lat="36.336639404297" lon="116.95861816406">
        <ele>7802.88</ele>
        <time>2026-05-23T00:50:05</time>
      </trkpt>
      <trkpt lat="36.361629486084" lon="116.95594787598">
        <ele>7802.88</ele>
        <time>2026-05-23T00:50:20</time>
      </trkpt>
      <trkpt lat="36.387451171875" lon="116.95317840576">
        <ele>7802.88</ele>
        <time>2026-05-23T00:50:35</time>
      </trkpt>
      <trkpt lat="36.412811279297" lon="116.95043945312">
        <ele>7802.88</ele>
        <time>2026-05-23T00:50:50</time>
      </trkpt>
      <trkpt lat="36.437553405762" lon="116.94770812988">
        <ele>7802.88</ele>
        <time>2026-05-23T00:51:05</time>
      </trkpt>
      <trkpt lat="36.463298797607" lon="116.94493865967">
        <ele>7802.88</ele>
        <time>2026-05-23T00:51:20</time>
      </trkpt>
      <trkpt lat="36.489761352539" lon="116.94201660156">
        <ele>7802.88</ele>
        <time>2026-05-23T00:51:40</time>
      </trkpt>
      <trkpt lat="36.515483856201" lon="116.93923950195">
        <ele>7802.88</ele>
        <time>2026-05-23T00:51:55</time>
      </trkpt>
      <trkpt lat="36.540668487549" lon="116.93649291992">
        <ele>7802.88</ele>
        <time>2026-05-23T00:52:10</time>
      </trkpt>
      <trkpt lat="36.565711975098" lon="116.93374633789">
        <ele>7802.88</ele>
        <time>2026-05-23T00:52:25</time>
      </trkpt>
      <trkpt lat="36.591083526611" lon="116.93099975586">
        <ele>7802.88</ele>
        <time>2026-05-23T00:52:40</time>
      </trkpt>
      <trkpt lat="36.615970611572" lon="116.92835235596">
        <ele>7802.88</ele>
        <time>2026-05-23T00:52:55</time>
      </trkpt>
      <trkpt lat="36.641361236572" lon="116.92555999756">
        <ele>7802.88</ele>
        <time>2026-05-23T00:53:10</time>
      </trkpt>
      <trkpt lat="36.666820526123" lon="116.92276000977">
        <ele>7802.88</ele>
        <time>2026-05-23T00:53:25</time>
      </trkpt>
      <trkpt lat="36.692470550537" lon="116.91995239258">
        <ele>7802.88</ele>
        <time>2026-05-23T00:53:40</time>
      </trkpt>
      <trkpt lat="36.717567443848" lon="116.91709136963">
        <ele>7802.88</ele>
        <time>2026-05-23T00:53:55</time>
      </trkpt>
      <trkpt lat="36.742858886719" lon="116.9116973877">
        <ele>7802.88</ele>
        <time>2026-05-23T00:54:10</time>
      </trkpt>
      <trkpt lat="36.767440795898" lon="116.9056854248">
        <ele>7802.88</ele>
        <time>2026-05-23T00:54:25</time>
      </trkpt>
      <trkpt lat="36.792095184326" lon="116.899559021">
        <ele>7802.88</ele>
        <time>2026-05-23T00:54:40</time>
      </trkpt>
      <trkpt lat="36.817108154297" lon="116.89344024658">
        <ele>7802.88</ele>
        <time>2026-05-23T00:54:55</time>
      </trkpt>
      <trkpt lat="36.842239379883" lon="116.88726043701">
        <ele>7802.88</ele>
        <time>2026-05-23T00:55:10</time>
      </trkpt>
      <trkpt lat="36.86625289917" lon="116.88133239746">
        <ele>7802.88</ele>
        <time>2026-05-23T00:55:25</time>
      </trkpt>
      <trkpt lat="36.891128540039" lon="116.87519073486">
        <ele>7802.88</ele>
        <time>2026-05-23T00:55:40</time>
      </trkpt>
      <trkpt lat="36.915832519531" lon="116.86903381348">
        <ele>7802.88</ele>
        <time>2026-05-23T00:55:55</time>
      </trkpt>
      <trkpt lat="36.940059661865" lon="116.86302947998">
        <ele>7802.88</ele>
        <time>2026-05-23T00:56:10</time>
      </trkpt>
      <trkpt lat="36.965129852295" lon="116.8568572998">
        <ele>7802.88</ele>
        <time>2026-05-23T00:56:25</time>
      </trkpt>
      <trkpt lat="36.98938369751" lon="116.85082244873">
        <ele>7802.88</ele>
        <time>2026-05-23T00:56:40</time>
      </trkpt>
      <trkpt lat="37.014312744141" lon="116.84462738037">
        <ele>7802.88</ele>
        <time>2026-05-23T00:56:55</time>
      </trkpt>
      <trkpt lat="37.038757324219" lon="116.83854675293">
        <ele>7802.88</ele>
        <time>2026-05-23T00:57:09</time>
      </trkpt>
      <trkpt lat="37.06330871582" lon="116.83243560791">
        <ele>7802.88</ele>
        <time>2026-05-23T00:57:24</time>
      </trkpt>
      <trkpt lat="37.087329864502" lon="116.82640075684">
        <ele>7802.88</ele>
        <time>2026-05-23T00:57:39</time>
      </trkpt>
      <trkpt lat="37.111907958984" lon="116.82025909424">
        <ele>7802.88</ele>
        <time>2026-05-23T00:57:54</time>
      </trkpt>
      <trkpt lat="37.13639831543" lon="116.81411743164">
        <ele>7802.88</ele>
        <time>2026-05-23T00:58:09</time>
      </trkpt>
      <trkpt lat="37.16088104248" lon="116.80795288086">
        <ele>7802.88</ele>
        <time>2026-05-23T00:58:24</time>
      </trkpt>
      <trkpt lat="37.185791015625" lon="116.80173492432">
        <ele>7802.88</ele>
        <time>2026-05-23T00:58:39</time>
      </trkpt>
      <trkpt lat="37.210136413574" lon="116.79559326172">
        <ele>7802.88</ele>
        <time>2026-05-23T00:58:54</time>
      </trkpt>
      <trkpt lat="37.233539581299" lon="116.7875289917">
        <ele>7802.88</ele>
        <time>2026-05-23T00:59:09</time>
      </trkpt>
      <trkpt lat="37.257759094238" lon="116.7784576416">
        <ele>7802.88</ele>
        <time>2026-05-23T00:59:24</time>
      </trkpt>
      <trkpt lat="37.281097412109" lon="116.76964569092">
        <ele>7802.88</ele>
        <time>2026-05-23T00:59:39</time>
      </trkpt>
      <trkpt lat="37.304668426514" lon="116.76071166992">
        <ele>7802.88</ele>
        <time>2026-05-23T00:59:54</time>
      </trkpt>
      <trkpt lat="37.329769134521" lon="116.75116729736">
        <ele>7802.88</ele>
        <time>2026-05-23T01:00:09</time>
      </trkpt>
      <trkpt lat="37.354961395264" lon="116.7416229248">
        <ele>7802.88</ele>
        <time>2026-05-23T01:00:24</time>
      </trkpt>
      <trkpt lat="37.378601074219" lon="116.73253631592">
        <ele>7810.5</ele>
        <time>2026-05-23T01:00:39</time>
      </trkpt>
      <trkpt lat="37.403930664062" lon="116.72280883789">
        <ele>7810.5</ele>
        <time>2026-05-23T01:00:54</time>
      </trkpt>
      <trkpt lat="37.42883682251" lon="116.71319580078">
        <ele>7810.5</ele>
        <time>2026-05-23T01:01:09</time>
      </trkpt>
      <trkpt lat="37.455959320068" lon="116.7028503418">
        <ele>7810.5</ele>
        <time>2026-05-23T01:01:24</time>
      </trkpt>
      <trkpt lat="37.483154296875" lon="116.69257354736">
        <ele>7810.5</ele>
        <time>2026-05-23T01:01:39</time>
      </trkpt>
      <trkpt lat="37.509292602539" lon="116.68263244629">
        <ele>7802.88</ele>
        <time>2026-05-23T01:01:54</time>
      </trkpt>
      <trkpt lat="37.53702545166" lon="116.67218017578">
        <ele>7802.88</ele>
        <time>2026-05-23T01:02:09</time>
      </trkpt>
      <trkpt lat="37.565090179443" lon="116.66153717041">
        <ele>7802.88</ele>
        <time>2026-05-23T01:02:24</time>
      </trkpt>
      <trkpt lat="37.590999603271" lon="116.65160369873">
        <ele>7802.88</ele>
        <time>2026-05-23T01:02:39</time>
      </trkpt>
      <trkpt lat="37.618061065674" lon="116.64119720459">
        <ele>7802.88</ele>
        <time>2026-05-23T01:02:54</time>
      </trkpt>
      <trkpt lat="37.645660400391" lon="116.63056945801">
        <ele>7802.88</ele>
        <time>2026-05-23T01:03:09</time>
      </trkpt>
      <trkpt lat="37.673141479492" lon="116.61999511719">
        <ele>7802.88</ele>
        <time>2026-05-23T01:03:24</time>
      </trkpt>
      <trkpt lat="37.700424194336" lon="116.60942077637">
        <ele>7802.88</ele>
        <time>2026-05-23T01:03:39</time>
      </trkpt>
      <trkpt lat="37.72705078125" lon="116.59909820557">
        <ele>7802.88</ele>
        <time>2026-05-23T01:03:54</time>
      </trkpt>
      <trkpt lat="37.7548828125" lon="116.58854675293">
        <ele>7802.88</ele>
        <time>2026-05-23T01:04:09</time>
      </trkpt>
      <trkpt lat="37.781616210938" lon="116.57855987549">
        <ele>7802.88</ele>
        <time>2026-05-23T01:04:24</time>
      </trkpt>
      <trkpt lat="37.81229019165" lon="116.56703186035">
        <ele>7802.88</ele>
        <time>2026-05-23T01:04:44</time>
      </trkpt>
      <trkpt lat="37.842548370361" lon="116.55568695068">
        <ele>7802.88</ele>
        <time>2026-05-23T01:04:59</time>
      </trkpt>
      <trkpt lat="37.868499755859" lon="116.54595184326">
        <ele>7802.88</ele>
        <time>2026-05-23T01:05:14</time>
      </trkpt>
      <trkpt lat="37.89587020874" lon="116.53560638428">
        <ele>7802.88</ele>
        <time>2026-05-23T01:05:29</time>
      </trkpt>
      <trkpt lat="37.924945831299" lon="116.52458190918">
        <ele>7802.88</ele>
        <time>2026-05-23T01:05:44</time>
      </trkpt>
      <trkpt lat="37.952087402344" lon="116.51328277588">
        <ele>7795.26</ele>
        <time>2026-05-23T01:05:59</time>
      </trkpt>
      <trkpt lat="37.979099273682" lon="116.49768066406">
        <ele>7711.44</ele>
        <time>2026-05-23T01:06:14</time>
      </trkpt>
      <trkpt lat="38.002361297607" lon="116.47979736328">
        <ele>7635.24</ele>
        <time>2026-05-23T01:06:29</time>
      </trkpt>
      <trkpt lat="38.026382446289" lon="116.4580078125">
        <ele>7551.42</ele>
        <time>2026-05-23T01:06:48</time>
      </trkpt>
      <trkpt lat="38.048355102539" lon="116.43801116943">
        <ele>7475.22</ele>
        <time>2026-05-23T01:07:03</time>
      </trkpt>
      <trkpt lat="38.070140838623" lon="116.41793823242">
        <ele>7399.02</ele>
        <time>2026-05-23T01:07:18</time>
      </trkpt>
      <trkpt lat="38.092487335205" lon="116.39733886719">
        <ele>7322.82</ele>
        <time>2026-05-23T01:07:33</time>
      </trkpt>
      <trkpt lat="38.115921020508" lon="116.3758392334">
        <ele>7239.0</ele>
        <time>2026-05-23T01:07:48</time>
      </trkpt>
      <trkpt lat="38.137641906738" lon="116.35590362549">
        <ele>7162.8</ele>
        <time>2026-05-23T01:08:03</time>
      </trkpt>
      <trkpt lat="38.159568786621" lon="116.33571624756">
        <ele>7086.6</ele>
        <time>2026-05-23T01:08:18</time>
      </trkpt>
      <trkpt lat="38.181610107422" lon="116.31552886963">
        <ele>7010.4</ele>
        <time>2026-05-23T01:08:33</time>
      </trkpt>
      <trkpt lat="38.203979492188" lon="116.29518127441">
        <ele>6903.72</ele>
        <time>2026-05-23T01:08:48</time>
      </trkpt>
      <trkpt lat="38.225204467773" lon="116.27559661865">
        <ele>6751.32</ele>
        <time>2026-05-23T01:09:03</time>
      </trkpt>
      <trkpt lat="38.249176025391" lon="116.25778961182">
        <ele>6591.3</ele>
        <time>2026-05-23T01:09:18</time>
      </trkpt>
      <trkpt lat="38.274856567383" lon="116.25141906738">
        <ele>6438.9</ele>
        <time>2026-05-23T01:09:33</time>
      </trkpt>
      <trkpt lat="38.301551818848" lon="116.25601196289">
        <ele>6286.5</ele>
        <time>2026-05-23T01:09:48</time>
      </trkpt>
      <trkpt lat="38.328960418701" lon="116.2663192749">
        <ele>6134.1</ele>
        <time>2026-05-23T01:10:03</time>
      </trkpt>
      <trkpt lat="38.35657119751" lon="116.27684020996">
        <ele>5974.08</ele>
        <time>2026-05-23T01:10:18</time>
      </trkpt>
      <trkpt lat="38.383201599121" lon="116.28658294678">
        <ele>5821.68</ele>
        <time>2026-05-23T01:10:33</time>
      </trkpt>
      <trkpt lat="38.409599304199" lon="116.29607391357">
        <ele>5737.86</ele>
        <time>2026-05-23T01:10:48</time>
      </trkpt>
      <trkpt lat="38.435668945312" lon="116.30518341064">
        <ele>5654.04</ele>
        <time>2026-05-23T01:11:03</time>
      </trkpt>
      <trkpt lat="38.463554382324" lon="116.31488037109">
        <ele>5570.22</ele>
        <time>2026-05-23T01:11:18</time>
      </trkpt>
      <trkpt lat="38.490737915039" lon="116.32425689697">
        <ele>5494.02</ele>
        <time>2026-05-23T01:11:33</time>
      </trkpt>
      <trkpt lat="38.51639175415" lon="116.33294677734">
        <ele>5425.44</ele>
        <time>2026-05-23T01:11:48</time>
      </trkpt>
      <trkpt lat="38.543239593506" lon="116.34210968018">
        <ele>5394.96</ele>
        <time>2026-05-23T01:12:03</time>
      </trkpt>
      <trkpt lat="38.568603515625" lon="116.35076904297">
        <ele>5394.96</ele>
        <time>2026-05-23T01:12:18</time>
      </trkpt>
      <trkpt lat="38.595947265625" lon="116.36041259766">
        <ele>5394.96</ele>
        <time>2026-05-23T01:12:38</time>
      </trkpt>
      <trkpt lat="38.621978759766" lon="116.36957550049">
        <ele>5394.96</ele>
        <time>2026-05-23T01:12:53</time>
      </trkpt>
      <trkpt lat="38.652465820312" lon="116.38050079346">
        <ele>5394.96</ele>
        <time>2026-05-23T01:13:08</time>
      </trkpt>
      <trkpt lat="38.678112030029" lon="116.39013671875">
        <ele>5394.96</ele>
        <time>2026-05-23T01:13:23</time>
      </trkpt>
      <trkpt lat="38.704139709473" lon="116.40001678467">
        <ele>5394.96</ele>
        <time>2026-05-23T01:13:38</time>
      </trkpt>
      <trkpt lat="38.729000091553" lon="116.4094619751">
        <ele>5394.96</ele>
        <time>2026-05-23T01:13:53</time>
      </trkpt>
      <trkpt lat="38.75562286377" lon="116.41949462891">
        <ele>5394.96</ele>
        <time>2026-05-23T01:14:08</time>
      </trkpt>
      <trkpt lat="38.781085968018" lon="116.42913818359">
        <ele>5394.96</ele>
        <time>2026-05-23T01:14:22</time>
      </trkpt>
      <trkpt lat="38.810806274414" lon="116.44033050537">
        <ele>5334.0</ele>
        <time>2026-05-23T01:14:42</time>
      </trkpt>
      <trkpt lat="38.837600708008" lon="116.45043945312">
        <ele>5257.8</ele>
        <time>2026-05-23T01:14:57</time>
      </trkpt>
      <trkpt lat="38.862854003906" lon="116.45991516113">
        <ele>5181.6</ele>
        <time>2026-05-23T01:15:12</time>
      </trkpt>
      <trkpt lat="38.890438079834" lon="116.47015380859">
        <ele>5097.78</ele>
        <time>2026-05-23T01:15:27</time>
      </trkpt>
      <trkpt lat="38.918472290039" lon="116.48051452637">
        <ele>5013.96</ele>
        <time>2026-05-23T01:15:42</time>
      </trkpt>
      <trkpt lat="38.943466186523" lon="116.48941040039">
        <ele>4945.38</ele>
        <time>2026-05-23T01:15:57</time>
      </trkpt>
      <trkpt lat="38.972991943359" lon="116.4998626709">
        <ele>4853.94</ele>
        <time>2026-05-23T01:16:12</time>
      </trkpt>
      <trkpt lat="38.998901367188" lon="116.50684356689">
        <ele>4777.74</ele>
        <time>2026-05-23T01:16:27</time>
      </trkpt>
      <trkpt lat="39.025020599365" lon="116.51287841797">
        <ele>4701.54</ele>
        <time>2026-05-23T01:16:42</time>
      </trkpt>
      <trkpt lat="39.050445556641" lon="116.51878356934">
        <ele>4625.34</ele>
        <time>2026-05-23T01:16:57</time>
      </trkpt>
      <trkpt lat="39.076538085938" lon="116.52481842041">
        <ele>4549.14</ele>
        <time>2026-05-23T01:17:12</time>
      </trkpt>
      <trkpt lat="39.103179931641" lon="116.53076171875">
        <ele>4472.94</ele>
        <time>2026-05-23T01:17:27</time>
      </trkpt>
      <trkpt lat="39.129623413086" lon="116.53656005859">
        <ele>4396.74</ele>
        <time>2026-05-23T01:17:42</time>
      </trkpt>
      <trkpt lat="39.1552734375" lon="116.54211425781">
        <ele>4312.92</ele>
        <time>2026-05-23T01:17:57</time>
      </trkpt>
      <trkpt lat="39.181297302246" lon="116.54766845703">
        <ele>4244.34</ele>
        <time>2026-05-23T01:18:12</time>
      </trkpt>
      <trkpt lat="39.206249237061" lon="116.55291748047">
        <ele>4198.62</ele>
        <time>2026-05-23T01:18:27</time>
      </trkpt>
      <trkpt lat="39.231338500977" lon="116.55828857422">
        <ele>4175.76</ele>
        <time>2026-05-23T01:18:42</time>
      </trkpt>
      <trkpt lat="39.255126953125" lon="116.5634765625">
        <ele>4160.52</ele>
        <time>2026-05-23T01:18:57</time>
      </trkpt>
      <trkpt lat="39.277908325195" lon="116.56846618652">
        <ele>4130.04</ele>
        <time>2026-05-23T01:19:12</time>
      </trkpt>
      <trkpt lat="39.29997253418" lon="116.57335662842">
        <ele>4107.18</ele>
        <time>2026-05-23T01:19:27</time>
      </trkpt>
      <trkpt lat="39.321605682373" lon="116.57818603516">
        <ele>4030.98</ele>
        <time>2026-05-23T01:19:42</time>
      </trkpt>
      <trkpt lat="39.342086791992" lon="116.58276367188">
        <ele>3901.44</ele>
        <time>2026-05-23T01:19:57</time>
      </trkpt>
      <trkpt lat="39.363464355469" lon="116.58750915527">
        <ele>3787.14</ele>
        <time>2026-05-23T01:20:12</time>
      </trkpt>
      <trkpt lat="39.383750915527" lon="116.59210205078">
        <ele>3688.08</ele>
        <time>2026-05-23T01:20:27</time>
      </trkpt>
      <trkpt lat="39.404235839844" lon="116.59674072266">
        <ele>3589.02</ele>
        <time>2026-05-23T01:20:42</time>
      </trkpt>
      <trkpt lat="39.425029754639" lon="116.60147857666">
        <ele>3482.34</ele>
        <time>2026-05-23T01:20:57</time>
      </trkpt>
      <trkpt lat="39.444629669189" lon="116.60595703125">
        <ele>3368.04</ele>
        <time>2026-05-23T01:21:12</time>
      </trkpt>
      <trkpt lat="39.460464477539" lon="116.60966491699">
        <ele>3276.6</ele>
        <time>2026-05-23T01:21:27</time>
      </trkpt>
      <trkpt lat="39.851989746094" lon="116.60888671875">
        <ele>1386.84</ele>
        <time>2026-05-23T01:26:52</time>
      </trkpt>
      <trkpt lat="39.865539550781" lon="116.6068572998">
        <ele>1310.64</ele>
        <time>2026-05-23T01:27:07</time>
      </trkpt>
      <trkpt lat="39.878952026367" lon="116.60470581055">
        <ele>1226.82</ele>
        <time>2026-05-23T01:27:22</time>
      </trkpt>
      <trkpt lat="39.89208984375" lon="116.60261535645">
        <ele>1158.24</ele>
        <time>2026-05-23T01:27:37</time>
      </trkpt>
      <trkpt lat="39.904769897461" lon="116.6005859375">
        <ele>1082.04</ele>
        <time>2026-05-23T01:27:52</time>
      </trkpt>
      <trkpt lat="39.917659759521" lon="116.59869384766">
        <ele>1005.84</ele>
        <time>2026-05-23T01:28:07</time>
      </trkpt>
      <trkpt lat="39.929718017578" lon="116.59674072266">
        <ele>929.64</ele>
        <time>2026-05-23T01:28:22</time>
      </trkpt>
      <trkpt lat="39.942539215088" lon="116.59478759766">
        <ele>861.06</ele>
        <time>2026-05-23T01:28:37</time>
      </trkpt>
      <trkpt lat="39.955673217773" lon="116.5927734375">
        <ele>777.24</ele>
        <time>2026-05-23T01:28:52</time>
      </trkpt>
      <trkpt lat="39.967750549316" lon="116.59085083008">
        <ele>701.04</ele>
        <time>2026-05-23T01:29:07</time>
      </trkpt>
      <trkpt lat="39.979572296143" lon="116.58891296387">
        <ele>640.08</ele>
        <time>2026-05-23T01:29:22</time>
      </trkpt>
      <trkpt lat="39.990737915039" lon="116.58715820312">
        <ele>571.5</ele>
        <time>2026-05-23T01:29:37</time>
      </trkpt>
      <trkpt lat="40.001686096191" lon="116.58547973633">
        <ele>510.54</ele>
        <time>2026-05-23T01:29:52</time>
      </trkpt>
      <trkpt lat="40.01192855835" lon="116.58392333984">
        <ele>449.58</ele>
        <time>2026-05-23T01:30:07</time>
      </trkpt>
      <trkpt lat="40.022506713867" lon="116.58221435547">
        <ele>388.62</ele>
        <time>2026-05-23T01:30:22</time>
      </trkpt>
      <trkpt lat="40.033168792725" lon="116.58051300049">
        <ele>327.66</ele>
        <time>2026-05-23T01:30:37</time>
      </trkpt>
      <trkpt lat="40.044281005859" lon="116.57879638672">
        <ele>259.08</ele>
        <time>2026-05-23T01:30:52</time>
      </trkpt>
      <trkpt lat="40.05611038208" lon="116.57689666748">
        <ele>198.12</ele>
        <time>2026-05-23T01:31:12</time>
      </trkpt>
      <trkpt lat="40.064250946045" lon="116.57562255859">
        <ele>152.4</ele>
        <time>2026-05-23T01:31:23</time>
      </trkpt>
      <trkpt lat="40.08683013916" lon="116.57209777832">
        <ele>0.0</ele>
        <time>2026-05-23T01:31:54</time>
      </trkpt>
      <trkpt lat="40.093391418457" lon="116.57261657715">
        <ele>0.0</ele>
        <time>2026-05-23T01:32:42</time>
      </trkpt>
    </trkseg>
  </trk>
</gpx>