<?xml version="1.0" encoding="UTF-8"?>
<gpx xmlns="http://www.topografix.com/GPX/1/1" xmlns:xsi="http://www.w3.org/2001/XMLSchema-instance" xsi:schemaLocation="http://www.topografix.com/GPX/1/1 http://www.topografix.com/GPX/1/1/gpx.xsd" version="1.1" creator="gpx.py -- https://github.com/tkrajina/gpxpy">
  <trk>
    <name>Variflight_HU7678_20260618.csv</name>
    <trkseg>
      <trkpt lat="30.240507125854" lon="120.43434143066">
        <ele>0.0</ele>
        <time>2026-06-18T13:25:48</time>
      </trkpt>
      <trkpt lat="30.240509033203" lon="120.43433380127">
        <ele>0.0</ele>
        <time>2026-06-18T13:25:53</time>
      </trkpt>
      <trkpt lat="30.240507125854" lon="120.43432617188">
        <ele>0.0</ele>
        <time>2026-06-18T13:25:59</time>
      </trkpt>
      <trkpt lat="30.240507125854" lon="120.43432617188">
        <ele>0.0</ele>
        <time>2026-06-18T13:26:03</time>
      </trkpt>
      <trkpt lat="30.240509033203" lon="120.43433380127">
        <ele>0.0</ele>
        <time>2026-06-18T13:26:09</time>
      </trkpt>
      <trkpt lat="30.240507125854" lon="120.43432617188">
        <ele>0.0</ele>
        <time>2026-06-18T13:26:13</time>
      </trkpt>
      <trkpt lat="30.240520477295" lon="120.43433380127">
        <ele>0.0</ele>
        <time>2026-06-18T13:26:18</time>
      </trkpt>
      <trkpt lat="30.240531921387" lon="120.43434143066">
        <ele>0.0</ele>
        <time>2026-06-18T13:26:23</time>
      </trkpt>
      <trkpt lat="30.240566253662" lon="120.43434906006">
        <ele>0.0</ele>
        <time>2026-06-18T13:26:29</time>
      </trkpt>
      <trkpt lat="30.240589141846" lon="120.43437957764">
        <ele>0.0</ele>
        <time>2026-06-18T13:26:33</time>
      </trkpt>
      <trkpt lat="30.240623474121" lon="120.43438720703">
        <ele>0.0</ele>
        <time>2026-06-18T13:26:39</time>
      </trkpt>
      <trkpt lat="30.240657806396" lon="120.43441772461">
        <ele>0.0</ele>
        <time>2026-06-18T13:26:43</time>
      </trkpt>
      <trkpt lat="30.240692138672" lon="120.43444824219">
        <ele>0.0</ele>
        <time>2026-06-18T13:26:49</time>
      </trkpt>
      <trkpt lat="30.240749359131" lon="120.43448638916">
        <ele>0.0</ele>
        <time>2026-06-18T13:26:53</time>
      </trkpt>
      <trkpt lat="30.240787506104" lon="120.43450164795">
        <ele>0.0</ele>
        <time>2026-06-18T13:26:58</time>
      </trkpt>
      <trkpt lat="30.240840911865" lon="120.43452453613">
        <ele>0.0</ele>
        <time>2026-06-18T13:27:08</time>
      </trkpt>
      <trkpt lat="30.240892410278" lon="120.43456268311">
        <ele>0.0</ele>
        <time>2026-06-18T13:27:13</time>
      </trkpt>
      <trkpt lat="30.2409324646" lon="120.43457794189">
        <ele>0.0</ele>
        <time>2026-06-18T13:27:19</time>
      </trkpt>
      <trkpt lat="30.240966796875" lon="120.43460845947">
        <ele>0.0</ele>
        <time>2026-06-18T13:27:23</time>
      </trkpt>
      <trkpt lat="30.240989685059" lon="120.43462371826">
        <ele>0.0</ele>
        <time>2026-06-18T13:27:29</time>
      </trkpt>
      <trkpt lat="30.241031646729" lon="120.43463134766">
        <ele>0.0</ele>
        <time>2026-06-18T13:27:33</time>
      </trkpt>
      <trkpt lat="30.241081237793" lon="120.43464660645">
        <ele>0.0</ele>
        <time>2026-06-18T13:27:39</time>
      </trkpt>
      <trkpt lat="30.241115570068" lon="120.43464660645">
        <ele>0.0</ele>
        <time>2026-06-18T13:27:43</time>
      </trkpt>
      <trkpt lat="30.241159439087" lon="120.43465423584">
        <ele>0.0</ele>
        <time>2026-06-18T13:27:48</time>
      </trkpt>
      <trkpt lat="30.241195678711" lon="120.43466186523">
        <ele>0.0</ele>
        <time>2026-06-18T13:27:53</time>
      </trkpt>
      <trkpt lat="30.241241455078" lon="120.43465423584">
        <ele>0.0</ele>
        <time>2026-06-18T13:27:58</time>
      </trkpt>
      <trkpt lat="30.241275787354" lon="120.43463897705">
        <ele>0.0</ele>
        <time>2026-06-18T13:28:03</time>
      </trkpt>
      <trkpt lat="30.241355895996" lon="120.43460845947">
        <ele>0.0</ele>
        <time>2026-06-18T13:28:18</time>
      </trkpt>
      <trkpt lat="30.24139213562" lon="120.43458557129">
        <ele>0.0</ele>
        <time>2026-06-18T13:28:20</time>
      </trkpt>
      <trkpt lat="30.241439819336" lon="120.43456268311">
        <ele>0.0</ele>
        <time>2026-06-18T13:28:28</time>
      </trkpt>
      <trkpt lat="30.241474151611" lon="120.43451690674">
        <ele>0.0</ele>
        <time>2026-06-18T13:28:32</time>
      </trkpt>
      <trkpt lat="30.241497039795" lon="120.43449401855">
        <ele>0.0</ele>
        <time>2026-06-18T13:28:37</time>
      </trkpt>
      <trkpt lat="30.241521835327" lon="120.4344329834">
        <ele>0.0</ele>
        <time>2026-06-18T13:28:49</time>
      </trkpt>
      <trkpt lat="30.241527557373" lon="120.43428039551">
        <ele>0.0</ele>
        <time>2026-06-18T13:29:03</time>
      </trkpt>
      <trkpt lat="30.241521835327" lon="120.43422698975">
        <ele>0.0</ele>
        <time>2026-06-18T13:29:07</time>
      </trkpt>
      <trkpt lat="30.241504669189" lon="120.43418884277">
        <ele>0.0</ele>
        <time>2026-06-18T13:29:13</time>
      </trkpt>
      <trkpt lat="30.241508483887" lon="120.43418884277">
        <ele>0.0</ele>
        <time>2026-06-18T13:29:17</time>
      </trkpt>
      <trkpt lat="30.241508483887" lon="120.43420410156">
        <ele>0.0</ele>
        <time>2026-06-18T13:29:22</time>
      </trkpt>
      <trkpt lat="30.241508483887" lon="120.43420410156">
        <ele>0.0</ele>
        <time>2026-06-18T13:29:27</time>
      </trkpt>
      <trkpt lat="30.241504669189" lon="120.43420410156">
        <ele>0.0</ele>
        <time>2026-06-18T13:29:33</time>
      </trkpt>
      <trkpt lat="30.241508483887" lon="120.43420410156">
        <ele>0.0</ele>
        <time>2026-06-18T13:29:46</time>
      </trkpt>
      <trkpt lat="30.241504669189" lon="120.43420410156">
        <ele>0.0</ele>
        <time>2026-06-18T13:29:51</time>
      </trkpt>
      <trkpt lat="30.24153137207" lon="120.43418884277">
        <ele>0.0</ele>
        <time>2026-06-18T13:29:56</time>
      </trkpt>
      <trkpt lat="30.24153137207" lon="120.43418884277">
        <ele>0.0</ele>
        <time>2026-06-18T13:30:02</time>
      </trkpt>
      <trkpt lat="30.24153137207" lon="120.43418884277">
        <ele>0.0</ele>
        <time>2026-06-18T13:30:06</time>
      </trkpt>
      <trkpt lat="30.24153137207" lon="120.43418884277">
        <ele>0.0</ele>
        <time>2026-06-18T13:30:17</time>
      </trkpt>
      <trkpt lat="30.24153137207" lon="120.43418884277">
        <ele>0.0</ele>
        <time>2026-06-18T13:30:21</time>
      </trkpt>
      <trkpt lat="30.24153137207" lon="120.43418884277">
        <ele>0.0</ele>
        <time>2026-06-18T13:30:26</time>
      </trkpt>
      <trkpt lat="30.241527557373" lon="120.43418884277">
        <ele>0.0</ele>
        <time>2026-06-18T13:30:31</time>
      </trkpt>
      <trkpt lat="30.241527557373" lon="120.43418884277">
        <ele>0.0</ele>
        <time>2026-06-18T13:30:36</time>
      </trkpt>
      <trkpt lat="30.241527557373" lon="120.43418884277">
        <ele>0.0</ele>
        <time>2026-06-18T13:30:41</time>
      </trkpt>
      <trkpt lat="30.241527557373" lon="120.43418884277">
        <ele>0.0</ele>
        <time>2026-06-18T13:30:55</time>
      </trkpt>
      <trkpt lat="30.241527557373" lon="120.43418884277">
        <ele>0.0</ele>
        <time>2026-06-18T13:31:03</time>
      </trkpt>
      <trkpt lat="30.241527557373" lon="120.43418884277">
        <ele>0.0</ele>
        <time>2026-06-18T13:31:08</time>
      </trkpt>
      <trkpt lat="30.241527557373" lon="120.43418884277">
        <ele>0.0</ele>
        <time>2026-06-18T13:31:12</time>
      </trkpt>
      <trkpt lat="30.24153137207" lon="120.43418884277">
        <ele>0.0</ele>
        <time>2026-06-18T13:31:22</time>
      </trkpt>
      <trkpt lat="30.24153137207" lon="120.43418884277">
        <ele>0.0</ele>
        <time>2026-06-18T13:31:32</time>
      </trkpt>
      <trkpt lat="30.241527557373" lon="120.43418884277">
        <ele>0.0</ele>
        <time>2026-06-18T13:31:36</time>
      </trkpt>
      <trkpt lat="30.241527557373" lon="120.43418884277">
        <ele>0.0</ele>
        <time>2026-06-18T13:31:41</time>
      </trkpt>
      <trkpt lat="30.241527557373" lon="120.43418884277">
        <ele>0.0</ele>
        <time>2026-06-18T13:31:47</time>
      </trkpt>
      <trkpt lat="30.241527557373" lon="120.43418884277">
        <ele>0.0</ele>
        <time>2026-06-18T13:31:51</time>
      </trkpt>
      <trkpt lat="30.24153137207" lon="120.43418884277">
        <ele>0.0</ele>
        <time>2026-06-18T13:31:56</time>
      </trkpt>
      <trkpt lat="30.241527557373" lon="120.43418884277">
        <ele>0.0</ele>
        <time>2026-06-18T13:32:01</time>
      </trkpt>
      <trkpt lat="30.24153137207" lon="120.43418884277">
        <ele>0.0</ele>
        <time>2026-06-18T13:32:07</time>
      </trkpt>
      <trkpt lat="30.241527557373" lon="120.43418884277">
        <ele>0.0</ele>
        <time>2026-06-18T13:32:11</time>
      </trkpt>
      <trkpt lat="30.24153137207" lon="120.43418884277">
        <ele>0.0</ele>
        <time>2026-06-18T13:32:18</time>
      </trkpt>
      <trkpt lat="30.24153137207" lon="120.43418884277">
        <ele>0.0</ele>
        <time>2026-06-18T13:32:21</time>
      </trkpt>
      <trkpt lat="30.24153137207" lon="120.43418884277">
        <ele>0.0</ele>
        <time>2026-06-18T13:32:31</time>
      </trkpt>
      <trkpt lat="30.24153137207" lon="120.43418884277">
        <ele>0.0</ele>
        <time>2026-06-18T13:32:36</time>
      </trkpt>
      <trkpt lat="30.24153137207" lon="120.43418884277">
        <ele>0.0</ele>
        <time>2026-06-18T13:32:41</time>
      </trkpt>
      <trkpt lat="30.241527557373" lon="120.43418884277">
        <ele>0.0</ele>
        <time>2026-06-18T13:32:56</time>
      </trkpt>
      <trkpt lat="30.241527557373" lon="120.43418884277">
        <ele>0.0</ele>
        <time>2026-06-18T13:33:01</time>
      </trkpt>
      <trkpt lat="30.24153137207" lon="120.43418884277">
        <ele>0.0</ele>
        <time>2026-06-18T13:33:06</time>
      </trkpt>
      <trkpt lat="30.24153137207" lon="120.43418884277">
        <ele>0.0</ele>
        <time>2026-06-18T13:33:12</time>
      </trkpt>
      <trkpt lat="30.24153137207" lon="120.43418884277">
        <ele>0.0</ele>
        <time>2026-06-18T13:33:16</time>
      </trkpt>
      <trkpt lat="30.24153137207" lon="120.43418884277">
        <ele>0.0</ele>
        <time>2026-06-18T13:33:32</time>
      </trkpt>
      <trkpt lat="30.24153137207" lon="120.43418884277">
        <ele>0.0</ele>
        <time>2026-06-18T13:33:36</time>
      </trkpt>
      <trkpt lat="30.24153137207" lon="120.43418884277">
        <ele>0.0</ele>
        <time>2026-06-18T13:33:42</time>
      </trkpt>
      <trkpt lat="30.241527557373" lon="120.43418884277">
        <ele>0.0</ele>
        <time>2026-06-18T13:33:46</time>
      </trkpt>
      <trkpt lat="30.241527557373" lon="120.43418884277">
        <ele>0.0</ele>
        <time>2026-06-18T13:33:52</time>
      </trkpt>
      <trkpt lat="30.24153137207" lon="120.43418884277">
        <ele>0.0</ele>
        <time>2026-06-18T13:33:56</time>
      </trkpt>
      <trkpt lat="30.241527557373" lon="120.43418884277">
        <ele>0.0</ele>
        <time>2026-06-18T13:34:01</time>
      </trkpt>
      <trkpt lat="30.24153137207" lon="120.43418884277">
        <ele>0.0</ele>
        <time>2026-06-18T13:34:06</time>
      </trkpt>
      <trkpt lat="30.241527557373" lon="120.43418884277">
        <ele>0.0</ele>
        <time>2026-06-18T13:34:11</time>
      </trkpt>
      <trkpt lat="30.241527557373" lon="120.43418884277">
        <ele>0.0</ele>
        <time>2026-06-18T13:34:16</time>
      </trkpt>
      <trkpt lat="30.24157333374" lon="120.43427276611">
        <ele>0.0</ele>
        <time>2026-06-18T13:34:37</time>
      </trkpt>
      <trkpt lat="30.241607666016" lon="120.43434906006">
        <ele>0.0</ele>
        <time>2026-06-18T13:34:41</time>
      </trkpt>
      <trkpt lat="30.241653442383" lon="120.43444824219">
        <ele>0.0</ele>
        <time>2026-06-18T13:34:46</time>
      </trkpt>
      <trkpt lat="30.241718292236" lon="120.4345703125">
        <ele>0.0</ele>
        <time>2026-06-18T13:34:57</time>
      </trkpt>
      <trkpt lat="30.241764068604" lon="120.43468475342">
        <ele>0.0</ele>
        <time>2026-06-18T13:35:01</time>
      </trkpt>
      <trkpt lat="30.241813659668" lon="120.43478393555">
        <ele>0.0</ele>
        <time>2026-06-18T13:35:06</time>
      </trkpt>
      <trkpt lat="30.241857528687" lon="120.43490600586">
        <ele>0.0</ele>
        <time>2026-06-18T13:35:12</time>
      </trkpt>
      <trkpt lat="30.241916656494" lon="120.43502044678">
        <ele>0.0</ele>
        <time>2026-06-18T13:35:16</time>
      </trkpt>
      <trkpt lat="30.242065429688" lon="120.43514251709">
        <ele>0.0</ele>
        <time>2026-06-18T13:35:22</time>
      </trkpt>
      <trkpt lat="30.242179870605" lon="120.43519592285">
        <ele>0.0</ele>
        <time>2026-06-18T13:35:26</time>
      </trkpt>
      <trkpt lat="30.242328643799" lon="120.43521118164">
        <ele>0.0</ele>
        <time>2026-06-18T13:35:32</time>
      </trkpt>
      <trkpt lat="30.242475509644" lon="120.43518829346">
        <ele>0.0</ele>
        <time>2026-06-18T13:35:36</time>
      </trkpt>
      <trkpt lat="30.242614746094" lon="120.43511962891">
        <ele>0.0</ele>
        <time>2026-06-18T13:35:41</time>
      </trkpt>
      <trkpt lat="30.242753982544" lon="120.43501281738">
        <ele>0.0</ele>
        <time>2026-06-18T13:35:46</time>
      </trkpt>
      <trkpt lat="30.242881774902" lon="120.43491363525">
        <ele>0.0</ele>
        <time>2026-06-18T13:35:51</time>
      </trkpt>
      <trkpt lat="30.243034362793" lon="120.43482208252">
        <ele>0.0</ele>
        <time>2026-06-18T13:35:57</time>
      </trkpt>
      <trkpt lat="30.243207931519" lon="120.4347076416">
        <ele>0.0</ele>
        <time>2026-06-18T13:36:01</time>
      </trkpt>
      <trkpt lat="30.243381500244" lon="120.43460845947">
        <ele>0.0</ele>
        <time>2026-06-18T13:36:06</time>
      </trkpt>
      <trkpt lat="30.243576049805" lon="120.43450164795">
        <ele>0.0</ele>
        <time>2026-06-18T13:36:12</time>
      </trkpt>
      <trkpt lat="30.243793487549" lon="120.43436431885">
        <ele>0.0</ele>
        <time>2026-06-18T13:36:16</time>
      </trkpt>
      <trkpt lat="30.244022369385" lon="120.43422698975">
        <ele>0.0</ele>
        <time>2026-06-18T13:36:21</time>
      </trkpt>
      <trkpt lat="30.24427986145" lon="120.43408203125">
        <ele>0.0</ele>
        <time>2026-06-18T13:36:26</time>
      </trkpt>
      <trkpt lat="30.244581222534" lon="120.43389892578">
        <ele>0.0</ele>
        <time>2026-06-18T13:36:31</time>
      </trkpt>
      <trkpt lat="30.244825363159" lon="120.43376159668">
        <ele>0.0</ele>
        <time>2026-06-18T13:36:37</time>
      </trkpt>
      <trkpt lat="30.245018005371" lon="120.43364715576">
        <ele>0.0</ele>
        <time>2026-06-18T13:36:41</time>
      </trkpt>
      <trkpt lat="30.245246887207" lon="120.43351745605">
        <ele>0.0</ele>
        <time>2026-06-18T13:36:46</time>
      </trkpt>
      <trkpt lat="30.245429992676" lon="120.43341064453">
        <ele>0.0</ele>
        <time>2026-06-18T13:36:51</time>
      </trkpt>
      <trkpt lat="30.245590209961" lon="120.4333114624">
        <ele>0.0</ele>
        <time>2026-06-18T13:36:56</time>
      </trkpt>
      <trkpt lat="30.245780944824" lon="120.43319702148">
        <ele>0.0</ele>
        <time>2026-06-18T13:37:02</time>
      </trkpt>
      <trkpt lat="30.245933532715" lon="120.43309783936">
        <ele>0.0</ele>
        <time>2026-06-18T13:37:06</time>
      </trkpt>
      <trkpt lat="30.246047973633" lon="120.43299102783">
        <ele>0.0</ele>
        <time>2026-06-18T13:37:11</time>
      </trkpt>
      <trkpt lat="30.24609375" lon="120.43285369873">
        <ele>0.0</ele>
        <time>2026-06-18T13:37:16</time>
      </trkpt>
      <trkpt lat="30.246105194092" lon="120.43271636963">
        <ele>0.0</ele>
        <time>2026-06-18T13:37:21</time>
      </trkpt>
      <trkpt lat="30.246082305908" lon="120.43254089355">
        <ele>0.0</ele>
        <time>2026-06-18T13:37:32</time>
      </trkpt>
      <trkpt lat="30.246025085449" lon="120.43240356445">
        <ele>0.0</ele>
        <time>2026-06-18T13:37:36</time>
      </trkpt>
      <trkpt lat="30.24596786499" lon="120.43228149414">
        <ele>0.0</ele>
        <time>2026-06-18T13:37:42</time>
      </trkpt>
      <trkpt lat="30.245897293091" lon="120.43215942383">
        <ele>0.0</ele>
        <time>2026-06-18T13:37:46</time>
      </trkpt>
      <trkpt lat="30.245796203613" lon="120.43195343018">
        <ele>0.0</ele>
        <time>2026-06-18T13:37:52</time>
      </trkpt>
      <trkpt lat="30.245704650879" lon="120.43176269531">
        <ele>0.0</ele>
        <time>2026-06-18T13:37:57</time>
      </trkpt>
      <trkpt lat="30.24552154541" lon="120.43135070801">
        <ele>0.0</ele>
        <time>2026-06-18T13:38:06</time>
      </trkpt>
      <trkpt lat="30.245429992676" lon="120.43114471436">
        <ele>0.0</ele>
        <time>2026-06-18T13:38:11</time>
      </trkpt>
      <trkpt lat="30.245279312134" lon="120.430809021">
        <ele>0.0</ele>
        <time>2026-06-18T13:38:16</time>
      </trkpt>
      <trkpt lat="30.245187759399" lon="120.43058776855">
        <ele>0.0</ele>
        <time>2026-06-18T13:38:22</time>
      </trkpt>
      <trkpt lat="30.245052337646" lon="120.43028259277">
        <ele>0.0</ele>
        <time>2026-06-18T13:38:26</time>
      </trkpt>
      <trkpt lat="30.244903564453" lon="120.42994689941">
        <ele>0.0</ele>
        <time>2026-06-18T13:38:31</time>
      </trkpt>
      <trkpt lat="30.2447681427" lon="120.42965698242">
        <ele>0.0</ele>
        <time>2026-06-18T13:38:36</time>
      </trkpt>
      <trkpt lat="30.244617462158" lon="120.42929840088">
        <ele>0.0</ele>
        <time>2026-06-18T13:38:42</time>
      </trkpt>
      <trkpt lat="30.244297027588" lon="120.42858886719">
        <ele>0.0</ele>
        <time>2026-06-18T13:38:51</time>
      </trkpt>
      <trkpt lat="30.243839263916" lon="120.42756652832">
        <ele>0.0</ele>
        <time>2026-06-18T13:39:00</time>
      </trkpt>
      <trkpt lat="30.24363899231" lon="120.42711639404">
        <ele>0.0</ele>
        <time>2026-06-18T13:39:05</time>
      </trkpt>
      <trkpt lat="30.24342918396" lon="120.4266204834">
        <ele>0.0</ele>
        <time>2026-06-18T13:39:14</time>
      </trkpt>
      <trkpt lat="30.243196487427" lon="120.42611694336">
        <ele>0.0</ele>
        <time>2026-06-18T13:39:19</time>
      </trkpt>
      <trkpt lat="30.242975234985" lon="120.42560577393">
        <ele>0.0</ele>
        <time>2026-06-18T13:39:24</time>
      </trkpt>
      <trkpt lat="30.242729187012" lon="120.42505645752">
        <ele>0.0</ele>
        <time>2026-06-18T13:39:29</time>
      </trkpt>
      <trkpt lat="30.242521286011" lon="120.42462921143">
        <ele>0.0</ele>
        <time>2026-06-18T13:39:39</time>
      </trkpt>
      <trkpt lat="30.242408752441" lon="120.4243850708">
        <ele>0.0</ele>
        <time>2026-06-18T13:39:44</time>
      </trkpt>
      <trkpt lat="30.242317199707" lon="120.42415618896">
        <ele>0.0</ele>
        <time>2026-06-18T13:39:49</time>
      </trkpt>
      <trkpt lat="30.242202758789" lon="120.42391967773">
        <ele>0.0</ele>
        <time>2026-06-18T13:39:54</time>
      </trkpt>
      <trkpt lat="30.242111206055" lon="120.42371368408">
        <ele>0.0</ele>
        <time>2026-06-18T13:39:59</time>
      </trkpt>
      <trkpt lat="30.24201965332" lon="120.42351531982">
        <ele>0.0</ele>
        <time>2026-06-18T13:40:04</time>
      </trkpt>
      <trkpt lat="30.241928100586" lon="120.42329406738">
        <ele>0.0</ele>
        <time>2026-06-18T13:40:09</time>
      </trkpt>
      <trkpt lat="30.241834640503" lon="120.42308044434">
        <ele>0.0</ele>
        <time>2026-06-18T13:40:14</time>
      </trkpt>
      <trkpt lat="30.241672515869" lon="120.422706604">
        <ele>0.0</ele>
        <time>2026-06-18T13:40:23</time>
      </trkpt>
      <trkpt lat="30.241424560547" lon="120.42216491699">
        <ele>0.0</ele>
        <time>2026-06-18T13:40:32</time>
      </trkpt>
      <trkpt lat="30.241264343262" lon="120.42179107666">
        <ele>0.0</ele>
        <time>2026-06-18T13:40:42</time>
      </trkpt>
      <trkpt lat="30.241241455078" lon="120.42162322998">
        <ele>0.0</ele>
        <time>2026-06-18T13:40:47</time>
      </trkpt>
      <trkpt lat="30.241310119629" lon="120.42144775391">
        <ele>0.0</ele>
        <time>2026-06-18T13:40:51</time>
      </trkpt>
      <trkpt lat="30.241451263428" lon="120.42129516602">
        <ele>0.0</ele>
        <time>2026-06-18T13:40:57</time>
      </trkpt>
      <trkpt lat="30.241607666016" lon="120.42121124268">
        <ele>0.0</ele>
        <time>2026-06-18T13:41:02</time>
      </trkpt>
      <trkpt lat="30.241706848145" lon="120.42115783691">
        <ele>0.0</ele>
        <time>2026-06-18T13:41:06</time>
      </trkpt>
      <trkpt lat="30.241779327393" lon="120.42100524902">
        <ele>0.0</ele>
        <time>2026-06-18T13:41:11</time>
      </trkpt>
      <trkpt lat="30.241800308228" lon="120.42083740234">
        <ele>0.0</ele>
        <time>2026-06-18T13:41:17</time>
      </trkpt>
      <trkpt lat="30.241779327393" lon="120.42068481445">
        <ele>0.0</ele>
        <time>2026-06-18T13:41:21</time>
      </trkpt>
      <trkpt lat="30.241718292236" lon="120.42052459717">
        <ele>0.0</ele>
        <time>2026-06-18T13:41:27</time>
      </trkpt>
      <trkpt lat="30.241630554199" lon="120.42034912109">
        <ele>0.0</ele>
        <time>2026-06-18T13:41:31</time>
      </trkpt>
      <trkpt lat="30.24153137207" lon="120.42015075684">
        <ele>0.0</ele>
        <time>2026-06-18T13:41:37</time>
      </trkpt>
      <trkpt lat="30.241413116455" lon="120.41991424561">
        <ele>0.0</ele>
        <time>2026-06-18T13:41:42</time>
      </trkpt>
      <trkpt lat="30.241298675537" lon="120.4196472168">
        <ele>0.0</ele>
        <time>2026-06-18T13:41:46</time>
      </trkpt>
      <trkpt lat="30.241182327271" lon="120.41939544678">
        <ele>0.0</ele>
        <time>2026-06-18T13:41:51</time>
      </trkpt>
      <trkpt lat="30.240985870361" lon="120.4189453125">
        <ele>0.0</ele>
        <time>2026-06-18T13:42:01</time>
      </trkpt>
      <trkpt lat="30.240840911865" lon="120.41862487793">
        <ele>0.0</ele>
        <time>2026-06-18T13:42:04</time>
      </trkpt>
      <trkpt lat="30.240507125854" lon="120.41786193848">
        <ele>0.0</ele>
        <time>2026-06-18T13:42:19</time>
      </trkpt>
      <trkpt lat="30.240333557129" lon="120.41748809814">
        <ele>0.0</ele>
        <time>2026-06-18T13:42:22</time>
      </trkpt>
      <trkpt lat="30.240158081055" lon="120.41707611084">
        <ele>0.0</ele>
        <time>2026-06-18T13:42:27</time>
      </trkpt>
      <trkpt lat="30.239948272705" lon="120.41660308838">
        <ele>0.0</ele>
        <time>2026-06-18T13:42:32</time>
      </trkpt>
      <trkpt lat="30.239763259888" lon="120.41618347168">
        <ele>0.0</ele>
        <time>2026-06-18T13:42:37</time>
      </trkpt>
      <trkpt lat="30.239559173584" lon="120.4157333374">
        <ele>0.0</ele>
        <time>2026-06-18T13:42:42</time>
      </trkpt>
      <trkpt lat="30.239353179932" lon="120.41528320312">
        <ele>0.0</ele>
        <time>2026-06-18T13:42:47</time>
      </trkpt>
      <trkpt lat="30.239147186279" lon="120.41479492188">
        <ele>0.0</ele>
        <time>2026-06-18T13:42:52</time>
      </trkpt>
      <trkpt lat="30.238878250122" lon="120.41419219971">
        <ele>0.0</ele>
        <time>2026-06-18T13:43:02</time>
      </trkpt>
      <trkpt lat="30.238655090332" lon="120.41369628906">
        <ele>0.0</ele>
        <time>2026-06-18T13:43:07</time>
      </trkpt>
      <trkpt lat="30.238437652588" lon="120.41321563721">
        <ele>0.0</ele>
        <time>2026-06-18T13:43:12</time>
      </trkpt>
      <trkpt lat="30.238180160522" lon="120.41264343262">
        <ele>0.0</ele>
        <time>2026-06-18T13:43:17</time>
      </trkpt>
      <trkpt lat="30.237993240356" lon="120.41221618652">
        <ele>0.0</ele>
        <time>2026-06-18T13:43:22</time>
      </trkpt>
      <trkpt lat="30.237785339355" lon="120.41174316406">
        <ele>0.0</ele>
        <time>2026-06-18T13:43:27</time>
      </trkpt>
      <trkpt lat="30.237609863281" lon="120.41135406494">
        <ele>0.0</ele>
        <time>2026-06-18T13:43:32</time>
      </trkpt>
      <trkpt lat="30.237464904785" lon="120.41100311279">
        <ele>0.0</ele>
        <time>2026-06-18T13:43:37</time>
      </trkpt>
      <trkpt lat="30.237316131592" lon="120.41069793701">
        <ele>0.0</ele>
        <time>2026-06-18T13:43:43</time>
      </trkpt>
      <trkpt lat="30.237167358398" lon="120.41034698486">
        <ele>0.0</ele>
        <time>2026-06-18T13:43:48</time>
      </trkpt>
      <trkpt lat="30.237030029297" lon="120.41003417969">
        <ele>0.0</ele>
        <time>2026-06-18T13:43:53</time>
      </trkpt>
      <trkpt lat="30.236911773682" lon="120.40977478027">
        <ele>0.0</ele>
        <time>2026-06-18T13:43:59</time>
      </trkpt>
      <trkpt lat="30.236835479736" lon="120.4095916748">
        <ele>0.0</ele>
        <time>2026-06-18T13:44:03</time>
      </trkpt>
      <trkpt lat="30.236841201782" lon="120.40943145752">
        <ele>0.0</ele>
        <time>2026-06-18T13:44:08</time>
      </trkpt>
      <trkpt lat="30.236923217773" lon="120.40924835205">
        <ele>0.0</ele>
        <time>2026-06-18T13:44:13</time>
      </trkpt>
      <trkpt lat="30.23705291748" lon="120.40911102295">
        <ele>0.0</ele>
        <time>2026-06-18T13:44:18</time>
      </trkpt>
      <trkpt lat="30.237260818481" lon="120.40898895264">
        <ele>0.0</ele>
        <time>2026-06-18T13:44:28</time>
      </trkpt>
      <trkpt lat="30.237436294556" lon="120.4089050293">
        <ele>0.0</ele>
        <time>2026-06-18T13:44:33</time>
      </trkpt>
      <trkpt lat="30.237621307373" lon="120.40879821777">
        <ele>0.0</ele>
        <time>2026-06-18T13:44:38</time>
      </trkpt>
      <trkpt lat="30.237808227539" lon="120.40869903564">
        <ele>0.0</ele>
        <time>2026-06-18T13:44:43</time>
      </trkpt>
      <trkpt lat="30.237957000732" lon="120.40867614746">
        <ele>0.0</ele>
        <time>2026-06-18T13:44:48</time>
      </trkpt>
      <trkpt lat="30.238134384155" lon="120.40867614746">
        <ele>0.0</ele>
        <time>2026-06-18T13:44:53</time>
      </trkpt>
      <trkpt lat="30.238296508789" lon="120.40872955322">
        <ele>0.0</ele>
        <time>2026-06-18T13:44:58</time>
      </trkpt>
      <trkpt lat="30.238414764404" lon="120.40882110596">
        <ele>0.0</ele>
        <time>2026-06-18T13:45:03</time>
      </trkpt>
      <trkpt lat="30.23851776123" lon="120.40895843506">
        <ele>0.0</ele>
        <time>2026-06-18T13:45:08</time>
      </trkpt>
      <trkpt lat="30.238599777222" lon="120.40911102295">
        <ele>0.0</ele>
        <time>2026-06-18T13:45:13</time>
      </trkpt>
      <trkpt lat="30.238645553589" lon="120.40927886963">
        <ele>0.0</ele>
        <time>2026-06-18T13:45:18</time>
      </trkpt>
      <trkpt lat="30.238700866699" lon="120.40944671631">
        <ele>0.0</ele>
        <time>2026-06-18T13:45:23</time>
      </trkpt>
      <trkpt lat="30.238803863525" lon="120.40968322754">
        <ele>0.0</ele>
        <time>2026-06-18T13:45:28</time>
      </trkpt>
      <trkpt lat="30.238960266113" lon="120.41003417969">
        <ele>0.0</ele>
        <time>2026-06-18T13:45:33</time>
      </trkpt>
      <trkpt lat="30.239240646362" lon="120.41067504883">
        <ele>0.0</ele>
        <time>2026-06-18T13:45:38</time>
      </trkpt>
      <trkpt lat="30.239822387695" lon="120.4119720459">
        <ele>0.0</ele>
        <time>2026-06-18T13:45:43</time>
      </trkpt>
      <trkpt lat="30.240600585938" lon="120.41373443604">
        <ele>0.0</ele>
        <time>2026-06-18T13:45:48</time>
      </trkpt>
      <trkpt lat="30.244033813477" lon="120.4214630127">
        <ele>60.96</ele>
        <time>2026-06-18T13:46:03</time>
      </trkpt>
      <trkpt lat="30.248889923096" lon="120.43244934082">
        <ele>121.92</ele>
        <time>2026-06-18T13:46:18</time>
      </trkpt>
      <trkpt lat="30.253740310669" lon="120.44312286377">
        <ele>304.8</ele>
        <time>2026-06-18T13:46:33</time>
      </trkpt>
      <trkpt lat="30.258628845215" lon="120.45404815674">
        <ele>464.82</ele>
        <time>2026-06-18T13:46:48</time>
      </trkpt>
      <trkpt lat="30.263376235962" lon="120.46486663818">
        <ele>594.36</ele>
        <time>2026-06-18T13:47:03</time>
      </trkpt>
      <trkpt lat="30.268451690674" lon="120.47634887695">
        <ele>716.28</ele>
        <time>2026-06-18T13:47:18</time>
      </trkpt>
      <trkpt lat="30.273620605469" lon="120.48799133301">
        <ele>845.82</ele>
        <time>2026-06-18T13:47:33</time>
      </trkpt>
      <trkpt lat="30.275802612305" lon="120.50090026855">
        <ele>982.98</ele>
        <time>2026-06-18T13:47:48</time>
      </trkpt>
      <trkpt lat="30.274038314819" lon="120.51474761963">
        <ele>1066.8</ele>
        <time>2026-06-18T13:48:03</time>
      </trkpt>
      <trkpt lat="30.271663665771" lon="120.52935791016">
        <ele>1127.76</ele>
        <time>2026-06-18T13:48:18</time>
      </trkpt>
      <trkpt lat="30.269119262695" lon="120.54414367676">
        <ele>1280.16</ele>
        <time>2026-06-18T13:48:33</time>
      </trkpt>
      <trkpt lat="30.266464233398" lon="120.55944061279">
        <ele>1447.8</ele>
        <time>2026-06-18T13:48:48</time>
      </trkpt>
      <trkpt lat="30.263759613037" lon="120.57521820068">
        <ele>1630.68</ele>
        <time>2026-06-18T13:49:03</time>
      </trkpt>
      <trkpt lat="30.260820388794" lon="120.59094238281">
        <ele>1775.46</ele>
        <time>2026-06-18T13:49:18</time>
      </trkpt>
      <trkpt lat="30.25332069397" lon="120.60346221924">
        <ele>1912.62</ele>
        <time>2026-06-18T13:49:33</time>
      </trkpt>
      <trkpt lat="30.240520477295" lon="120.60807037354">
        <ele>2065.02</ele>
        <time>2026-06-18T13:49:48</time>
      </trkpt>
      <trkpt lat="30.228370666504" lon="120.60247039795">
        <ele>2225.04</ele>
        <time>2026-06-18T13:50:03</time>
      </trkpt>
      <trkpt lat="30.221099853516" lon="120.58959960938">
        <ele>2362.2</ele>
        <time>2026-06-18T13:50:18</time>
      </trkpt>
      <trkpt lat="30.220455169678" lon="120.57357788086">
        <ele>2476.5</ele>
        <time>2026-06-18T13:50:33</time>
      </trkpt>
      <trkpt lat="30.222459793091" lon="120.55615997314">
        <ele>2537.46</ele>
        <time>2026-06-18T13:50:48</time>
      </trkpt>
      <trkpt lat="30.224624633789" lon="120.53768157959">
        <ele>2606.04</ele>
        <time>2026-06-18T13:51:03</time>
      </trkpt>
      <trkpt lat="30.227066040039" lon="120.51705169678">
        <ele>2674.62</ele>
        <time>2026-06-18T13:51:18</time>
      </trkpt>
      <trkpt lat="30.229629516602" lon="120.49556732178">
        <ele>2743.2</ele>
        <time>2026-06-18T13:51:33</time>
      </trkpt>
      <trkpt lat="30.232543945312" lon="120.47165679932">
        <ele>2903.22</ele>
        <time>2026-06-18T13:51:48</time>
      </trkpt>
      <trkpt lat="30.235290527344" lon="120.44834136963">
        <ele>3078.48</ele>
        <time>2026-06-18T13:52:03</time>
      </trkpt>
      <trkpt lat="30.237945556641" lon="120.42555999756">
        <ele>3230.88</ele>
        <time>2026-06-18T13:52:18</time>
      </trkpt>
      <trkpt lat="30.240705490112" lon="120.40202331543">
        <ele>3398.52</ele>
        <time>2026-06-18T13:52:33</time>
      </trkpt>
      <trkpt lat="30.243406295776" lon="120.3786239624">
        <ele>3482.34</ele>
        <time>2026-06-18T13:52:48</time>
      </trkpt>
      <trkpt lat="30.246459960938" lon="120.35241699219">
        <ele>3543.3</ele>
        <time>2026-06-18T13:53:04</time>
      </trkpt>
      <trkpt lat="30.249319076538" lon="120.32765197754">
        <ele>3611.88</ele>
        <time>2026-06-18T13:53:18</time>
      </trkpt>
      <trkpt lat="30.253089904785" lon="120.30029296875">
        <ele>3726.18</ele>
        <time>2026-06-18T13:53:33</time>
      </trkpt>
      <trkpt lat="30.262399673462" lon="120.27562713623">
        <ele>3924.3</ele>
        <time>2026-06-18T13:53:48</time>
      </trkpt>
      <trkpt lat="30.2783203125" lon="120.2555770874">
        <ele>4061.46</ele>
        <time>2026-06-18T13:54:03</time>
      </trkpt>
      <trkpt lat="30.29993057251" lon="120.24057006836">
        <ele>4175.76</ele>
        <time>2026-06-18T13:54:18</time>
      </trkpt>
      <trkpt lat="30.3225440979" lon="120.22734069824">
        <ele>4312.92</ele>
        <time>2026-06-18T13:54:33</time>
      </trkpt>
      <trkpt lat="30.345336914062" lon="120.21579742432">
        <ele>4472.94</ele>
        <time>2026-06-18T13:54:48</time>
      </trkpt>
      <trkpt lat="30.368591308594" lon="120.20426940918">
        <ele>4617.72</ele>
        <time>2026-06-18T13:55:03</time>
      </trkpt>
      <trkpt lat="30.391910552979" lon="120.19268035889">
        <ele>4747.26</ele>
        <time>2026-06-18T13:55:18</time>
      </trkpt>
      <trkpt lat="30.415330886841" lon="120.1809463501">
        <ele>4853.94</ele>
        <time>2026-06-18T13:55:33</time>
      </trkpt>
      <trkpt lat="30.438539505005" lon="120.16925811768">
        <ele>4968.24</ele>
        <time>2026-06-18T13:55:48</time>
      </trkpt>
      <trkpt lat="30.461563110352" lon="120.15773773193">
        <ele>5074.92</ele>
        <time>2026-06-18T13:56:03</time>
      </trkpt>
      <trkpt lat="30.484588623047" lon="120.14454650879">
        <ele>5173.98</ele>
        <time>2026-06-18T13:56:18</time>
      </trkpt>
      <trkpt lat="30.50569152832" lon="120.12801361084">
        <ele>5288.28</ele>
        <time>2026-06-18T13:56:33</time>
      </trkpt>
      <trkpt lat="30.526519775391" lon="120.11040496826">
        <ele>5379.72</ele>
        <time>2026-06-18T13:56:48</time>
      </trkpt>
      <trkpt lat="30.546880722046" lon="120.09309387207">
        <ele>5394.96</ele>
        <time>2026-06-18T13:57:03</time>
      </trkpt>
      <trkpt lat="30.567176818848" lon="120.0758972168">
        <ele>5394.96</ele>
        <time>2026-06-18T13:57:18</time>
      </trkpt>
      <trkpt lat="30.588409423828" lon="120.05794525146">
        <ele>5394.96</ele>
        <time>2026-06-18T13:57:33</time>
      </trkpt>
      <trkpt lat="30.607730865479" lon="120.04151916504">
        <ele>5478.78</ele>
        <time>2026-06-18T13:57:48</time>
      </trkpt>
      <trkpt lat="30.627910614014" lon="120.02439880371">
        <ele>5692.14</ele>
        <time>2026-06-18T13:58:03</time>
      </trkpt>
      <trkpt lat="30.64771270752" lon="120.0076751709">
        <ele>5829.3</ele>
        <time>2026-06-18T13:58:18</time>
      </trkpt>
      <trkpt lat="30.666229248047" lon="119.99068450928">
        <ele>5951.22</ele>
        <time>2026-06-18T13:58:33</time>
      </trkpt>
      <trkpt lat="30.680648803711" lon="119.96752929688">
        <ele>6004.56</ele>
        <time>2026-06-18T13:58:48</time>
      </trkpt>
      <trkpt lat="30.69108581543" lon="119.94124603271">
        <ele>6012.18</ele>
        <time>2026-06-18T13:59:03</time>
      </trkpt>
      <trkpt lat="30.701065063477" lon="119.91415405273">
        <ele>6004.56</ele>
        <time>2026-06-18T13:59:18</time>
      </trkpt>
      <trkpt lat="30.710952758789" lon="119.88771057129">
        <ele>6019.8</ele>
        <time>2026-06-18T13:59:33</time>
      </trkpt>
      <trkpt lat="30.720798492432" lon="119.86144256592">
        <ele>6088.38</ele>
        <time>2026-06-18T13:59:47</time>
      </trkpt>
      <trkpt lat="30.731369018555" lon="119.83358764648">
        <ele>6156.96</ele>
        <time>2026-06-18T14:00:02</time>
      </trkpt>
      <trkpt lat="30.744634628296" lon="119.80815887451">
        <ele>6202.68</ele>
        <time>2026-06-18T14:00:17</time>
      </trkpt>
      <trkpt lat="30.764879226685" lon="119.78711700439">
        <ele>6263.64</ele>
        <time>2026-06-18T14:00:32</time>
      </trkpt>
      <trkpt lat="30.786529541016" lon="119.76854705811">
        <ele>6339.84</ele>
        <time>2026-06-18T14:00:47</time>
      </trkpt>
      <trkpt lat="30.806991577148" lon="119.75129699707">
        <ele>6446.52</ele>
        <time>2026-06-18T14:01:02</time>
      </trkpt>
      <trkpt lat="30.830337524414" lon="119.73143005371">
        <ele>6576.06</ele>
        <time>2026-06-18T14:01:16</time>
      </trkpt>
      <trkpt lat="30.853799819946" lon="119.71636962891">
        <ele>6614.16</ele>
        <time>2026-06-18T14:01:31</time>
      </trkpt>
      <trkpt lat="30.881559371948" lon="119.70874786377">
        <ele>6621.78</ele>
        <time>2026-06-18T14:01:50</time>
      </trkpt>
      <trkpt lat="30.908683776855" lon="119.70505523682">
        <ele>6614.16</ele>
        <time>2026-06-18T14:02:05</time>
      </trkpt>
      <trkpt lat="30.936309814453" lon="119.70164489746">
        <ele>6614.16</ele>
        <time>2026-06-18T14:02:20</time>
      </trkpt>
      <trkpt lat="30.963340759277" lon="119.69818878174">
        <ele>6614.16</ele>
        <time>2026-06-18T14:02:35</time>
      </trkpt>
      <trkpt lat="30.990600585938" lon="119.6947479248">
        <ele>6606.54</ele>
        <time>2026-06-18T14:02:50</time>
      </trkpt>
      <trkpt lat="31.017333984375" lon="119.69125366211">
        <ele>6614.16</ele>
        <time>2026-06-18T14:03:04</time>
      </trkpt>
      <trkpt lat="31.04443359375" lon="119.68769836426">
        <ele>6614.16</ele>
        <time>2026-06-18T14:03:19</time>
      </trkpt>
      <trkpt lat="31.071430206299" lon="119.68412780762">
        <ele>6614.16</ele>
        <time>2026-06-18T14:03:34</time>
      </trkpt>
      <trkpt lat="31.098756790161" lon="119.68055725098">
        <ele>6614.16</ele>
        <time>2026-06-18T14:03:49</time>
      </trkpt>
      <trkpt lat="31.127340316772" lon="119.67676544189">
        <ele>6614.16</ele>
        <time>2026-06-18T14:04:04</time>
      </trkpt>
      <trkpt lat="31.154806137085" lon="119.67308044434">
        <ele>6614.16</ele>
        <time>2026-06-18T14:04:19</time>
      </trkpt>
      <trkpt lat="31.181625366211" lon="119.66513061523">
        <ele>6614.16</ele>
        <time>2026-06-18T14:04:34</time>
      </trkpt>
      <trkpt lat="31.205749511719" lon="119.64908599854">
        <ele>6614.16</ele>
        <time>2026-06-18T14:04:48</time>
      </trkpt>
      <trkpt lat="31.228916168213" lon="119.62940979004">
        <ele>6614.16</ele>
        <time>2026-06-18T14:05:03</time>
      </trkpt>
      <trkpt lat="31.250610351562" lon="119.61052703857">
        <ele>6614.16</ele>
        <time>2026-06-18T14:05:18</time>
      </trkpt>
      <trkpt lat="31.272811889648" lon="119.59124755859">
        <ele>6614.16</ele>
        <time>2026-06-18T14:05:33</time>
      </trkpt>
      <trkpt lat="31.295379638672" lon="119.57169342041">
        <ele>6614.16</ele>
        <time>2026-06-18T14:05:48</time>
      </trkpt>
      <trkpt lat="31.316854476929" lon="119.55311584473">
        <ele>6614.16</ele>
        <time>2026-06-18T14:06:03</time>
      </trkpt>
      <trkpt lat="31.339153289795" lon="119.53372192383">
        <ele>6637.02</ele>
        <time>2026-06-18T14:06:17</time>
      </trkpt>
      <trkpt lat="31.361265182495" lon="119.51454925537">
        <ele>6751.32</ele>
        <time>2026-06-18T14:06:32</time>
      </trkpt>
      <trkpt lat="31.382766723633" lon="119.49591827393">
        <ele>6918.96</ele>
        <time>2026-06-18T14:06:47</time>
      </trkpt>
      <trkpt lat="31.40446472168" lon="119.4771270752">
        <ele>7071.36</ele>
        <time>2026-06-18T14:07:02</time>
      </trkpt>
      <trkpt lat="31.425289154053" lon="119.45897674561">
        <ele>7208.52</ele>
        <time>2026-06-18T14:07:17</time>
      </trkpt>
      <trkpt lat="31.446809768677" lon="119.44017791748">
        <ele>7284.72</ele>
        <time>2026-06-18T14:07:32</time>
      </trkpt>
      <trkpt lat="31.468231201172" lon="119.42149353027">
        <ele>7360.92</ele>
        <time>2026-06-18T14:07:47</time>
      </trkpt>
      <trkpt lat="31.490261077881" lon="119.40226745605">
        <ele>7437.12</ele>
        <time>2026-06-18T14:08:02</time>
      </trkpt>
      <trkpt lat="31.511535644531" lon="119.38379669189">
        <ele>7513.32</ele>
        <time>2026-06-18T14:08:17</time>
      </trkpt>
      <trkpt lat="31.5338306427" lon="119.36434936523">
        <ele>7559.04</ele>
        <time>2026-06-18T14:08:32</time>
      </trkpt>
      <trkpt lat="31.556318283081" lon="119.34475708008">
        <ele>7604.76</ele>
        <time>2026-06-18T14:08:47</time>
      </trkpt>
      <trkpt lat="31.578804016113" lon="119.32503509521">
        <ele>7650.48</ele>
        <time>2026-06-18T14:09:02</time>
      </trkpt>
      <trkpt lat="31.601760864258" lon="119.30474090576">
        <ele>7696.2</ele>
        <time>2026-06-18T14:09:17</time>
      </trkpt>
      <trkpt lat="31.624940872192" lon="119.28427886963">
        <ele>7741.92</ele>
        <time>2026-06-18T14:09:32</time>
      </trkpt>
      <trkpt lat="31.648212432861" lon="119.26367950439">
        <ele>7787.64</ele>
        <time>2026-06-18T14:09:47</time>
      </trkpt>
      <trkpt lat="31.671115875244" lon="119.24335479736">
        <ele>7802.88</ele>
        <time>2026-06-18T14:10:02</time>
      </trkpt>
      <trkpt lat="31.695417404175" lon="119.22138214111">
        <ele>7802.88</ele>
        <time>2026-06-18T14:10:17</time>
      </trkpt>
      <trkpt lat="31.718399047852" lon="119.19848632812">
        <ele>7802.88</ele>
        <time>2026-06-18T14:10:32</time>
      </trkpt>
      <trkpt lat="31.740005493164" lon="119.17618560791">
        <ele>7802.88</ele>
        <time>2026-06-18T14:10:47</time>
      </trkpt>
      <trkpt lat="31.762498855591" lon="119.15309906006">
        <ele>7802.88</ele>
        <time>2026-06-18T14:11:02</time>
      </trkpt>
      <trkpt lat="31.785495758057" lon="119.12969207764">
        <ele>7802.88</ele>
        <time>2026-06-18T14:11:17</time>
      </trkpt>
      <trkpt lat="31.806747436523" lon="119.10805511475">
        <ele>7802.88</ele>
        <time>2026-06-18T14:11:32</time>
      </trkpt>
      <trkpt lat="31.829441070557" lon="119.0849609375">
        <ele>7802.88</ele>
        <time>2026-06-18T14:11:47</time>
      </trkpt>
      <trkpt lat="31.852157592773" lon="119.06410980225">
        <ele>7802.88</ele>
        <time>2026-06-18T14:12:02</time>
      </trkpt>
      <trkpt lat="31.871109008789" lon="119.05015563965">
        <ele>7833.36</ele>
        <time>2026-06-18T14:12:16</time>
      </trkpt>
      <trkpt lat="31.898151397705" lon="119.03456878662">
        <ele>7886.7</ele>
        <time>2026-06-18T14:12:31</time>
      </trkpt>
      <trkpt lat="31.926176071167" lon="119.0216217041">
        <ele>7947.66</ele>
        <time>2026-06-18T14:12:46</time>
      </trkpt>
      <trkpt lat="31.954946517944" lon="119.00872802734">
        <ele>8008.62</ele>
        <time>2026-06-18T14:13:01</time>
      </trkpt>
      <trkpt lat="31.982669830322" lon="118.99626922607">
        <ele>8069.58</ele>
        <time>2026-06-18T14:13:16</time>
      </trkpt>
      <trkpt lat="32.010478973389" lon="118.98377990723">
        <ele>8145.78</ele>
        <time>2026-06-18T14:13:31</time>
      </trkpt>
      <trkpt lat="32.039157867432" lon="118.97094726562">
        <ele>8237.22</ele>
        <time>2026-06-18T14:13:46</time>
      </trkpt>
      <trkpt lat="32.066619873047" lon="118.95858764648">
        <ele>8298.18</ele>
        <time>2026-06-18T14:14:01</time>
      </trkpt>
      <trkpt lat="32.095230102539" lon="118.9457321167">
        <ele>8351.52</ele>
        <time>2026-06-18T14:14:16</time>
      </trkpt>
      <trkpt lat="32.124164581299" lon="118.93271636963">
        <ele>8397.24</ele>
        <time>2026-06-18T14:14:31</time>
      </trkpt>
      <trkpt lat="32.15251159668" lon="118.91999816895">
        <ele>8412.48</ele>
        <time>2026-06-18T14:14:46</time>
      </trkpt>
      <trkpt lat="32.181060791016" lon="118.90717315674">
        <ele>8412.48</ele>
        <time>2026-06-18T14:15:01</time>
      </trkpt>
      <trkpt lat="32.209758758545" lon="118.8942565918">
        <ele>8412.48</ele>
        <time>2026-06-18T14:15:16</time>
      </trkpt>
      <trkpt lat="32.238773345947" lon="118.88121032715">
        <ele>8412.48</ele>
        <time>2026-06-18T14:15:31</time>
      </trkpt>
      <trkpt lat="32.268768310547" lon="118.86767578125">
        <ele>8412.48</ele>
        <time>2026-06-18T14:15:46</time>
      </trkpt>
      <trkpt lat="32.298221588135" lon="118.85441589355">
        <ele>8412.48</ele>
        <time>2026-06-18T14:16:01</time>
      </trkpt>
      <trkpt lat="32.32661819458" lon="118.84157562256">
        <ele>8412.48</ele>
        <time>2026-06-18T14:16:16</time>
      </trkpt>
      <trkpt lat="32.355419158936" lon="118.82855987549">
        <ele>8412.48</ele>
        <time>2026-06-18T14:16:31</time>
      </trkpt>
      <trkpt lat="32.383972167969" lon="118.81568145752">
        <ele>8412.48</ele>
        <time>2026-06-18T14:16:46</time>
      </trkpt>
      <trkpt lat="32.413158416748" lon="118.8024520874">
        <ele>8412.48</ele>
        <time>2026-06-18T14:17:01</time>
      </trkpt>
      <trkpt lat="32.441757202148" lon="118.78950500488">
        <ele>8496.3</ele>
        <time>2026-06-18T14:17:16</time>
      </trkpt>
      <trkpt lat="32.470001220703" lon="118.77672576904">
        <ele>8564.88</ele>
        <time>2026-06-18T14:17:31</time>
      </trkpt>
      <trkpt lat="32.499095916748" lon="118.76349639893">
        <ele>8587.74</ele>
        <time>2026-06-18T14:17:46</time>
      </trkpt>
      <trkpt lat="32.528095245361" lon="118.75026702881">
        <ele>8618.22</ele>
        <time>2026-06-18T14:18:01</time>
      </trkpt>
      <trkpt lat="32.557750701904" lon="118.73681640625">
        <ele>8671.56</ele>
        <time>2026-06-18T14:18:16</time>
      </trkpt>
      <trkpt lat="32.588333129883" lon="118.7229309082">
        <ele>8747.76</ele>
        <time>2026-06-18T14:18:30</time>
      </trkpt>
      <trkpt lat="32.617244720459" lon="118.70985412598">
        <ele>8846.82</ele>
        <time>2026-06-18T14:18:45</time>
      </trkpt>
      <trkpt lat="32.646743774414" lon="118.69645690918">
        <ele>8945.88</ele>
        <time>2026-06-18T14:19:00</time>
      </trkpt>
      <trkpt lat="32.678134918213" lon="118.68216705322">
        <ele>9044.94</ele>
        <time>2026-06-18T14:19:15</time>
      </trkpt>
      <trkpt lat="32.707988739014" lon="118.66947937012">
        <ele>9128.76</ele>
        <time>2026-06-18T14:19:30</time>
      </trkpt>
      <trkpt lat="32.738185882568" lon="118.65856933594">
        <ele>9204.96</ele>
        <time>2026-06-18T14:19:45</time>
      </trkpt>
      <trkpt lat="32.769058227539" lon="118.64767456055">
        <ele>9296.4</ele>
        <time>2026-06-18T14:20:00</time>
      </trkpt>
      <trkpt lat="32.791809082031" lon="118.63954162598">
        <ele>9357.36</ele>
        <time>2026-06-18T14:20:14</time>
      </trkpt>
      <trkpt lat="32.821563720703" lon="118.62891387939">
        <ele>9433.56</ele>
        <time>2026-06-18T14:20:29</time>
      </trkpt>
      <trkpt lat="32.852424621582" lon="118.61787414551">
        <ele>9494.52</ele>
        <time>2026-06-18T14:20:44</time>
      </trkpt>
      <trkpt lat="32.882869720459" lon="118.60705566406">
        <ele>9578.34</ele>
        <time>2026-06-18T14:20:59</time>
      </trkpt>
      <trkpt lat="32.914031982422" lon="118.59593200684">
        <ele>9654.54</ele>
        <time>2026-06-18T14:21:14</time>
      </trkpt>
      <trkpt lat="32.945110321045" lon="118.58485412598">
        <ele>9745.98</ele>
        <time>2026-06-18T14:21:29</time>
      </trkpt>
      <trkpt lat="32.974685668945" lon="118.57428741455">
        <ele>9837.42</ele>
        <time>2026-06-18T14:21:44</time>
      </trkpt>
      <trkpt lat="33.008377075195" lon="118.56221008301">
        <ele>9936.48</ele>
        <time>2026-06-18T14:21:59</time>
      </trkpt>
      <trkpt lat="33.038078308105" lon="118.5516204834">
        <ele>10027.92</ele>
        <time>2026-06-18T14:22:14</time>
      </trkpt>
      <trkpt lat="33.070678710938" lon="118.53994750977">
        <ele>10142.22</ele>
        <time>2026-06-18T14:22:29</time>
      </trkpt>
      <trkpt lat="33.10120010376" lon="118.52896881104">
        <ele>10233.66</ele>
        <time>2026-06-18T14:22:44</time>
      </trkpt>
      <trkpt lat="33.133880615234" lon="118.51731109619">
        <ele>10309.86</ele>
        <time>2026-06-18T14:22:59</time>
      </trkpt>
      <trkpt lat="33.164428710938" lon="118.5062789917">
        <ele>10386.06</ele>
        <time>2026-06-18T14:23:14</time>
      </trkpt>
      <trkpt lat="33.19514465332" lon="118.49529266357">
        <ele>10500.36</ele>
        <time>2026-06-18T14:23:29</time>
      </trkpt>
      <trkpt lat="33.225124359131" lon="118.48458099365">
        <ele>10637.52</ele>
        <time>2026-06-18T14:23:44</time>
      </trkpt>
      <trkpt lat="33.255847930908" lon="118.47353363037">
        <ele>10767.06</ele>
        <time>2026-06-18T14:23:59</time>
      </trkpt>
      <trkpt lat="33.285369873047" lon="118.46293640137">
        <ele>10873.74</ele>
        <time>2026-06-18T14:24:14</time>
      </trkpt>
      <trkpt lat="33.314456939697" lon="118.45251464844">
        <ele>10965.18</ele>
        <time>2026-06-18T14:24:29</time>
      </trkpt>
      <trkpt lat="33.336730957031" lon="118.444480896">
        <ele>11003.28</ele>
        <time>2026-06-18T14:24:43</time>
      </trkpt>
      <trkpt lat="33.366989135742" lon="118.43354797363">
        <ele>11003.28</ele>
        <time>2026-06-18T14:24:57</time>
      </trkpt>
      <trkpt lat="33.396423339844" lon="118.42300415039">
        <ele>11003.28</ele>
        <time>2026-06-18T14:25:12</time>
      </trkpt>
      <trkpt lat="33.426773071289" lon="118.41212463379">
        <ele>11003.28</ele>
        <time>2026-06-18T14:25:27</time>
      </trkpt>
      <trkpt lat="33.455604553223" lon="118.40173339844">
        <ele>11003.28</ele>
        <time>2026-06-18T14:25:41</time>
      </trkpt>
      <trkpt lat="33.485000610352" lon="118.39109039307">
        <ele>11003.28</ele>
        <time>2026-06-18T14:25:56</time>
      </trkpt>
      <trkpt lat="33.514678955078" lon="118.38037872314">
        <ele>11003.28</ele>
        <time>2026-06-18T14:26:11</time>
      </trkpt>
      <trkpt lat="33.544380187988" lon="118.36961364746">
        <ele>11003.28</ele>
        <time>2026-06-18T14:26:26</time>
      </trkpt>
      <trkpt lat="33.573608398438" lon="118.3590927124">
        <ele>11003.28</ele>
        <time>2026-06-18T14:26:41</time>
      </trkpt>
      <trkpt lat="33.603221893311" lon="118.34838867188">
        <ele>11003.28</ele>
        <time>2026-06-18T14:26:56</time>
      </trkpt>
      <trkpt lat="33.634410858154" lon="118.337059021">
        <ele>11003.28</ele>
        <time>2026-06-18T14:27:11</time>
      </trkpt>
      <trkpt lat="33.664306640625" lon="118.32623291016">
        <ele>11003.28</ele>
        <time>2026-06-18T14:27:26</time>
      </trkpt>
      <trkpt lat="33.69348526001" lon="118.31565856934">
        <ele>11010.9</ele>
        <time>2026-06-18T14:27:41</time>
      </trkpt>
      <trkpt lat="33.72322845459" lon="118.3049621582">
        <ele>11003.28</ele>
        <time>2026-06-18T14:27:56</time>
      </trkpt>
      <trkpt lat="33.753211975098" lon="118.29402923584">
        <ele>11003.28</ele>
        <time>2026-06-18T14:28:11</time>
      </trkpt>
      <trkpt lat="33.781814575195" lon="118.28363037109">
        <ele>11003.28</ele>
        <time>2026-06-18T14:28:26</time>
      </trkpt>
      <trkpt lat="33.811157226562" lon="118.27297973633">
        <ele>11003.28</ele>
        <time>2026-06-18T14:28:41</time>
      </trkpt>
      <trkpt lat="33.840961456299" lon="118.26216125488">
        <ele>11003.28</ele>
        <time>2026-06-18T14:28:56</time>
      </trkpt>
      <trkpt lat="33.870941162109" lon="118.25128936768">
        <ele>11003.28</ele>
        <time>2026-06-18T14:29:11</time>
      </trkpt>
      <trkpt lat="33.89966583252" lon="118.24087524414">
        <ele>11003.28</ele>
        <time>2026-06-18T14:29:26</time>
      </trkpt>
      <trkpt lat="33.929397583008" lon="118.23015594482">
        <ele>11003.28</ele>
        <time>2026-06-18T14:29:41</time>
      </trkpt>
      <trkpt lat="33.958740234375" lon="118.21952819824">
        <ele>11003.28</ele>
        <time>2026-06-18T14:29:56</time>
      </trkpt>
      <trkpt lat="33.988681793213" lon="118.20863342285">
        <ele>11003.28</ele>
        <time>2026-06-18T14:30:11</time>
      </trkpt>
      <trkpt lat="34.018432617188" lon="118.19781494141">
        <ele>11003.28</ele>
        <time>2026-06-18T14:30:26</time>
      </trkpt>
      <trkpt lat="34.046489715576" lon="118.18765258789">
        <ele>11003.28</ele>
        <time>2026-06-18T14:30:41</time>
      </trkpt>
      <trkpt lat="34.077209472656" lon="118.17651367188">
        <ele>11003.28</ele>
        <time>2026-06-18T14:30:56</time>
      </trkpt>
      <trkpt lat="34.106090545654" lon="118.16609191895">
        <ele>11003.28</ele>
        <time>2026-06-18T14:31:11</time>
      </trkpt>
      <trkpt lat="34.135711669922" lon="118.15538024902">
        <ele>11003.28</ele>
        <time>2026-06-18T14:31:26</time>
      </trkpt>
      <trkpt lat="34.165649414062" lon="118.14450836182">
        <ele>11003.28</ele>
        <time>2026-06-18T14:31:41</time>
      </trkpt>
      <trkpt lat="34.195220947266" lon="118.13379669189">
        <ele>11003.28</ele>
        <time>2026-06-18T14:31:56</time>
      </trkpt>
      <trkpt lat="34.227680206299" lon="118.12209320068">
        <ele>11003.28</ele>
        <time>2026-06-18T14:32:15</time>
      </trkpt>
      <trkpt lat="34.256423950195" lon="118.11165618896">
        <ele>11003.28</ele>
        <time>2026-06-18T14:32:30</time>
      </trkpt>
      <trkpt lat="34.286468505859" lon="118.10067749023">
        <ele>11003.28</ele>
        <time>2026-06-18T14:32:45</time>
      </trkpt>
      <trkpt lat="34.31644821167" lon="118.08975219727">
        <ele>11003.28</ele>
        <time>2026-06-18T14:33:00</time>
      </trkpt>
      <trkpt lat="34.346328735352" lon="118.07910919189">
        <ele>11003.28</ele>
        <time>2026-06-18T14:33:15</time>
      </trkpt>
      <trkpt lat="34.375988006592" lon="118.0686340332">
        <ele>11003.28</ele>
        <time>2026-06-18T14:33:30</time>
      </trkpt>
      <trkpt lat="34.405361175537" lon="118.05822753906">
        <ele>11003.28</ele>
        <time>2026-06-18T14:33:45</time>
      </trkpt>
      <trkpt lat="34.436233520508" lon="118.04730987549">
        <ele>11003.28</ele>
        <time>2026-06-18T14:34:00</time>
      </trkpt>
      <trkpt lat="34.466262817383" lon="118.03660583496">
        <ele>11003.28</ele>
        <time>2026-06-18T14:34:15</time>
      </trkpt>
      <trkpt lat="34.496932983398" lon="118.0256729126">
        <ele>11003.28</ele>
        <time>2026-06-18T14:34:30</time>
      </trkpt>
      <trkpt lat="34.528911590576" lon="118.01428222656">
        <ele>11003.28</ele>
        <time>2026-06-18T14:34:45</time>
      </trkpt>
      <trkpt lat="34.55940246582" lon="118.00340270996">
        <ele>11003.28</ele>
        <time>2026-06-18T14:34:59</time>
      </trkpt>
      <trkpt lat="34.589012145996" lon="117.99287414551">
        <ele>11003.28</ele>
        <time>2026-06-18T14:35:14</time>
      </trkpt>
      <trkpt lat="34.619979858398" lon="117.98178863525">
        <ele>11003.28</ele>
        <time>2026-06-18T14:35:29</time>
      </trkpt>
      <trkpt lat="34.649917602539" lon="117.97107696533">
        <ele>11003.28</ele>
        <time>2026-06-18T14:35:44</time>
      </trkpt>
      <trkpt lat="34.680252075195" lon="117.96020507812">
        <ele>11003.28</ele>
        <time>2026-06-18T14:35:59</time>
      </trkpt>
      <trkpt lat="34.709629058838" lon="117.94967651367">
        <ele>11003.28</ele>
        <time>2026-06-18T14:36:14</time>
      </trkpt>
      <trkpt lat="34.740211486816" lon="117.9387512207">
        <ele>11003.28</ele>
        <time>2026-06-18T14:36:29</time>
      </trkpt>
      <trkpt lat="34.770610809326" lon="117.92781829834">
        <ele>11003.28</ele>
        <time>2026-06-18T14:36:44</time>
      </trkpt>
      <trkpt lat="34.801334381104" lon="117.91528320312">
        <ele>11003.28</ele>
        <time>2026-06-18T14:36:59</time>
      </trkpt>
      <trkpt lat="34.829132080078" lon="117.8981552124">
        <ele>11003.28</ele>
        <time>2026-06-18T14:37:14</time>
      </trkpt>
      <trkpt lat="34.855133056641" lon="117.87500762939">
        <ele>11003.28</ele>
        <time>2026-06-18T14:37:33</time>
      </trkpt>
      <trkpt lat="34.877288818359" lon="117.85106658936">
        <ele>11003.28</ele>
        <time>2026-06-18T14:37:48</time>
      </trkpt>
      <trkpt lat="34.899421691895" lon="117.82647705078">
        <ele>11003.28</ele>
        <time>2026-06-18T14:38:03</time>
      </trkpt>
      <trkpt lat="34.921531677246" lon="117.80198669434">
        <ele>11003.28</ele>
        <time>2026-06-18T14:38:18</time>
      </trkpt>
      <trkpt lat="34.943710327148" lon="117.77742004395">
        <ele>11003.28</ele>
        <time>2026-06-18T14:38:33</time>
      </trkpt>
      <trkpt lat="34.967712402344" lon="117.75077819824">
        <ele>11003.28</ele>
        <time>2026-06-18T14:38:48</time>
      </trkpt>
      <trkpt lat="34.989219665527" lon="117.72680664062">
        <ele>11003.28</ele>
        <time>2026-06-18T14:39:03</time>
      </trkpt>
      <trkpt lat="35.012260437012" lon="117.701171875">
        <ele>11003.28</ele>
        <time>2026-06-18T14:39:18</time>
      </trkpt>
      <trkpt lat="35.034561157227" lon="117.67639160156">
        <ele>11003.28</ele>
        <time>2026-06-18T14:39:33</time>
      </trkpt>
      <trkpt lat="35.056720733643" lon="117.65173339844">
        <ele>11003.28</ele>
        <time>2026-06-18T14:39:48</time>
      </trkpt>
      <trkpt lat="35.080787658691" lon="117.62483215332">
        <ele>11003.28</ele>
        <time>2026-06-18T14:40:03</time>
      </trkpt>
      <trkpt lat="35.103881835938" lon="117.59916687012">
        <ele>11003.28</ele>
        <time>2026-06-18T14:40:18</time>
      </trkpt>
      <trkpt lat="35.126594543457" lon="117.57368469238">
        <ele>11003.28</ele>
        <time>2026-06-18T14:40:33</time>
      </trkpt>
      <trkpt lat="35.149250030518" lon="117.54843902588">
        <ele>10988.04</ele>
        <time>2026-06-18T14:40:48</time>
      </trkpt>
      <trkpt lat="35.171768188477" lon="117.52326965332">
        <ele>10919.46</ele>
        <time>2026-06-18T14:41:03</time>
      </trkpt>
      <trkpt lat="35.193817138672" lon="117.4986114502">
        <ele>10843.26</ele>
        <time>2026-06-18T14:41:18</time>
      </trkpt>
      <trkpt lat="35.216491699219" lon="117.47327423096">
        <ele>10767.06</ele>
        <time>2026-06-18T14:41:33</time>
      </trkpt>
      <trkpt lat="35.241069793701" lon="117.44979858398">
        <ele>10690.86</ele>
        <time>2026-06-18T14:41:48</time>
      </trkpt>
      <trkpt lat="35.270351409912" lon="117.42958831787">
        <ele>10607.04</ele>
        <time>2026-06-18T14:42:03</time>
      </trkpt>
      <trkpt lat="35.299911499023" lon="117.41579437256">
        <ele>10500.36</ele>
        <time>2026-06-18T14:42:18</time>
      </trkpt>
      <trkpt lat="35.330108642578" lon="117.4056854248">
        <ele>10347.96</ele>
        <time>2026-06-18T14:42:33</time>
      </trkpt>
      <trkpt lat="35.361080169678" lon="117.39598846436">
        <ele>10203.18</ele>
        <time>2026-06-18T14:42:48</time>
      </trkpt>
      <trkpt lat="35.39094543457" lon="117.38662719727">
        <ele>10050.78</ele>
        <time>2026-06-18T14:43:03</time>
      </trkpt>
      <trkpt lat="35.42174911499" lon="117.37689971924">
        <ele>9898.38</ele>
        <time>2026-06-18T14:43:18</time>
      </trkpt>
      <trkpt lat="35.451530456543" lon="117.36740875244">
        <ele>9768.84</ele>
        <time>2026-06-18T14:43:33</time>
      </trkpt>
      <trkpt lat="35.482040405273" lon="117.35772705078">
        <ele>9631.68</ele>
        <time>2026-06-18T14:43:48</time>
      </trkpt>
      <trkpt lat="35.512699127197" lon="117.34795379639">
        <ele>9502.14</ele>
        <time>2026-06-18T14:44:03</time>
      </trkpt>
      <trkpt lat="35.541778564453" lon="117.33867645264">
        <ele>9380.22</ele>
        <time>2026-06-18T14:44:18</time>
      </trkpt>
      <trkpt lat="35.571681976318" lon="117.32925415039">
        <ele>9250.68</ele>
        <time>2026-06-18T14:44:33</time>
      </trkpt>
      <trkpt lat="35.601753234863" lon="117.31966400146">
        <ele>9121.14</ele>
        <time>2026-06-18T14:44:48</time>
      </trkpt>
      <trkpt lat="35.631874084473" lon="117.31008148193">
        <ele>8991.6</ele>
        <time>2026-06-18T14:45:03</time>
      </trkpt>
      <trkpt lat="35.660919189453" lon="117.30078887939">
        <ele>8862.06</ele>
        <time>2026-06-18T14:45:18</time>
      </trkpt>
      <trkpt lat="35.690437316895" lon="117.29138183594">
        <ele>8732.52</ele>
        <time>2026-06-18T14:45:33</time>
      </trkpt>
      <trkpt lat="35.719108581543" lon="117.28227233887">
        <ele>8648.7</ele>
        <time>2026-06-18T14:45:48</time>
      </trkpt>
      <trkpt lat="35.748641967773" lon="117.27275848389">
        <ele>8564.88</ele>
        <time>2026-06-18T14:46:03</time>
      </trkpt>
      <trkpt lat="35.772766113281" lon="117.26503753662">
        <ele>8503.92</ele>
        <time>2026-06-18T14:46:17</time>
      </trkpt>
      <trkpt lat="35.805793762207" lon="117.25450897217">
        <ele>8427.72</ele>
        <time>2026-06-18T14:46:32</time>
      </trkpt>
      <trkpt lat="35.83642578125" lon="117.24463653564">
        <ele>8412.48</ele>
        <time>2026-06-18T14:46:47</time>
      </trkpt>
      <trkpt lat="35.866638183594" lon="117.23499298096">
        <ele>8412.48</ele>
        <time>2026-06-18T14:47:02</time>
      </trkpt>
      <trkpt lat="35.897640228271" lon="117.22511291504">
        <ele>8412.48</ele>
        <time>2026-06-18T14:47:17</time>
      </trkpt>
      <trkpt lat="35.927108764648" lon="117.21564483643">
        <ele>8412.48</ele>
        <time>2026-06-18T14:47:32</time>
      </trkpt>
      <trkpt lat="35.956695556641" lon="117.20615386963">
        <ele>8412.48</ele>
        <time>2026-06-18T14:47:47</time>
      </trkpt>
      <trkpt lat="35.987812042236" lon="117.19606781006">
        <ele>8412.48</ele>
        <time>2026-06-18T14:48:02</time>
      </trkpt>
      <trkpt lat="36.017559051514" lon="117.18649291992">
        <ele>8412.48</ele>
        <time>2026-06-18T14:48:17</time>
      </trkpt>
      <trkpt lat="36.047870635986" lon="117.17672729492">
        <ele>8412.48</ele>
        <time>2026-06-18T14:48:32</time>
      </trkpt>
      <trkpt lat="36.07234954834" lon="117.16889953613">
        <ele>8412.48</ele>
        <time>2026-06-18T14:48:45</time>
      </trkpt>
      <trkpt lat="36.102172851562" lon="117.15923309326">
        <ele>8412.48</ele>
        <time>2026-06-18T14:49:00</time>
      </trkpt>
      <trkpt lat="36.132110595703" lon="117.14951324463">
        <ele>8412.48</ele>
        <time>2026-06-18T14:49:15</time>
      </trkpt>
      <trkpt lat="36.163269042969" lon="117.139503479">
        <ele>8412.48</ele>
        <time>2026-06-18T14:49:30</time>
      </trkpt>
      <trkpt lat="36.19282913208" lon="117.12998199463">
        <ele>8412.48</ele>
        <time>2026-06-18T14:49:45</time>
      </trkpt>
      <trkpt lat="36.221691131592" lon="117.12068939209">
        <ele>8412.48</ele>
        <time>2026-06-18T14:50:00</time>
      </trkpt>
      <trkpt lat="36.25080871582" lon="117.11128234863">
        <ele>8412.48</ele>
        <time>2026-06-18T14:50:15</time>
      </trkpt>
      <trkpt lat="36.279834747314" lon="117.10175323486">
        <ele>8412.48</ele>
        <time>2026-06-18T14:50:30</time>
      </trkpt>
      <trkpt lat="36.31086730957" lon="117.09153747559">
        <ele>8412.48</ele>
        <time>2026-06-18T14:50:45</time>
      </trkpt>
      <trkpt lat="36.340728759766" lon="117.08187866211">
        <ele>8412.48</ele>
        <time>2026-06-18T14:50:59</time>
      </trkpt>
      <trkpt lat="36.371841430664" lon="117.07180023193">
        <ele>8412.48</ele>
        <time>2026-06-18T14:51:14</time>
      </trkpt>
      <trkpt lat="36.402236938477" lon="117.06195831299">
        <ele>8412.48</ele>
        <time>2026-06-18T14:51:29</time>
      </trkpt>
      <trkpt lat="36.432998657227" lon="117.05200195312">
        <ele>8412.48</ele>
        <time>2026-06-18T14:51:44</time>
      </trkpt>
      <trkpt lat="36.463577270508" lon="117.04203033447">
        <ele>8412.48</ele>
        <time>2026-06-18T14:51:59</time>
      </trkpt>
      <trkpt lat="36.494300842285" lon="117.03204345703">
        <ele>8412.48</ele>
        <time>2026-06-18T14:52:13</time>
      </trkpt>
      <trkpt lat="36.525009155273" lon="117.02201843262">
        <ele>8412.48</ele>
        <time>2026-06-18T14:52:28</time>
      </trkpt>
      <trkpt lat="36.556354522705" lon="117.01175689697">
        <ele>8412.48</ele>
        <time>2026-06-18T14:52:43</time>
      </trkpt>
      <trkpt lat="36.5859375" lon="117.00210571289">
        <ele>8412.48</ele>
        <time>2026-06-18T14:52:58</time>
      </trkpt>
      <trkpt lat="36.617198944092" lon="116.99188995361">
        <ele>8412.48</ele>
        <time>2026-06-18T14:53:13</time>
      </trkpt>
      <trkpt lat="36.647918701172" lon="116.98184967041">
        <ele>8412.48</ele>
        <time>2026-06-18T14:53:28</time>
      </trkpt>
      <trkpt lat="36.678928375244" lon="116.97172546387">
        <ele>8412.48</ele>
        <time>2026-06-18T14:53:43</time>
      </trkpt>
      <trkpt lat="36.709465026855" lon="116.96167755127">
        <ele>8412.48</ele>
        <time>2026-06-18T14:53:58</time>
      </trkpt>
      <trkpt lat="36.740234375" lon="116.95150756836">
        <ele>8412.48</ele>
        <time>2026-06-18T14:54:13</time>
      </trkpt>
      <trkpt lat="36.772590637207" lon="116.94093322754">
        <ele>8412.48</ele>
        <time>2026-06-18T14:54:32</time>
      </trkpt>
      <trkpt lat="36.802989959717" lon="116.93099975586">
        <ele>8412.48</ele>
        <time>2026-06-18T14:54:47</time>
      </trkpt>
      <trkpt lat="36.83381652832" lon="116.92079162598">
        <ele>8412.48</ele>
        <time>2026-06-18T14:55:02</time>
      </trkpt>
      <trkpt lat="36.864017486572" lon="116.91088867188">
        <ele>8412.48</ele>
        <time>2026-06-18T14:55:17</time>
      </trkpt>
      <trkpt lat="36.894561767578" lon="116.90084075928">
        <ele>8412.48</ele>
        <time>2026-06-18T14:55:32</time>
      </trkpt>
      <trkpt lat="36.924160003662" lon="116.89112854004">
        <ele>8412.48</ele>
        <time>2026-06-18T14:55:47</time>
      </trkpt>
      <trkpt lat="36.953540802002" lon="116.88145446777">
        <ele>8412.48</ele>
        <time>2026-06-18T14:56:02</time>
      </trkpt>
      <trkpt lat="36.982635498047" lon="116.8717956543">
        <ele>8412.48</ele>
        <time>2026-06-18T14:56:17</time>
      </trkpt>
      <trkpt lat="37.012100219727" lon="116.86205291748">
        <ele>8412.48</ele>
        <time>2026-06-18T14:56:32</time>
      </trkpt>
      <trkpt lat="37.039581298828" lon="116.85292053223">
        <ele>8412.48</ele>
        <time>2026-06-18T14:56:47</time>
      </trkpt>
      <trkpt lat="37.067962646484" lon="116.84351348877">
        <ele>8412.48</ele>
        <time>2026-06-18T14:57:02</time>
      </trkpt>
      <trkpt lat="37.097076416016" lon="116.83386993408">
        <ele>8412.48</ele>
        <time>2026-06-18T14:57:17</time>
      </trkpt>
      <trkpt lat="37.125778198242" lon="116.82434844971">
        <ele>8412.48</ele>
        <time>2026-06-18T14:57:32</time>
      </trkpt>
      <trkpt lat="37.155250549316" lon="116.81452178955">
        <ele>8412.48</ele>
        <time>2026-06-18T14:57:47</time>
      </trkpt>
      <trkpt lat="37.184112548828" lon="116.8049697876">
        <ele>8412.48</ele>
        <time>2026-06-18T14:58:01</time>
      </trkpt>
      <trkpt lat="37.212509155273" lon="116.79553222656">
        <ele>8412.48</ele>
        <time>2026-06-18T14:58:16</time>
      </trkpt>
      <trkpt lat="37.242813110352" lon="116.78508758545">
        <ele>8412.48</ele>
        <time>2026-06-18T14:58:31</time>
      </trkpt>
      <trkpt lat="37.273178100586" lon="116.77326965332">
        <ele>8412.48</ele>
        <time>2026-06-18T14:58:46</time>
      </trkpt>
      <trkpt lat="37.303192138672" lon="116.7614440918">
        <ele>8412.48</ele>
        <time>2026-06-18T14:59:01</time>
      </trkpt>
      <trkpt lat="37.335453033447" lon="116.7490234375">
        <ele>8412.48</ele>
        <time>2026-06-18T14:59:16</time>
      </trkpt>
      <trkpt lat="37.365463256836" lon="116.73762512207">
        <ele>8412.48</ele>
        <time>2026-06-18T14:59:31</time>
      </trkpt>
      <trkpt lat="37.388809204102" lon="116.72868347168">
        <ele>8412.48</ele>
        <time>2026-06-18T14:59:44</time>
      </trkpt>
      <trkpt lat="37.418609619141" lon="116.71734619141">
        <ele>8343.9</ele>
        <time>2026-06-18T14:59:59</time>
      </trkpt>
      <trkpt lat="37.449508666992" lon="116.70687103271">
        <ele>8275.32</ele>
        <time>2026-06-18T15:00:13</time>
      </trkpt>
      <trkpt lat="37.482738494873" lon="116.69773101807">
        <ele>8191.5</ele>
        <time>2026-06-18T15:00:28</time>
      </trkpt>
      <trkpt lat="37.51314163208" lon="116.68961334229">
        <ele>8115.3</ele>
        <time>2026-06-18T15:00:43</time>
      </trkpt>
      <trkpt lat="37.53694152832" lon="116.68315887451">
        <ele>8054.34</ele>
        <time>2026-06-18T15:00:57</time>
      </trkpt>
      <trkpt lat="37.56916809082" lon="116.67440032959">
        <ele>7978.14</ele>
        <time>2026-06-18T15:01:12</time>
      </trkpt>
      <trkpt lat="37.599498748779" lon="116.6661529541">
        <ele>7901.94</ele>
        <time>2026-06-18T15:01:27</time>
      </trkpt>
      <trkpt lat="37.63037109375" lon="116.65779876709">
        <ele>7825.74</ele>
        <time>2026-06-18T15:01:42</time>
      </trkpt>
      <trkpt lat="37.660900115967" lon="116.64949798584">
        <ele>7749.54</ele>
        <time>2026-06-18T15:01:57</time>
      </trkpt>
      <trkpt lat="37.692554473877" lon="116.64089202881">
        <ele>7673.34</ele>
        <time>2026-06-18T15:02:12</time>
      </trkpt>
      <trkpt lat="37.722885131836" lon="116.6326675415">
        <ele>7597.14</ele>
        <time>2026-06-18T15:02:27</time>
      </trkpt>
      <trkpt lat="37.755386352539" lon="116.62384796143">
        <ele>7513.32</ele>
        <time>2026-06-18T15:02:42</time>
      </trkpt>
      <trkpt lat="37.785148620605" lon="116.61575317383">
        <ele>7444.74</ele>
        <time>2026-06-18T15:02:56</time>
      </trkpt>
      <trkpt lat="37.817779541016" lon="116.60684204102">
        <ele>7360.92</ele>
        <time>2026-06-18T15:03:16</time>
      </trkpt>
      <trkpt lat="37.847763061523" lon="116.59866333008">
        <ele>7284.72</ele>
        <time>2026-06-18T15:03:31</time>
      </trkpt>
      <trkpt lat="37.877136230469" lon="116.59061431885">
        <ele>7208.52</ele>
        <time>2026-06-18T15:03:46</time>
      </trkpt>
      <trkpt lat="37.908138275146" lon="116.58213806152">
        <ele>7132.32</ele>
        <time>2026-06-18T15:04:01</time>
      </trkpt>
      <trkpt lat="37.940307617188" lon="116.57335662842">
        <ele>7048.5</ele>
        <time>2026-06-18T15:04:16</time>
      </trkpt>
      <trkpt lat="37.970008850098" lon="116.56523895264">
        <ele>6972.3</ele>
        <time>2026-06-18T15:04:31</time>
      </trkpt>
      <trkpt lat="37.998962402344" lon="116.55735778809">
        <ele>6896.1</ele>
        <time>2026-06-18T15:04:46</time>
      </trkpt>
      <trkpt lat="38.02885055542" lon="116.54917907715">
        <ele>6827.52</ele>
        <time>2026-06-18T15:05:01</time>
      </trkpt>
      <trkpt lat="38.057830810547" lon="116.54121398926">
        <ele>6751.32</ele>
        <time>2026-06-18T15:05:16</time>
      </trkpt>
      <trkpt lat="38.088436126709" lon="116.53269958496">
        <ele>6675.12</ele>
        <time>2026-06-18T15:05:31</time>
      </trkpt>
      <trkpt lat="38.117477416992" lon="116.52468109131">
        <ele>6598.92</ele>
        <time>2026-06-18T15:05:45</time>
      </trkpt>
      <trkpt lat="38.149700164795" lon="116.51586151123">
        <ele>6515.1</ele>
        <time>2026-06-18T15:05:59</time>
      </trkpt>
      <trkpt lat="38.180191040039" lon="116.50743865967">
        <ele>6438.9</ele>
        <time>2026-06-18T15:06:14</time>
      </trkpt>
      <trkpt lat="38.209808349609" lon="116.49931335449">
        <ele>6362.7</ele>
        <time>2026-06-18T15:06:29</time>
      </trkpt>
      <trkpt lat="38.238521575928" lon="116.49143981934">
        <ele>6301.74</ele>
        <time>2026-06-18T15:06:44</time>
      </trkpt>
      <trkpt lat="38.26762008667" lon="116.48349761963">
        <ele>6195.06</ele>
        <time>2026-06-18T15:06:59</time>
      </trkpt>
      <trkpt lat="38.294815063477" lon="116.47605895996">
        <ele>6118.86</ele>
        <time>2026-06-18T15:07:14</time>
      </trkpt>
      <trkpt lat="38.322006225586" lon="116.46857452393">
        <ele>6012.18</ele>
        <time>2026-06-18T15:07:29</time>
      </trkpt>
      <trkpt lat="38.348152160645" lon="116.46141052246">
        <ele>5890.26</ele>
        <time>2026-06-18T15:07:44</time>
      </trkpt>
      <trkpt lat="38.37483215332" lon="116.4539642334">
        <ele>5775.96</ele>
        <time>2026-06-18T15:07:59</time>
      </trkpt>
      <trkpt lat="38.401218414307" lon="116.44666290283">
        <ele>5707.38</ele>
        <time>2026-06-18T15:08:14</time>
      </trkpt>
      <trkpt lat="38.428169250488" lon="116.43920898438">
        <ele>5631.18</ele>
        <time>2026-06-18T15:08:29</time>
      </trkpt>
      <trkpt lat="38.453659057617" lon="116.43221282959">
        <ele>5547.36</ele>
        <time>2026-06-18T15:08:44</time>
      </trkpt>
      <trkpt lat="38.479751586914" lon="116.42492675781">
        <ele>5471.16</ele>
        <time>2026-06-18T15:08:59</time>
      </trkpt>
      <trkpt lat="38.504608154297" lon="116.41802978516">
        <ele>5410.2</ele>
        <time>2026-06-18T15:09:14</time>
      </trkpt>
      <trkpt lat="38.530822753906" lon="116.41070556641">
        <ele>5394.96</ele>
        <time>2026-06-18T15:09:29</time>
      </trkpt>
      <trkpt lat="38.555679321289" lon="116.40368652344">
        <ele>5387.34</ele>
        <time>2026-06-18T15:09:44</time>
      </trkpt>
      <trkpt lat="38.580184936523" lon="116.39686584473">
        <ele>5394.96</ele>
        <time>2026-06-18T15:09:59</time>
      </trkpt>
      <trkpt lat="38.605121612549" lon="116.39069366455">
        <ele>5394.96</ele>
        <time>2026-06-18T15:10:14</time>
      </trkpt>
      <trkpt lat="38.631134033203" lon="116.39256286621">
        <ele>5394.96</ele>
        <time>2026-06-18T15:10:29</time>
      </trkpt>
      <trkpt lat="38.654190063477" lon="116.40582275391">
        <ele>5394.96</ele>
        <time>2026-06-18T15:10:44</time>
      </trkpt>
      <trkpt lat="38.672058105469" lon="116.42862701416">
        <ele>5394.96</ele>
        <time>2026-06-18T15:10:59</time>
      </trkpt>
      <trkpt lat="38.685653686523" lon="116.45490264893">
        <ele>5394.96</ele>
        <time>2026-06-18T15:11:14</time>
      </trkpt>
      <trkpt lat="38.699108123779" lon="116.48278045654">
        <ele>5394.96</ele>
        <time>2026-06-18T15:11:29</time>
      </trkpt>
      <trkpt lat="38.712341308594" lon="116.51024627686">
        <ele>5394.96</ele>
        <time>2026-06-18T15:11:44</time>
      </trkpt>
      <trkpt lat="38.725364685059" lon="116.53729248047">
        <ele>5394.96</ele>
        <time>2026-06-18T15:11:59</time>
      </trkpt>
      <trkpt lat="38.73876953125" lon="116.56494140625">
        <ele>5394.96</ele>
        <time>2026-06-18T15:12:14</time>
      </trkpt>
      <trkpt lat="38.753768920898" lon="116.59001922607">
        <ele>5394.96</ele>
        <time>2026-06-18T15:12:29</time>
      </trkpt>
      <trkpt lat="38.774139404297" lon="116.60858917236">
        <ele>5402.58</ele>
        <time>2026-06-18T15:12:44</time>
      </trkpt>
      <trkpt lat="38.791229248047" lon="116.62061309814">
        <ele>5394.96</ele>
        <time>2026-06-18T15:12:58</time>
      </trkpt>
      <trkpt lat="38.81364440918" lon="116.63533782959">
        <ele>5394.96</ele>
        <time>2026-06-18T15:13:13</time>
      </trkpt>
      <trkpt lat="38.836166381836" lon="116.65008544922">
        <ele>5394.96</ele>
        <time>2026-06-18T15:13:28</time>
      </trkpt>
      <trkpt lat="38.858322143555" lon="116.664894104">
        <ele>5394.96</ele>
        <time>2026-06-18T15:13:43</time>
      </trkpt>
      <trkpt lat="38.879058837891" lon="116.67880249023">
        <ele>5387.34</ele>
        <time>2026-06-18T15:13:58</time>
      </trkpt>
      <trkpt lat="38.900024414062" lon="116.69301605225">
        <ele>5394.96</ele>
        <time>2026-06-18T15:14:13</time>
      </trkpt>
      <trkpt lat="38.921489715576" lon="116.70745849609">
        <ele>5394.96</ele>
        <time>2026-06-18T15:14:28</time>
      </trkpt>
      <trkpt lat="38.942371368408" lon="116.72155761719">
        <ele>5394.96</ele>
        <time>2026-06-18T15:14:43</time>
      </trkpt>
      <trkpt lat="38.96337890625" lon="116.7357711792">
        <ele>5394.96</ele>
        <time>2026-06-18T15:14:57</time>
      </trkpt>
      <trkpt lat="38.98503112793" lon="116.75048828125">
        <ele>5394.96</ele>
        <time>2026-06-18T15:15:12</time>
      </trkpt>
      <trkpt lat="39.006454467773" lon="116.76496124268">
        <ele>5394.96</ele>
        <time>2026-06-18T15:15:27</time>
      </trkpt>
      <trkpt lat="39.027351379395" lon="116.77911376953">
        <ele>5394.96</ele>
        <time>2026-06-18T15:15:42</time>
      </trkpt>
      <trkpt lat="39.048248291016" lon="116.79326629639">
        <ele>5394.96</ele>
        <time>2026-06-18T15:15:57</time>
      </trkpt>
      <trkpt lat="39.069030761719" lon="116.80741882324">
        <ele>5394.96</ele>
        <time>2026-06-18T15:16:12</time>
      </trkpt>
      <trkpt lat="39.090728759766" lon="116.82216644287">
        <ele>5394.96</ele>
        <time>2026-06-18T15:16:27</time>
      </trkpt>
      <trkpt lat="39.111877441406" lon="116.8364944458">
        <ele>5394.96</ele>
        <time>2026-06-18T15:16:42</time>
      </trkpt>
      <trkpt lat="39.132934570312" lon="116.85088348389">
        <ele>5394.96</ele>
        <time>2026-06-18T15:16:57</time>
      </trkpt>
      <trkpt lat="39.15495300293" lon="116.86586761475">
        <ele>5394.96</ele>
        <time>2026-06-18T15:17:12</time>
      </trkpt>
      <trkpt lat="39.177520751953" lon="116.88121795654">
        <ele>5379.72</ele>
        <time>2026-06-18T15:17:27</time>
      </trkpt>
      <trkpt lat="39.200290679932" lon="116.89672851562">
        <ele>5303.52</ele>
        <time>2026-06-18T15:17:42</time>
      </trkpt>
      <trkpt lat="39.223068237305" lon="116.91220855713">
        <ele>5227.32</ele>
        <time>2026-06-18T15:17:57</time>
      </trkpt>
      <trkpt lat="39.244995117188" lon="116.92719268799">
        <ele>5151.12</ele>
        <time>2026-06-18T15:18:12</time>
      </trkpt>
      <trkpt lat="39.266490936279" lon="116.94183349609">
        <ele>5074.92</ele>
        <time>2026-06-18T15:18:27</time>
      </trkpt>
      <trkpt lat="39.288208007812" lon="116.95668792725">
        <ele>4998.72</ele>
        <time>2026-06-18T15:18:42</time>
      </trkpt>
      <trkpt lat="39.30940246582" lon="116.97125244141">
        <ele>4922.52</ele>
        <time>2026-06-18T15:18:57</time>
      </trkpt>
      <trkpt lat="39.330413818359" lon="116.98558807373">
        <ele>4846.32</ele>
        <time>2026-06-18T15:19:12</time>
      </trkpt>
      <trkpt lat="39.351928710938" lon="117.0002746582">
        <ele>4792.98</ele>
        <time>2026-06-18T15:19:27</time>
      </trkpt>
      <trkpt lat="39.372211456299" lon="117.01154327393">
        <ele>4785.36</ele>
        <time>2026-06-18T15:19:42</time>
      </trkpt>
      <trkpt lat="39.395202636719" lon="117.01470947266">
        <ele>4785.36</ele>
        <time>2026-06-18T15:19:57</time>
      </trkpt>
      <trkpt lat="39.409606933594" lon="117.01149749756">
        <ele>4770.12</ele>
        <time>2026-06-18T15:20:08</time>
      </trkpt>
      <trkpt lat="39.431140899658" lon="117.00305175781">
        <ele>4701.54</ele>
        <time>2026-06-18T15:20:22</time>
      </trkpt>
      <trkpt lat="39.452278137207" lon="116.99340820312">
        <ele>4617.72</ele>
        <time>2026-06-18T15:20:37</time>
      </trkpt>
      <trkpt lat="39.472961425781" lon="116.98391723633">
        <ele>4518.66</ele>
        <time>2026-06-18T15:20:52</time>
      </trkpt>
      <trkpt lat="39.486446380615" lon="116.97772216797">
        <ele>4450.08</ele>
        <time>2026-06-18T15:21:03</time>
      </trkpt>
      <trkpt lat="39.507431030273" lon="116.96826934814">
        <ele>4351.02</ele>
        <time>2026-06-18T15:21:17</time>
      </trkpt>
      <trkpt lat="39.527801513672" lon="116.95913696289">
        <ele>4251.96</ele>
        <time>2026-06-18T15:21:32</time>
      </trkpt>
      <trkpt lat="39.548309326172" lon="116.94988250732">
        <ele>4168.14</ele>
        <time>2026-06-18T15:21:47</time>
      </trkpt>
      <trkpt lat="39.569961547852" lon="116.94019317627">
        <ele>4107.18</ele>
        <time>2026-06-18T15:22:02</time>
      </trkpt>
      <trkpt lat="39.590396881104" lon="116.93096923828">
        <ele>4053.84</ele>
        <time>2026-06-18T15:22:17</time>
      </trkpt>
      <trkpt lat="39.609111785889" lon="116.92309570312">
        <ele>4008.12</ele>
        <time>2026-06-18T15:22:32</time>
      </trkpt>
      <trkpt lat="39.628509521484" lon="116.9185333252">
        <ele>3962.4</ele>
        <time>2026-06-18T15:22:46</time>
      </trkpt>
      <trkpt lat="39.647468566895" lon="116.91546630859">
        <ele>3916.68</ele>
        <time>2026-06-18T15:23:01</time>
      </trkpt>
      <trkpt lat="39.666408538818" lon="116.91262054443">
        <ele>3878.58</ele>
        <time>2026-06-18T15:23:16</time>
      </trkpt>
      <trkpt lat="39.684059143066" lon="116.91002655029">
        <ele>3832.86</ele>
        <time>2026-06-18T15:23:31</time>
      </trkpt>
      <trkpt lat="39.702713012695" lon="116.90718841553">
        <ele>3779.52</ele>
        <time>2026-06-18T15:23:46</time>
      </trkpt>
      <trkpt lat="39.719161987305" lon="116.90472412109">
        <ele>3718.56</ele>
        <time>2026-06-18T15:24:01</time>
      </trkpt>
      <trkpt lat="39.735080718994" lon="116.90235137939">
        <ele>3665.22</ele>
        <time>2026-06-18T15:24:16</time>
      </trkpt>
      <trkpt lat="39.751792907715" lon="116.89984130859">
        <ele>3581.4</ele>
        <time>2026-06-18T15:24:31</time>
      </trkpt>
      <trkpt lat="39.766708374023" lon="116.89763641357">
        <ele>3489.96</ele>
        <time>2026-06-18T15:24:46</time>
      </trkpt>
      <trkpt lat="39.782890319824" lon="116.89514160156">
        <ele>3368.04</ele>
        <time>2026-06-18T15:25:01</time>
      </trkpt>
      <trkpt lat="39.798625946045" lon="116.89276123047">
        <ele>3246.12</ele>
        <time>2026-06-18T15:25:16</time>
      </trkpt>
      <trkpt lat="39.814453125" lon="116.8903503418">
        <ele>3131.82</ele>
        <time>2026-06-18T15:25:31</time>
      </trkpt>
      <trkpt lat="39.830429077148" lon="116.88790130615">
        <ele>3025.14</ele>
        <time>2026-06-18T15:25:46</time>
      </trkpt>
      <trkpt lat="39.846946716309" lon="116.88537597656">
        <ele>2926.08</ele>
        <time>2026-06-18T15:26:01</time>
      </trkpt>
      <trkpt lat="39.862014770508" lon="116.88312530518">
        <ele>2819.4</ele>
        <time>2026-06-18T15:26:16</time>
      </trkpt>
      <trkpt lat="39.877861022949" lon="116.88067626953">
        <ele>2735.58</ele>
        <time>2026-06-18T15:26:31</time>
      </trkpt>
      <trkpt lat="39.893497467041" lon="116.87805175781">
        <ele>2659.38</ele>
        <time>2026-06-18T15:26:46</time>
      </trkpt>
      <trkpt lat="39.908813476562" lon="116.87530517578">
        <ele>2575.56</ele>
        <time>2026-06-18T15:27:01</time>
      </trkpt>
      <trkpt lat="39.924175262451" lon="116.87261962891">
        <ele>2491.74</ele>
        <time>2026-06-18T15:27:16</time>
      </trkpt>
      <trkpt lat="39.939651489258" lon="116.87017822266">
        <ele>2476.5</ele>
        <time>2026-06-18T15:27:31</time>
      </trkpt>
      <trkpt lat="39.95499420166" lon="116.86781311035">
        <ele>2476.5</ele>
        <time>2026-06-18T15:27:46</time>
      </trkpt>
      <trkpt lat="39.971099853516" lon="116.8653793335">
        <ele>2476.5</ele>
        <time>2026-06-18T15:28:06</time>
      </trkpt>
      <trkpt lat="39.985660552979" lon="116.86315917969">
        <ele>2476.5</ele>
        <time>2026-06-18T15:28:21</time>
      </trkpt>
      <trkpt lat="40.000522613525" lon="116.86082458496">
        <ele>2476.5</ele>
        <time>2026-06-18T15:28:36</time>
      </trkpt>
      <trkpt lat="40.014999389648" lon="116.8583984375">
        <ele>2476.5</ele>
        <time>2026-06-18T15:28:51</time>
      </trkpt>
      <trkpt lat="40.028221130371" lon="116.85027313232">
        <ele>2476.5</ele>
        <time>2026-06-18T15:29:06</time>
      </trkpt>
      <trkpt lat="40.035343170166" lon="116.833984375">
        <ele>2476.5</ele>
        <time>2026-06-18T15:29:21</time>
      </trkpt>
      <trkpt lat="40.033714294434" lon="116.81619262695">
        <ele>2476.5</ele>
        <time>2026-06-18T15:29:36</time>
      </trkpt>
      <trkpt lat="40.023986816406" lon="116.80264282227">
        <ele>2446.02</ele>
        <time>2026-06-18T15:29:51</time>
      </trkpt>
      <trkpt lat="40.011135101318" lon="116.79690551758">
        <ele>2369.82</ele>
        <time>2026-06-18T15:30:06</time>
      </trkpt>
      <trkpt lat="39.997589111328" lon="116.79322052002">
        <ele>2301.24</ele>
        <time>2026-06-18T15:30:21</time>
      </trkpt>
      <trkpt lat="39.983951568604" lon="116.78972625732">
        <ele>2247.9</ele>
        <time>2026-06-18T15:30:36</time>
      </trkpt>
      <trkpt lat="39.970092773438" lon="116.78631591797">
        <ele>2194.56</ele>
        <time>2026-06-18T15:30:51</time>
      </trkpt>
      <trkpt lat="39.956909179688" lon="116.78308105469">
        <ele>2171.7</ele>
        <time>2026-06-18T15:31:06</time>
      </trkpt>
      <trkpt lat="39.943500518799" lon="116.77980041504">
        <ele>2171.7</ele>
        <time>2026-06-18T15:31:21</time>
      </trkpt>
      <trkpt lat="39.930183410645" lon="116.77655029297">
        <ele>2103.12</ele>
        <time>2026-06-18T15:31:36</time>
      </trkpt>
      <trkpt lat="39.917007446289" lon="116.77337646484">
        <ele>2026.92</ele>
        <time>2026-06-18T15:31:51</time>
      </trkpt>
      <trkpt lat="39.903991699219" lon="116.77027893066">
        <ele>1958.34</ele>
        <time>2026-06-18T15:32:06</time>
      </trkpt>
      <trkpt lat="39.891220092773" lon="116.7672958374">
        <ele>1897.38</ele>
        <time>2026-06-18T15:32:21</time>
      </trkpt>
      <trkpt lat="39.878044128418" lon="116.76440429688">
        <ele>1836.42</ele>
        <time>2026-06-18T15:32:36</time>
      </trkpt>
      <trkpt lat="39.865169525146" lon="116.76174163818">
        <ele>1767.84</ele>
        <time>2026-06-18T15:32:51</time>
      </trkpt>
      <trkpt lat="39.852577209473" lon="116.75933837891">
        <ele>1699.26</ele>
        <time>2026-06-18T15:33:06</time>
      </trkpt>
      <trkpt lat="39.839401245117" lon="116.7564239502">
        <ele>1623.06</ele>
        <time>2026-06-18T15:33:21</time>
      </trkpt>
      <trkpt lat="39.828231811523" lon="116.74743652344">
        <ele>1524.0</ele>
        <time>2026-06-18T15:33:36</time>
      </trkpt>
      <trkpt lat="39.821575164795" lon="116.73284912109">
        <ele>1432.56</ele>
        <time>2026-06-18T15:33:51</time>
      </trkpt>
      <trkpt lat="39.815761566162" lon="116.71746826172">
        <ele>1310.64</ele>
        <time>2026-06-18T15:34:06</time>
      </trkpt>
      <trkpt lat="39.810195922852" lon="116.70245361328">
        <ele>1257.3</ele>
        <time>2026-06-18T15:34:21</time>
      </trkpt>
      <trkpt lat="39.804702758789" lon="116.68728637695">
        <ele>1257.3</ele>
        <time>2026-06-18T15:34:36</time>
      </trkpt>
      <trkpt lat="39.800769805908" lon="116.67125701904">
        <ele>1211.58</ele>
        <time>2026-06-18T15:34:50</time>
      </trkpt>
      <trkpt lat="39.801231384277" lon="116.6547164917">
        <ele>1158.24</ele>
        <time>2026-06-18T15:35:04</time>
      </trkpt>
      <trkpt lat="39.809230804443" lon="116.64106750488">
        <ele>1127.76</ele>
        <time>2026-06-18T15:35:19</time>
      </trkpt>
      <trkpt lat="39.820404052734" lon="116.63062286377">
        <ele>1089.66</ele>
        <time>2026-06-18T15:35:34</time>
      </trkpt>
      <trkpt lat="39.831893920898" lon="116.62065124512">
        <ele>1051.56</ele>
        <time>2026-06-18T15:35:49</time>
      </trkpt>
      <trkpt lat="39.843826293945" lon="116.61206054688">
        <ele>1005.84</ele>
        <time>2026-06-18T15:36:04</time>
      </trkpt>
      <trkpt lat="39.857528686523" lon="116.60823059082">
        <ele>982.98</ele>
        <time>2026-06-18T15:36:19</time>
      </trkpt>
      <trkpt lat="39.872085571289" lon="116.60595703125">
        <ele>982.98</ele>
        <time>2026-06-18T15:36:34</time>
      </trkpt>
      <trkpt lat="39.885772705078" lon="116.60369110107">
        <ele>982.98</ele>
        <time>2026-06-18T15:36:49</time>
      </trkpt>
      <trkpt lat="39.899688720703" lon="116.60148620605">
        <ele>982.98</ele>
        <time>2026-06-18T15:37:04</time>
      </trkpt>
      <trkpt lat="39.913238525391" lon="116.5993347168">
        <ele>982.98</ele>
        <time>2026-06-18T15:37:19</time>
      </trkpt>
      <trkpt lat="39.927852630615" lon="116.59702301025">
        <ele>960.12</ele>
        <time>2026-06-18T15:37:39</time>
      </trkpt>
      <trkpt lat="39.940799713135" lon="116.59503173828">
        <ele>861.06</ele>
        <time>2026-06-18T15:37:54</time>
      </trkpt>
      <trkpt lat="39.953521728516" lon="116.59307861328">
        <ele>800.1</ele>
        <time>2026-06-18T15:38:09</time>
      </trkpt>
      <trkpt lat="39.966247558594" lon="116.59100341797">
        <ele>723.9</ele>
        <time>2026-06-18T15:38:24</time>
      </trkpt>
      <trkpt lat="39.978271484375" lon="116.58916473389">
        <ele>655.32</ele>
        <time>2026-06-18T15:38:39</time>
      </trkpt>
      <trkpt lat="39.989490509033" lon="116.58734893799">
        <ele>586.74</ele>
        <time>2026-06-18T15:38:54</time>
      </trkpt>
      <trkpt lat="40.00061416626" lon="116.58560180664">
        <ele>525.78</ele>
        <time>2026-06-18T15:39:09</time>
      </trkpt>
      <trkpt lat="40.011367797852" lon="116.58391571045">
        <ele>464.82</ele>
        <time>2026-06-18T15:39:22</time>
      </trkpt>
      <trkpt lat="40.022323608398" lon="116.58221435547">
        <ele>403.86</ele>
        <time>2026-06-18T15:39:37</time>
      </trkpt>
      <trkpt lat="40.0341796875" lon="116.5803604126">
        <ele>342.9</ele>
        <time>2026-06-18T15:39:52</time>
      </trkpt>
      <trkpt lat="40.045166015625" lon="116.57861328125">
        <ele>342.9</ele>
        <time>2026-06-18T15:40:07</time>
      </trkpt>
      <trkpt lat="40.057178497314" lon="116.5767364502">
        <ele>213.36</ele>
        <time>2026-06-18T15:40:28</time>
      </trkpt>
      <trkpt lat="40.066360473633" lon="116.57525634766">
        <ele>160.02</ele>
        <time>2026-06-18T15:40:42</time>
      </trkpt>
      <trkpt lat="40.093078613281" lon="116.57341766357">
        <ele>0.0</ele>
        <time>2026-06-18T15:42:22</time>
      </trkpt>
      <trkpt lat="40.092658996582" lon="116.5733795166">
        <ele>0.0</ele>
        <time>2026-06-18T15:42:36</time>
      </trkpt>
      <trkpt lat="40.088489532471" lon="116.57402038574">
        <ele>0.0</ele>
        <time>2026-06-18T15:43:41</time>
      </trkpt>
      <trkpt lat="40.087120056152" lon="116.57424926758">
        <ele>0.0</ele>
        <time>2026-06-18T15:43:54</time>
      </trkpt>
      <trkpt lat="40.083339691162" lon="116.5793762207">
        <ele>0.0</ele>
        <time>2026-06-18T15:45:58</time>
      </trkpt>
      <trkpt lat="40.083560943604" lon="116.58173370361">
        <ele>0.0</ele>
        <time>2026-06-18T15:46:21</time>
      </trkpt>
      <trkpt lat="40.084358215332" lon="116.59042358398">
        <ele>0.0</ele>
        <time>2026-06-18T15:47:41</time>
      </trkpt>
      <trkpt lat="40.08443069458" lon="116.59114074707">
        <ele>0.0</ele>
        <time>2026-06-18T15:47:52</time>
      </trkpt>
      <trkpt lat="40.078899383545" lon="116.59034729004">
        <ele>0.0</ele>
        <time>2026-06-18T15:50:38</time>
      </trkpt>
      <trkpt lat="40.07884979248" lon="116.58968353271">
        <ele>0.0</ele>
        <time>2026-06-18T15:51:17</time>
      </trkpt>
      <trkpt lat="40.078830718994" lon="116.58963012695">
        <ele>0.0</ele>
        <time>2026-06-18T15:51:43</time>
      </trkpt>
    </trkseg>
  </trk>
</gpx>