<?xml version="1.0" encoding="UTF-8"?>
<gpx xmlns="http://www.topografix.com/GPX/1/1" xmlns:xsi="http://www.w3.org/2001/XMLSchema-instance" xsi:schemaLocation="http://www.topografix.com/GPX/1/1 http://www.topografix.com/GPX/1/1/gpx.xsd" version="1.1" creator="gpx.py -- https://github.com/tkrajina/gpxpy">
  <trk>
    <name>Variflight_G52846_20260617.csv</name>
    <trkseg>
      <trkpt lat="28.527189254761" lon="117.94361877441">
        <ele>2987.04</ele>
        <time>2026-06-17T01:11:11</time>
      </trkpt>
      <trkpt lat="28.544620513916" lon="117.90203857422">
        <ele>3002.28</ele>
        <time>2026-06-17T01:11:40</time>
      </trkpt>
      <trkpt lat="28.553979873657" lon="117.87991333008">
        <ele>3154.68</ele>
        <time>2026-06-17T01:11:54</time>
      </trkpt>
      <trkpt lat="28.560400009155" lon="117.86456298828">
        <ele>3345.18</ele>
        <time>2026-06-17T01:12:08</time>
      </trkpt>
      <trkpt lat="28.570310592651" lon="117.84464263916">
        <ele>3573.78</ele>
        <time>2026-06-17T01:12:22</time>
      </trkpt>
      <trkpt lat="28.587919235229" lon="117.82433319092">
        <ele>3779.52</ele>
        <time>2026-06-17T01:12:37</time>
      </trkpt>
      <trkpt lat="28.608209609985" lon="117.80661010742">
        <ele>3939.54</ele>
        <time>2026-06-17T01:12:57</time>
      </trkpt>
      <trkpt lat="28.630319595337" lon="117.78771209717">
        <ele>4130.04</ele>
        <time>2026-06-17T01:13:12</time>
      </trkpt>
      <trkpt lat="28.659889221191" lon="117.76261138916">
        <ele>4366.26</ele>
        <time>2026-06-17T01:13:36</time>
      </trkpt>
      <trkpt lat="28.686769485474" lon="117.73969268799">
        <ele>4617.72</ele>
        <time>2026-06-17T01:13:59</time>
      </trkpt>
      <trkpt lat="28.727249145508" lon="117.70498657227">
        <ele>4991.1</ele>
        <time>2026-06-17T01:14:27</time>
      </trkpt>
      <trkpt lat="28.748329162598" lon="117.68699645996">
        <ele>5166.36</ele>
        <time>2026-06-17T01:14:42</time>
      </trkpt>
      <trkpt lat="28.771419525146" lon="117.66718292236">
        <ele>5379.72</ele>
        <time>2026-06-17T01:15:00</time>
      </trkpt>
      <trkpt lat="28.798419952393" lon="117.64408111572">
        <ele>5585.46</ele>
        <time>2026-06-17T01:15:19</time>
      </trkpt>
      <trkpt lat="28.820430755615" lon="117.62522888184">
        <ele>5684.52</ele>
        <time>2026-06-17T01:15:34</time>
      </trkpt>
      <trkpt lat="28.837110519409" lon="117.61084747314">
        <ele>5699.76</ele>
        <time>2026-06-17T01:15:49</time>
      </trkpt>
      <trkpt lat="28.860759735107" lon="117.59057617188">
        <ele>5699.76</ele>
        <time>2026-06-17T01:16:04</time>
      </trkpt>
      <trkpt lat="28.88245010376" lon="117.57196807861">
        <ele>5699.76</ele>
        <time>2026-06-17T01:16:19</time>
      </trkpt>
      <trkpt lat="28.905529022217" lon="117.55207061768">
        <ele>5699.76</ele>
        <time>2026-06-17T01:16:39</time>
      </trkpt>
      <trkpt lat="28.930589675903" lon="117.5305480957">
        <ele>5699.76</ele>
        <time>2026-06-17T01:16:54</time>
      </trkpt>
      <trkpt lat="28.951219558716" lon="117.5128326416">
        <ele>5707.38</ele>
        <time>2026-06-17T01:17:09</time>
      </trkpt>
      <trkpt lat="28.970710754395" lon="117.49609375">
        <ele>5806.44</ele>
        <time>2026-06-17T01:17:24</time>
      </trkpt>
      <trkpt lat="28.994129180908" lon="117.47593688965">
        <ele>5935.98</ele>
        <time>2026-06-17T01:17:39</time>
      </trkpt>
      <trkpt lat="29.010520935059" lon="117.46199798584">
        <ele>6027.42</ele>
        <time>2026-06-17T01:17:54</time>
      </trkpt>
      <trkpt lat="29.031372070312" lon="117.44438934326">
        <ele>6141.72</ele>
        <time>2026-06-17T01:18:09</time>
      </trkpt>
      <trkpt lat="29.057601928711" lon="117.43027496338">
        <ele>6256.02</ele>
        <time>2026-06-17T01:18:24</time>
      </trkpt>
      <trkpt lat="29.085750579834" lon="117.42678833008">
        <ele>6301.74</ele>
        <time>2026-06-17T01:18:39</time>
      </trkpt>
      <trkpt lat="29.114374160767" lon="117.4334564209">
        <ele>6316.98</ele>
        <time>2026-06-17T01:18:54</time>
      </trkpt>
      <trkpt lat="29.143703460693" lon="117.44368743896">
        <ele>6309.36</ele>
        <time>2026-06-17T01:19:09</time>
      </trkpt>
      <trkpt lat="29.185129165649" lon="117.45858001709">
        <ele>6309.36</ele>
        <time>2026-06-17T01:19:34</time>
      </trkpt>
      <trkpt lat="29.212320327759" lon="117.46840667725">
        <ele>6309.36</ele>
        <time>2026-06-17T01:19:49</time>
      </trkpt>
      <trkpt lat="29.246440887451" lon="117.48062896729">
        <ele>6309.36</ele>
        <time>2026-06-17T01:20:09</time>
      </trkpt>
      <trkpt lat="29.273250579834" lon="117.49028015137">
        <ele>6309.36</ele>
        <time>2026-06-17T01:20:24</time>
      </trkpt>
      <trkpt lat="29.303009033203" lon="117.50093841553">
        <ele>6309.36</ele>
        <time>2026-06-17T01:20:39</time>
      </trkpt>
      <trkpt lat="29.328830718994" lon="117.51389312744">
        <ele>6309.36</ele>
        <time>2026-06-17T01:20:54</time>
      </trkpt>
      <trkpt lat="29.346250534058" lon="117.53022766113">
        <ele>6309.36</ele>
        <time>2026-06-17T01:21:09</time>
      </trkpt>
      <trkpt lat="29.364500045776" lon="117.56205749512">
        <ele>6309.36</ele>
        <time>2026-06-17T01:21:24</time>
      </trkpt>
      <trkpt lat="29.381790161133" lon="117.60584259033">
        <ele>6309.36</ele>
        <time>2026-06-17T01:21:47</time>
      </trkpt>
      <trkpt lat="29.39794921875" lon="117.64798736572">
        <ele>6309.36</ele>
        <time>2026-06-17T01:22:08</time>
      </trkpt>
      <trkpt lat="29.414060592651" lon="117.69008636475">
        <ele>6309.36</ele>
        <time>2026-06-17T01:22:32</time>
      </trkpt>
      <trkpt lat="29.432279586792" lon="117.73761749268">
        <ele>6309.36</ele>
        <time>2026-06-17T01:22:57</time>
      </trkpt>
      <trkpt lat="29.453229904175" lon="117.79244995117">
        <ele>6362.7</ele>
        <time>2026-06-17T01:23:21</time>
      </trkpt>
      <trkpt lat="29.465650558472" lon="117.82504272461">
        <ele>6484.62</ele>
        <time>2026-06-17T01:23:41</time>
      </trkpt>
      <trkpt lat="29.483730316162" lon="117.87252807617">
        <ele>6667.5</ele>
        <time>2026-06-17T01:24:01</time>
      </trkpt>
      <trkpt lat="29.495920181274" lon="117.90463256836">
        <ele>6789.42</ele>
        <time>2026-06-17T01:24:20</time>
      </trkpt>
      <trkpt lat="29.516370773315" lon="117.95851135254">
        <ele>6888.48</ele>
        <time>2026-06-17T01:24:45</time>
      </trkpt>
      <trkpt lat="29.528409957886" lon="117.99019622803">
        <ele>6888.48</ele>
        <time>2026-06-17T01:24:58</time>
      </trkpt>
      <trkpt lat="29.539720535278" lon="118.01654052734">
        <ele>6888.48</ele>
        <time>2026-06-17T01:25:13</time>
      </trkpt>
      <trkpt lat="29.555419921875" lon="118.04132843018">
        <ele>6888.48</ele>
        <time>2026-06-17T01:25:28</time>
      </trkpt>
      <trkpt lat="29.576070785522" lon="118.06610870361">
        <ele>6888.48</ele>
        <time>2026-06-17T01:25:43</time>
      </trkpt>
      <trkpt lat="29.595930099487" lon="118.08918762207">
        <ele>6888.48</ele>
        <time>2026-06-17T01:25:58</time>
      </trkpt>
      <trkpt lat="29.617809295654" lon="118.11428070068">
        <ele>6888.48</ele>
        <time>2026-06-17T01:26:13</time>
      </trkpt>
      <trkpt lat="29.638320922852" lon="118.13777923584">
        <ele>6888.48</ele>
        <time>2026-06-17T01:26:28</time>
      </trkpt>
      <trkpt lat="29.659379959106" lon="118.1619720459">
        <ele>6888.48</ele>
        <time>2026-06-17T01:26:43</time>
      </trkpt>
      <trkpt lat="29.679750442505" lon="118.18541717529">
        <ele>6888.48</ele>
        <time>2026-06-17T01:26:58</time>
      </trkpt>
      <trkpt lat="29.700899124146" lon="118.20977020264">
        <ele>6888.48</ele>
        <time>2026-06-17T01:27:13</time>
      </trkpt>
      <trkpt lat="29.719619750977" lon="118.23634338379">
        <ele>6888.48</ele>
        <time>2026-06-17T01:27:28</time>
      </trkpt>
      <trkpt lat="29.730539321899" lon="118.26696014404">
        <ele>6888.48</ele>
        <time>2026-06-17T01:27:43</time>
      </trkpt>
      <trkpt lat="29.733310699463" lon="118.2999420166">
        <ele>6888.48</ele>
        <time>2026-06-17T01:27:58</time>
      </trkpt>
      <trkpt lat="29.730819702148" lon="118.33529663086">
        <ele>6888.48</ele>
        <time>2026-06-17T01:28:13</time>
      </trkpt>
      <trkpt lat="29.727750778198" lon="118.36992645264">
        <ele>6888.48</ele>
        <time>2026-06-17T01:28:28</time>
      </trkpt>
      <trkpt lat="29.724380493164" lon="118.4069519043">
        <ele>6888.48</ele>
        <time>2026-06-17T01:28:48</time>
      </trkpt>
      <trkpt lat="29.72135925293" lon="118.44022369385">
        <ele>6888.48</ele>
        <time>2026-06-17T01:29:03</time>
      </trkpt>
      <trkpt lat="29.718383789062" lon="118.47291564941">
        <ele>6888.48</ele>
        <time>2026-06-17T01:29:18</time>
      </trkpt>
      <trkpt lat="29.715410232544" lon="118.50604248047">
        <ele>6888.48</ele>
        <time>2026-06-17T01:29:33</time>
      </trkpt>
      <trkpt lat="29.712249755859" lon="118.54090118408">
        <ele>6888.48</ele>
        <time>2026-06-17T01:29:48</time>
      </trkpt>
      <trkpt lat="29.708566665649" lon="118.58125305176">
        <ele>6888.48</ele>
        <time>2026-06-17T01:30:08</time>
      </trkpt>
      <trkpt lat="29.705520629883" lon="118.61410522461">
        <ele>6888.48</ele>
        <time>2026-06-17T01:30:23</time>
      </trkpt>
      <trkpt lat="29.702499389648" lon="118.64679718018">
        <ele>6888.48</ele>
        <time>2026-06-17T01:30:38</time>
      </trkpt>
      <trkpt lat="29.699350357056" lon="118.68104553223">
        <ele>6888.48</ele>
        <time>2026-06-17T01:30:53</time>
      </trkpt>
      <trkpt lat="29.696231842041" lon="118.71502685547">
        <ele>6888.48</ele>
        <time>2026-06-17T01:31:08</time>
      </trkpt>
      <trkpt lat="29.693300247192" lon="118.74746704102">
        <ele>6888.48</ele>
        <time>2026-06-17T01:31:23</time>
      </trkpt>
      <trkpt lat="29.690225601196" lon="118.78170013428">
        <ele>6888.48</ele>
        <time>2026-06-17T01:31:38</time>
      </trkpt>
      <trkpt lat="29.687152862549" lon="118.81573486328">
        <ele>6888.48</ele>
        <time>2026-06-17T01:31:53</time>
      </trkpt>
      <trkpt lat="29.684080123901" lon="118.84939575195">
        <ele>6888.48</ele>
        <time>2026-06-17T01:32:08</time>
      </trkpt>
      <trkpt lat="29.681148529053" lon="118.88176727295">
        <ele>6888.48</ele>
        <time>2026-06-17T01:32:23</time>
      </trkpt>
      <trkpt lat="29.678150177002" lon="118.91432952881">
        <ele>6888.48</ele>
        <time>2026-06-17T01:32:38</time>
      </trkpt>
      <trkpt lat="29.674942016602" lon="118.94934082031">
        <ele>6888.48</ele>
        <time>2026-06-17T01:32:53</time>
      </trkpt>
      <trkpt lat="29.671920776367" lon="118.98209381104">
        <ele>6888.48</ele>
        <time>2026-06-17T01:33:08</time>
      </trkpt>
      <trkpt lat="29.668859481812" lon="119.01499938965">
        <ele>6888.48</ele>
        <time>2026-06-17T01:33:23</time>
      </trkpt>
      <trkpt lat="29.665512084961" lon="119.05139160156">
        <ele>6888.48</ele>
        <time>2026-06-17T01:33:38</time>
      </trkpt>
      <trkpt lat="29.662109375" lon="119.08824157715">
        <ele>6888.48</ele>
        <time>2026-06-17T01:33:53</time>
      </trkpt>
      <trkpt lat="29.659009933472" lon="119.12110900879">
        <ele>6888.48</ele>
        <time>2026-06-17T01:34:08</time>
      </trkpt>
      <trkpt lat="29.654754638672" lon="119.16653442383">
        <ele>6888.48</ele>
        <time>2026-06-17T01:34:33</time>
      </trkpt>
      <trkpt lat="29.651824951172" lon="119.19965362549">
        <ele>6888.48</ele>
        <time>2026-06-17T01:34:48</time>
      </trkpt>
      <trkpt lat="29.648529052734" lon="119.23709869385">
        <ele>6888.48</ele>
        <time>2026-06-17T01:35:03</time>
      </trkpt>
      <trkpt lat="29.645599365234" lon="119.27005767822">
        <ele>6888.48</ele>
        <time>2026-06-17T01:35:18</time>
      </trkpt>
      <trkpt lat="29.642669677734" lon="119.30291748047">
        <ele>6888.48</ele>
        <time>2026-06-17T01:35:33</time>
      </trkpt>
      <trkpt lat="29.640279769897" lon="119.33596801758">
        <ele>6888.48</ele>
        <time>2026-06-17T01:35:48</time>
      </trkpt>
      <trkpt lat="29.638830184937" lon="119.36499786377">
        <ele>6888.48</ele>
        <time>2026-06-17T01:36:03</time>
      </trkpt>
      <trkpt lat="29.637079238892" lon="119.39782714844">
        <ele>6888.48</ele>
        <time>2026-06-17T01:36:18</time>
      </trkpt>
      <trkpt lat="29.635210037231" lon="119.43137359619">
        <ele>6888.48</ele>
        <time>2026-06-17T01:36:33</time>
      </trkpt>
      <trkpt lat="29.633331298828" lon="119.46395874023">
        <ele>6888.48</ele>
        <time>2026-06-17T01:36:48</time>
      </trkpt>
      <trkpt lat="29.63157081604" lon="119.49672698975">
        <ele>6888.48</ele>
        <time>2026-06-17T01:37:03</time>
      </trkpt>
      <trkpt lat="29.630996704102" lon="119.52951049805">
        <ele>6888.48</ele>
        <time>2026-06-17T01:37:18</time>
      </trkpt>
      <trkpt lat="29.630405426025" lon="119.56447601318">
        <ele>6888.48</ele>
        <time>2026-06-17T01:37:33</time>
      </trkpt>
      <trkpt lat="29.629749298096" lon="119.59841156006">
        <ele>6888.48</ele>
        <time>2026-06-17T01:37:48</time>
      </trkpt>
      <trkpt lat="29.628936767578" lon="119.6335067749">
        <ele>6888.48</ele>
        <time>2026-06-17T01:38:03</time>
      </trkpt>
      <trkpt lat="29.628200531006" lon="119.66625976562">
        <ele>6888.48</ele>
        <time>2026-06-17T01:38:18</time>
      </trkpt>
      <trkpt lat="29.627380371094" lon="119.70217132568">
        <ele>6888.48</ele>
        <time>2026-06-17T01:38:33</time>
      </trkpt>
      <trkpt lat="29.626588821411" lon="119.73535919189">
        <ele>6888.48</ele>
        <time>2026-06-17T01:38:48</time>
      </trkpt>
      <trkpt lat="29.625797271729" lon="119.76923370361">
        <ele>6888.48</ele>
        <time>2026-06-17T01:39:03</time>
      </trkpt>
      <trkpt lat="29.625049591064" lon="119.80143737793">
        <ele>6858.0</ele>
        <time>2026-06-17T01:39:18</time>
      </trkpt>
      <trkpt lat="29.624267578125" lon="119.83575439453">
        <ele>6774.18</ele>
        <time>2026-06-17T01:39:33</time>
      </trkpt>
      <trkpt lat="29.623489379883" lon="119.86934661865">
        <ele>6697.98</ele>
        <time>2026-06-17T01:39:48</time>
      </trkpt>
      <trkpt lat="29.622724533081" lon="119.90263366699">
        <ele>6629.4</ele>
        <time>2026-06-17T01:40:03</time>
      </trkpt>
      <trkpt lat="29.621932983398" lon="119.93615722656">
        <ele>6553.2</ele>
        <time>2026-06-17T01:40:18</time>
      </trkpt>
      <trkpt lat="29.621109008789" lon="119.97017669678">
        <ele>6477.0</ele>
        <time>2026-06-17T01:40:33</time>
      </trkpt>
      <trkpt lat="29.620304107666" lon="120.00285339355">
        <ele>6400.8</ele>
        <time>2026-06-17T01:40:48</time>
      </trkpt>
      <trkpt lat="29.61946105957" lon="120.03540802002">
        <ele>6324.6</ele>
        <time>2026-06-17T01:41:03</time>
      </trkpt>
      <trkpt lat="29.618722915649" lon="120.06774902344">
        <ele>6301.74</ele>
        <time>2026-06-17T01:41:18</time>
      </trkpt>
      <trkpt lat="29.617904663086" lon="120.10047912598">
        <ele>6233.16</ele>
        <time>2026-06-17T01:41:33</time>
      </trkpt>
      <trkpt lat="29.617034912109" lon="120.13486480713">
        <ele>6164.58</ele>
        <time>2026-06-17T01:41:48</time>
      </trkpt>
      <trkpt lat="29.616161346436" lon="120.16877746582">
        <ele>6080.76</ele>
        <time>2026-06-17T01:42:03</time>
      </trkpt>
      <trkpt lat="29.615230560303" lon="120.20373535156">
        <ele>6004.56</ele>
        <time>2026-06-17T01:42:18</time>
      </trkpt>
      <trkpt lat="29.614379882812" lon="120.23764801025">
        <ele>5928.36</ele>
        <time>2026-06-17T01:42:33</time>
      </trkpt>
      <trkpt lat="29.613460540771" lon="120.2735824585">
        <ele>5844.54</ele>
        <time>2026-06-17T01:42:48</time>
      </trkpt>
      <trkpt lat="29.612577438354" lon="120.30772399902">
        <ele>5768.34</ele>
        <time>2026-06-17T01:43:03</time>
      </trkpt>
      <trkpt lat="29.611679077148" lon="120.34196472168">
        <ele>5692.14</ele>
        <time>2026-06-17T01:43:18</time>
      </trkpt>
      <trkpt lat="29.610761642456" lon="120.376121521">
        <ele>5615.94</ele>
        <time>2026-06-17T01:43:33</time>
      </trkpt>
      <trkpt lat="29.609939575195" lon="120.40751647949">
        <ele>5539.74</ele>
        <time>2026-06-17T01:43:48</time>
      </trkpt>
      <trkpt lat="29.608932495117" lon="120.44470214844">
        <ele>5455.92</ele>
        <time>2026-06-17T01:44:08</time>
      </trkpt>
      <trkpt lat="29.608015060425" lon="120.47709655762">
        <ele>5379.72</ele>
        <time>2026-06-17T01:44:22</time>
      </trkpt>
      <trkpt lat="29.607080459595" lon="120.51172637939">
        <ele>5295.9</ele>
        <time>2026-06-17T01:44:37</time>
      </trkpt>
      <trkpt lat="29.606153488159" lon="120.54414367676">
        <ele>5227.32</ele>
        <time>2026-06-17T01:44:52</time>
      </trkpt>
      <trkpt lat="29.605129241943" lon="120.58087921143">
        <ele>5143.5</ele>
        <time>2026-06-17T01:45:07</time>
      </trkpt>
      <trkpt lat="29.60424041748" lon="120.61351013184">
        <ele>5067.3</ele>
        <time>2026-06-17T01:45:22</time>
      </trkpt>
      <trkpt lat="29.603164672852" lon="120.64921569824">
        <ele>4983.48</ele>
        <time>2026-06-17T01:45:42</time>
      </trkpt>
      <trkpt lat="29.602289199829" lon="120.68148803711">
        <ele>4907.28</ele>
        <time>2026-06-17T01:45:57</time>
      </trkpt>
      <trkpt lat="29.601219177246" lon="120.71798706055">
        <ele>4823.46</ele>
        <time>2026-06-17T01:46:12</time>
      </trkpt>
      <trkpt lat="29.600290298462" lon="120.74858093262">
        <ele>4739.64</ele>
        <time>2026-06-17T01:46:27</time>
      </trkpt>
      <trkpt lat="29.599355697632" lon="120.78094482422">
        <ele>4663.44</ele>
        <time>2026-06-17T01:46:41</time>
      </trkpt>
      <trkpt lat="29.602340698242" lon="120.81247711182">
        <ele>4579.62</ele>
        <time>2026-06-17T01:46:55</time>
      </trkpt>
      <trkpt lat="29.613967895508" lon="120.84158325195">
        <ele>4511.04</ele>
        <time>2026-06-17T01:47:10</time>
      </trkpt>
      <trkpt lat="29.630950927734" lon="120.8717880249">
        <ele>4427.22</ele>
        <time>2026-06-17T01:47:30</time>
      </trkpt>
      <trkpt lat="29.646234512329" lon="120.89839935303">
        <ele>4358.64</ele>
        <time>2026-06-17T01:47:45</time>
      </trkpt>
      <trkpt lat="29.662340164185" lon="120.92613983154">
        <ele>4274.82</ele>
        <time>2026-06-17T01:48:00</time>
      </trkpt>
      <trkpt lat="29.677659988403" lon="120.95262908936">
        <ele>4206.24</ele>
        <time>2026-06-17T01:48:14</time>
      </trkpt>
      <trkpt lat="29.693710327148" lon="120.98033905029">
        <ele>4206.24</ele>
        <time>2026-06-17T01:48:29</time>
      </trkpt>
      <trkpt lat="29.708770751953" lon="121.00653076172">
        <ele>4206.24</ele>
        <time>2026-06-17T01:48:44</time>
      </trkpt>
      <trkpt lat="29.723930358887" lon="121.03298187256">
        <ele>4206.24</ele>
        <time>2026-06-17T01:48:59</time>
      </trkpt>
      <trkpt lat="29.738830566406" lon="121.05893707275">
        <ele>4206.24</ele>
        <time>2026-06-17T01:49:14</time>
      </trkpt>
      <trkpt lat="29.754095077515" lon="121.08554840088">
        <ele>4206.24</ele>
        <time>2026-06-17T01:49:29</time>
      </trkpt>
      <trkpt lat="29.769420623779" lon="121.11232757568">
        <ele>4206.24</ele>
        <time>2026-06-17T01:49:44</time>
      </trkpt>
      <trkpt lat="29.78621673584" lon="121.14155578613">
        <ele>4206.24</ele>
        <time>2026-06-17T01:50:04</time>
      </trkpt>
      <trkpt lat="29.801630020142" lon="121.16847991943">
        <ele>4206.24</ele>
        <time>2026-06-17T01:50:19</time>
      </trkpt>
      <trkpt lat="29.817407608032" lon="121.19611358643">
        <ele>4191.0</ele>
        <time>2026-06-17T01:50:34</time>
      </trkpt>
      <trkpt lat="29.833610534668" lon="121.22444152832">
        <ele>4114.8</ele>
        <time>2026-06-17T01:50:49</time>
      </trkpt>
      <trkpt lat="29.848129272461" lon="121.24980163574">
        <ele>4030.98</ele>
        <time>2026-06-17T01:51:04</time>
      </trkpt>
      <trkpt lat="29.863679885864" lon="121.27713012695">
        <ele>3954.78</ele>
        <time>2026-06-17T01:51:19</time>
      </trkpt>
      <trkpt lat="29.87891960144" lon="121.3038482666">
        <ele>3878.58</ele>
        <time>2026-06-17T01:51:33</time>
      </trkpt>
      <trkpt lat="29.89123916626" lon="121.33106994629">
        <ele>3794.76</ele>
        <time>2026-06-17T01:51:48</time>
      </trkpt>
      <trkpt lat="29.896450042725" lon="121.36042022705">
        <ele>3710.94</ele>
        <time>2026-06-17T01:52:03</time>
      </trkpt>
      <trkpt lat="29.898040771484" lon="121.389503479">
        <ele>3634.74</ele>
        <time>2026-06-17T01:52:18</time>
      </trkpt>
      <trkpt lat="29.899290084839" lon="121.4185333252">
        <ele>3566.16</ele>
        <time>2026-06-17T01:52:33</time>
      </trkpt>
      <trkpt lat="29.900482177734" lon="121.4485244751">
        <ele>3489.96</ele>
        <time>2026-06-17T01:52:48</time>
      </trkpt>
      <trkpt lat="29.90153503418" lon="121.47545623779">
        <ele>3406.14</ele>
        <time>2026-06-17T01:53:03</time>
      </trkpt>
      <trkpt lat="29.902540206909" lon="121.50266265869">
        <ele>3337.56</ele>
        <time>2026-06-17T01:53:18</time>
      </trkpt>
      <trkpt lat="29.90364074707" lon="121.53018188477">
        <ele>3329.94</ele>
        <time>2026-06-17T01:53:33</time>
      </trkpt>
      <trkpt lat="29.904689788818" lon="121.55786132812">
        <ele>3322.32</ele>
        <time>2026-06-17T01:53:48</time>
      </trkpt>
      <trkpt lat="29.905759811401" lon="121.58525848389">
        <ele>3329.94</ele>
        <time>2026-06-17T01:54:03</time>
      </trkpt>
      <trkpt lat="29.906799316406" lon="121.61194610596">
        <ele>3322.32</ele>
        <time>2026-06-17T01:54:18</time>
      </trkpt>
      <trkpt lat="29.907810211182" lon="121.63949584961">
        <ele>3329.94</ele>
        <time>2026-06-17T01:54:33</time>
      </trkpt>
      <trkpt lat="29.908809661865" lon="121.66565704346">
        <ele>3329.94</ele>
        <time>2026-06-17T01:54:48</time>
      </trkpt>
      <trkpt lat="29.909812927246" lon="121.69264984131">
        <ele>3329.94</ele>
        <time>2026-06-17T01:55:03</time>
      </trkpt>
      <trkpt lat="29.910789489746" lon="121.71877288818">
        <ele>3329.94</ele>
        <time>2026-06-17T01:55:18</time>
      </trkpt>
      <trkpt lat="29.911809921265" lon="121.74626159668">
        <ele>3322.32</ele>
        <time>2026-06-17T01:55:33</time>
      </trkpt>
      <trkpt lat="29.912792205811" lon="121.77311706543">
        <ele>3322.32</ele>
        <time>2026-06-17T01:55:48</time>
      </trkpt>
      <trkpt lat="29.913711547852" lon="121.79949951172">
        <ele>3329.94</ele>
        <time>2026-06-17T01:56:03</time>
      </trkpt>
      <trkpt lat="29.91471862793" lon="121.82642364502">
        <ele>3329.94</ele>
        <time>2026-06-17T01:56:18</time>
      </trkpt>
      <trkpt lat="29.915679931641" lon="121.8531036377">
        <ele>3329.94</ele>
        <time>2026-06-17T01:56:33</time>
      </trkpt>
      <trkpt lat="29.916702270508" lon="121.88089752197">
        <ele>3322.32</ele>
        <time>2026-06-17T01:56:48</time>
      </trkpt>
      <trkpt lat="29.917600631714" lon="121.90699005127">
        <ele>3322.32</ele>
        <time>2026-06-17T01:57:03</time>
      </trkpt>
      <trkpt lat="29.918519973755" lon="121.93338012695">
        <ele>3322.32</ele>
        <time>2026-06-17T01:57:18</time>
      </trkpt>
      <trkpt lat="29.919250488281" lon="121.9534072876">
        <ele>3322.32</ele>
        <time>2026-06-17T01:57:32</time>
      </trkpt>
      <trkpt lat="29.920169830322" lon="121.97995758057">
        <ele>3322.32</ele>
        <time>2026-06-17T01:57:47</time>
      </trkpt>
      <trkpt lat="29.92126083374" lon="122.01152038574">
        <ele>3322.32</ele>
        <time>2026-06-17T01:58:02</time>
      </trkpt>
      <trkpt lat="29.922130584717" lon="122.03694152832">
        <ele>3284.22</ele>
        <time>2026-06-17T01:58:17</time>
      </trkpt>
      <trkpt lat="29.923000335693" lon="122.06224822998">
        <ele>3238.5</ele>
        <time>2026-06-17T01:58:32</time>
      </trkpt>
      <trkpt lat="29.923780441284" lon="122.08672332764">
        <ele>3162.3</ele>
        <time>2026-06-17T01:58:47</time>
      </trkpt>
      <trkpt lat="29.924615859985" lon="122.11226654053">
        <ele>3086.1</ele>
        <time>2026-06-17T01:59:02</time>
      </trkpt>
      <trkpt lat="29.925453186035" lon="122.13803100586">
        <ele>3009.9</ele>
        <time>2026-06-17T01:59:17</time>
      </trkpt>
      <trkpt lat="29.926200866699" lon="122.160987854">
        <ele>2933.7</ele>
        <time>2026-06-17T01:59:32</time>
      </trkpt>
      <trkpt lat="29.927030563354" lon="122.18585205078">
        <ele>2865.12</ele>
        <time>2026-06-17T01:59:47</time>
      </trkpt>
      <trkpt lat="29.927856445312" lon="122.21045684814">
        <ele>2804.16</ele>
        <time>2026-06-17T02:00:02</time>
      </trkpt>
      <trkpt lat="29.928539276123" lon="122.23242950439">
        <ele>2750.82</ele>
        <time>2026-06-17T02:00:17</time>
      </trkpt>
      <trkpt lat="29.929180145264" lon="122.25409698486">
        <ele>2697.48</ele>
        <time>2026-06-17T02:00:32</time>
      </trkpt>
      <trkpt lat="29.929830551147" lon="122.27470397949">
        <ele>2644.14</ele>
        <time>2026-06-17T02:00:47</time>
      </trkpt>
      <trkpt lat="29.930511474609" lon="122.29549407959">
        <ele>2567.94</ele>
        <time>2026-06-17T02:01:02</time>
      </trkpt>
      <trkpt lat="29.931133270264" lon="122.31523895264">
        <ele>2514.6</ele>
        <time>2026-06-17T02:01:17</time>
      </trkpt>
      <trkpt lat="29.931739807129" lon="122.33391571045">
        <ele>2430.78</ele>
        <time>2026-06-17T02:01:32</time>
      </trkpt>
      <trkpt lat="29.932298660278" lon="122.35237121582">
        <ele>2354.58</ele>
        <time>2026-06-17T02:01:47</time>
      </trkpt>
      <trkpt lat="29.932846069336" lon="122.36981964111">
        <ele>2270.76</ele>
        <time>2026-06-17T02:02:02</time>
      </trkpt>
      <trkpt lat="29.933349609375" lon="122.38656616211">
        <ele>2194.56</ele>
        <time>2026-06-17T02:02:17</time>
      </trkpt>
      <trkpt lat="29.933898925781" lon="122.40331268311">
        <ele>2141.22</ele>
        <time>2026-06-17T02:02:32</time>
      </trkpt>
      <trkpt lat="29.934345245361" lon="122.41966247559">
        <ele>2141.22</ele>
        <time>2026-06-17T02:02:47</time>
      </trkpt>
      <trkpt lat="29.934860229492" lon="122.436378479">
        <ele>2133.6</ele>
        <time>2026-06-17T02:03:02</time>
      </trkpt>
      <trkpt lat="29.935363769531" lon="122.45372009277">
        <ele>2141.22</ele>
        <time>2026-06-17T02:03:17</time>
      </trkpt>
      <trkpt lat="29.935882568359" lon="122.4704208374">
        <ele>2133.6</ele>
        <time>2026-06-17T02:03:32</time>
      </trkpt>
      <trkpt lat="29.939649581909" lon="122.48568725586">
        <ele>2133.6</ele>
        <time>2026-06-17T02:03:47</time>
      </trkpt>
      <trkpt lat="29.950239181519" lon="122.49664306641">
        <ele>2141.22</ele>
        <time>2026-06-17T02:04:02</time>
      </trkpt>
      <trkpt lat="29.964660644531" lon="122.49890136719">
        <ele>2133.6</ele>
        <time>2026-06-17T02:04:17</time>
      </trkpt>
      <trkpt lat="29.977592468262" lon="122.4907989502">
        <ele>2141.22</ele>
        <time>2026-06-17T02:04:32</time>
      </trkpt>
      <trkpt lat="29.982900619507" lon="122.47685241699">
        <ele>2141.22</ele>
        <time>2026-06-17T02:04:47</time>
      </trkpt>
      <trkpt lat="29.983179092407" lon="122.46053314209">
        <ele>2141.22</ele>
        <time>2026-06-17T02:05:02</time>
      </trkpt>
      <trkpt lat="29.980409622192" lon="122.44532012939">
        <ele>2133.6</ele>
        <time>2026-06-17T02:05:17</time>
      </trkpt>
      <trkpt lat="29.971122741699" lon="122.4340057373">
        <ele>2133.6</ele>
        <time>2026-06-17T02:05:32</time>
      </trkpt>
      <trkpt lat="29.957885742188" lon="122.43051147461">
        <ele>2141.22</ele>
        <time>2026-06-17T02:05:47</time>
      </trkpt>
      <trkpt lat="29.945390701294" lon="122.43595123291">
        <ele>2133.6</ele>
        <time>2026-06-17T02:06:02</time>
      </trkpt>
      <trkpt lat="29.937370300293" lon="122.44860839844">
        <ele>2125.98</ele>
        <time>2026-06-17T02:06:17</time>
      </trkpt>
      <trkpt lat="29.935729980469" lon="122.46514129639">
        <ele>2049.78</ele>
        <time>2026-06-17T02:06:32</time>
      </trkpt>
      <trkpt lat="29.937519073486" lon="122.48107910156">
        <ele>1973.58</ele>
        <time>2026-06-17T02:06:47</time>
      </trkpt>
      <trkpt lat="29.946636199951" lon="122.49426269531">
        <ele>1897.38</ele>
        <time>2026-06-17T02:07:02</time>
      </trkpt>
      <trkpt lat="29.960739135742" lon="122.49925994873">
        <ele>1813.56</ele>
        <time>2026-06-17T02:07:17</time>
      </trkpt>
      <trkpt lat="29.974182128906" lon="122.49427032471">
        <ele>1744.98</ele>
        <time>2026-06-17T02:07:32</time>
      </trkpt>
      <trkpt lat="29.981826782227" lon="122.48178100586">
        <ele>1668.78</ele>
        <time>2026-06-17T02:07:47</time>
      </trkpt>
      <trkpt lat="29.982900619507" lon="122.46619415283">
        <ele>1592.58</ele>
        <time>2026-06-17T02:08:02</time>
      </trkpt>
      <trkpt lat="29.981876373291" lon="122.45124816895">
        <ele>1531.62</ele>
        <time>2026-06-17T02:08:17</time>
      </trkpt>
      <trkpt lat="29.974365234375" lon="122.43799591064">
        <ele>1524.0</ele>
        <time>2026-06-17T02:08:37</time>
      </trkpt>
      <trkpt lat="29.962879180908" lon="122.43224334717">
        <ele>1531.62</ele>
        <time>2026-06-17T02:08:52</time>
      </trkpt>
      <trkpt lat="29.949371337891" lon="122.43492889404">
        <ele>1531.62</ele>
        <time>2026-06-17T02:09:07</time>
      </trkpt>
      <trkpt lat="29.939159393311" lon="122.44640350342">
        <ele>1524.0</ele>
        <time>2026-06-17T02:09:22</time>
      </trkpt>
      <trkpt lat="29.936004638672" lon="122.46195983887">
        <ele>1524.0</ele>
        <time>2026-06-17T02:09:37</time>
      </trkpt>
      <trkpt lat="29.93699836731" lon="122.47800445557">
        <ele>1524.0</ele>
        <time>2026-06-17T02:09:52</time>
      </trkpt>
      <trkpt lat="29.945430755615" lon="122.49104309082">
        <ele>1531.62</ele>
        <time>2026-06-17T02:10:07</time>
      </trkpt>
      <trkpt lat="29.958570480347" lon="122.49550628662">
        <ele>1524.0</ele>
        <time>2026-06-17T02:10:22</time>
      </trkpt>
      <trkpt lat="29.971727371216" lon="122.49003601074">
        <ele>1531.62</ele>
        <time>2026-06-17T02:10:37</time>
      </trkpt>
      <trkpt lat="29.983749389648" lon="122.4817276001">
        <ele>1470.66</ele>
        <time>2026-06-17T02:10:52</time>
      </trkpt>
      <trkpt lat="29.996019363403" lon="122.47467041016">
        <ele>1386.84</ele>
        <time>2026-06-17T02:11:07</time>
      </trkpt>
      <trkpt lat="30.010089874268" lon="122.46794891357">
        <ele>1310.64</ele>
        <time>2026-06-17T02:11:22</time>
      </trkpt>
      <trkpt lat="30.022750854492" lon="122.46298217773">
        <ele>1234.44</ele>
        <time>2026-06-17T02:11:37</time>
      </trkpt>
      <trkpt lat="30.035409927368" lon="122.45910644531">
        <ele>1219.2</ele>
        <time>2026-06-17T02:11:52</time>
      </trkpt>
      <trkpt lat="30.052541732788" lon="122.45531463623">
        <ele>1219.2</ele>
        <time>2026-06-17T02:12:12</time>
      </trkpt>
      <trkpt lat="30.068435668945" lon="122.45313262939">
        <ele>1226.82</ele>
        <time>2026-06-17T02:12:27</time>
      </trkpt>
      <trkpt lat="30.09049987793" lon="122.45059967041">
        <ele>1226.82</ele>
        <time>2026-06-17T02:12:51</time>
      </trkpt>
      <trkpt lat="30.104774475098" lon="122.44899749756">
        <ele>1226.82</ele>
        <time>2026-06-17T02:13:11</time>
      </trkpt>
      <trkpt lat="30.118606567383" lon="122.44747161865">
        <ele>1219.2</ele>
        <time>2026-06-17T02:13:26</time>
      </trkpt>
      <trkpt lat="30.133026123047" lon="122.44171142578">
        <ele>1219.2</ele>
        <time>2026-06-17T02:13:41</time>
      </trkpt>
      <trkpt lat="30.140029907227" lon="122.42894744873">
        <ele>1203.96</ele>
        <time>2026-06-17T02:13:56</time>
      </trkpt>
      <trkpt lat="30.14030456543" lon="122.41408538818">
        <ele>1127.76</ele>
        <time>2026-06-17T02:14:11</time>
      </trkpt>
      <trkpt lat="30.139251708984" lon="122.39889526367">
        <ele>1051.56</ele>
        <time>2026-06-17T02:14:26</time>
      </trkpt>
      <trkpt lat="30.138059616089" lon="122.38436126709">
        <ele>975.36</ele>
        <time>2026-06-17T02:14:41</time>
      </trkpt>
      <trkpt lat="30.136825561523" lon="122.36959838867">
        <ele>944.88</ele>
        <time>2026-06-17T02:14:56</time>
      </trkpt>
      <trkpt lat="30.133987426758" lon="122.3550567627">
        <ele>944.88</ele>
        <time>2026-06-17T02:15:11</time>
      </trkpt>
      <trkpt lat="30.124370574951" lon="122.34580230713">
        <ele>952.5</ele>
        <time>2026-06-17T02:15:26</time>
      </trkpt>
      <trkpt lat="30.111709594727" lon="122.34401702881">
        <ele>944.88</ele>
        <time>2026-06-17T02:15:41</time>
      </trkpt>
      <trkpt lat="30.097049713135" lon="122.34419250488">
        <ele>929.64</ele>
        <time>2026-06-17T02:15:56</time>
      </trkpt>
      <trkpt lat="30.084619522095" lon="122.3455581665">
        <ele>861.06</ele>
        <time>2026-06-17T02:16:11</time>
      </trkpt>
      <trkpt lat="30.074300765991" lon="122.34713745117">
        <ele>807.72</ele>
        <time>2026-06-17T02:16:26</time>
      </trkpt>
      <trkpt lat="30.063629150391" lon="122.34870147705">
        <ele>723.9</ele>
        <time>2026-06-17T02:16:41</time>
      </trkpt>
      <trkpt lat="30.054794311523" lon="122.34983825684">
        <ele>662.94</ele>
        <time>2026-06-17T02:16:56</time>
      </trkpt>
      <trkpt lat="30.044630050659" lon="122.35096740723">
        <ele>601.98</ele>
        <time>2026-06-17T02:17:11</time>
      </trkpt>
      <trkpt lat="30.034851074219" lon="122.35188293457">
        <ele>556.26</ele>
        <time>2026-06-17T02:17:26</time>
      </trkpt>
      <trkpt lat="30.024890899658" lon="122.35270690918">
        <ele>502.92</ele>
        <time>2026-06-17T02:17:41</time>
      </trkpt>
      <trkpt lat="30.01482963562" lon="122.35369110107">
        <ele>441.96</ele>
        <time>2026-06-17T02:17:56</time>
      </trkpt>
      <trkpt lat="30.004825592041" lon="122.35478973389">
        <ele>388.62</ele>
        <time>2026-06-17T02:18:11</time>
      </trkpt>
      <trkpt lat="29.994781494141" lon="122.35586547852">
        <ele>327.66</ele>
        <time>2026-06-17T02:18:26</time>
      </trkpt>
      <trkpt lat="29.985076904297" lon="122.35694122314">
        <ele>274.32</ele>
        <time>2026-06-17T02:18:41</time>
      </trkpt>
      <trkpt lat="29.974985122681" lon="122.35803222656">
        <ele>220.98</ele>
        <time>2026-06-17T02:18:56</time>
      </trkpt>
      <trkpt lat="29.964889526367" lon="122.35899353027">
        <ele>167.64</ele>
        <time>2026-06-17T02:19:11</time>
      </trkpt>
      <trkpt lat="29.954498291016" lon="122.3600692749">
        <ele>106.68</ele>
        <time>2026-06-17T02:19:26</time>
      </trkpt>
      <trkpt lat="29.944931030273" lon="122.36114501953">
        <ele>53.34</ele>
        <time>2026-06-17T02:19:41</time>
      </trkpt>
      <trkpt lat="29.935741424561" lon="122.36209869385">
        <ele>30.48</ele>
        <time>2026-06-17T02:19:56</time>
      </trkpt>
      <trkpt lat="29.930528640747" lon="122.36267089844">
        <ele>0.0</ele>
        <time>2026-06-17T02:20:11</time>
      </trkpt>
      <trkpt lat="29.928451538086" lon="122.36288452148">
        <ele>0.0</ele>
        <time>2026-06-17T02:20:26</time>
      </trkpt>
      <trkpt lat="29.927284240723" lon="122.36301422119">
        <ele>0.0</ele>
        <time>2026-06-17T02:20:41</time>
      </trkpt>
      <trkpt lat="29.926769256592" lon="122.36270141602">
        <ele>0.0</ele>
        <time>2026-06-17T02:20:56</time>
      </trkpt>
      <trkpt lat="29.926677703857" lon="122.36204528809">
        <ele>0.0</ele>
        <time>2026-06-17T02:21:11</time>
      </trkpt>
    </trkseg>
  </trk>
</gpx>