<?xml version="1.0" encoding="UTF-8"?>
<gpx xmlns="http://www.topografix.com/GPX/1/1" xmlns:xsi="http://www.w3.org/2001/XMLSchema-instance" xsi:schemaLocation="http://www.topografix.com/GPX/1/1 http://www.topografix.com/GPX/1/1/gpx.xsd" version="1.1" creator="gpx.py -- https://github.com/tkrajina/gpxpy">
  <trk>
    <name>Variflight_G52830_20260612.csv</name>
    <trkseg>
      <trkpt lat="30.725080490112" lon="117.77816009521">
        <ele>1638.3</ele>
        <time>2026-06-12T14:19:35</time>
      </trkpt>
      <trkpt lat="30.73410987854" lon="117.77227783203">
        <ele>1752.6</ele>
        <time>2026-06-12T14:19:46</time>
      </trkpt>
      <trkpt lat="30.741899490356" lon="117.75346374512">
        <ele>1927.86</ele>
        <time>2026-06-12T14:20:07</time>
      </trkpt>
      <trkpt lat="30.738830566406" lon="117.73638916016">
        <ele>2004.06</ele>
        <time>2026-06-12T14:20:26</time>
      </trkpt>
      <trkpt lat="30.732109069824" lon="117.71862030029">
        <ele>2087.88</ele>
        <time>2026-06-12T14:20:41</time>
      </trkpt>
      <trkpt lat="30.721479415894" lon="117.70310211182">
        <ele>2171.7</ele>
        <time>2026-06-12T14:20:54</time>
      </trkpt>
      <trkpt lat="30.699249267578" lon="117.68972015381">
        <ele>2354.58</ele>
        <time>2026-06-12T14:21:17</time>
      </trkpt>
      <trkpt lat="30.680860519409" lon="117.67961120605">
        <ele>2407.92</ele>
        <time>2026-06-12T14:21:32</time>
      </trkpt>
      <trkpt lat="30.66303062439" lon="117.66961669922">
        <ele>2407.92</ele>
        <time>2026-06-12T14:21:46</time>
      </trkpt>
      <trkpt lat="30.649620056152" lon="117.66192626953">
        <ele>2407.92</ele>
        <time>2026-06-12T14:22:01</time>
      </trkpt>
      <trkpt lat="30.614660263062" lon="117.6416015625">
        <ele>2446.02</ele>
        <time>2026-06-12T14:22:28</time>
      </trkpt>
      <trkpt lat="30.596830368042" lon="117.63126373291">
        <ele>2613.66</ele>
        <time>2026-06-12T14:22:42</time>
      </trkpt>
      <trkpt lat="30.582630157471" lon="117.62303161621">
        <ele>2827.02</ele>
        <time>2026-06-12T14:22:55</time>
      </trkpt>
      <trkpt lat="30.565309524536" lon="117.61309051514">
        <ele>3063.24</ele>
        <time>2026-06-12T14:23:13</time>
      </trkpt>
      <trkpt lat="30.539569854736" lon="117.59815216064">
        <ele>3368.04</ele>
        <time>2026-06-12T14:23:33</time>
      </trkpt>
      <trkpt lat="30.51383972168" lon="117.58312225342">
        <ele>3657.6</ele>
        <time>2026-06-12T14:23:53</time>
      </trkpt>
      <trkpt lat="30.49515914917" lon="117.57221984863">
        <ele>3810.0</ele>
        <time>2026-06-12T14:24:08</time>
      </trkpt>
      <trkpt lat="30.480499267578" lon="117.56371307373">
        <ele>3931.92</ele>
        <time>2026-06-12T14:24:23</time>
      </trkpt>
      <trkpt lat="30.455059051514" lon="117.54902648926">
        <ele>4198.62</ele>
        <time>2026-06-12T14:24:43</time>
      </trkpt>
      <trkpt lat="30.432769775391" lon="117.53614807129">
        <ele>4396.74</ele>
        <time>2026-06-12T14:24:58</time>
      </trkpt>
      <trkpt lat="30.40991973877" lon="117.52294921875">
        <ele>4503.42</ele>
        <time>2026-06-12T14:25:18</time>
      </trkpt>
      <trkpt lat="30.386310577393" lon="117.50923156738">
        <ele>4518.66</ele>
        <time>2026-06-12T14:25:33</time>
      </trkpt>
      <trkpt lat="30.356739044189" lon="117.49198913574">
        <ele>4511.04</ele>
        <time>2026-06-12T14:25:53</time>
      </trkpt>
      <trkpt lat="30.331560134888" lon="117.47724151611">
        <ele>4511.04</ele>
        <time>2026-06-12T14:26:07</time>
      </trkpt>
      <trkpt lat="30.307649612427" lon="117.46334838867">
        <ele>4511.04</ele>
        <time>2026-06-12T14:26:24</time>
      </trkpt>
      <trkpt lat="30.290140151978" lon="117.45313262939">
        <ele>4511.04</ele>
        <time>2026-06-12T14:26:36</time>
      </trkpt>
      <trkpt lat="30.276399612427" lon="117.44509124756">
        <ele>4511.04</ele>
        <time>2026-06-12T14:26:48</time>
      </trkpt>
      <trkpt lat="30.246089935303" lon="117.43113708496">
        <ele>4511.04</ele>
        <time>2026-06-12T14:27:07</time>
      </trkpt>
      <trkpt lat="30.217300415039" lon="117.42317199707">
        <ele>4511.04</ele>
        <time>2026-06-12T14:27:22</time>
      </trkpt>
      <trkpt lat="30.179079055786" lon="117.41245269775">
        <ele>4511.04</ele>
        <time>2026-06-12T14:27:45</time>
      </trkpt>
      <trkpt lat="30.157009124756" lon="117.40769958496">
        <ele>4511.04</ele>
        <time>2026-06-12T14:28:00</time>
      </trkpt>
      <trkpt lat="29.958089828491" lon="117.40908050537">
        <ele>4511.04</ele>
        <time>2026-06-12T14:29:50</time>
      </trkpt>
      <trkpt lat="29.887559890747" lon="117.38955688477">
        <ele>4511.04</ele>
        <time>2026-06-12T14:30:30</time>
      </trkpt>
      <trkpt lat="29.604150772095" lon="117.31002044678">
        <ele>4511.04</ele>
        <time>2026-06-12T14:33:17</time>
      </trkpt>
      <trkpt lat="29.553129196167" lon="117.29553222656">
        <ele>4511.04</ele>
        <time>2026-06-12T14:33:48</time>
      </trkpt>
      <trkpt lat="29.527200698853" lon="117.28810119629">
        <ele>4511.04</ele>
        <time>2026-06-12T14:34:03</time>
      </trkpt>
      <trkpt lat="29.505739212036" lon="117.28191375732">
        <ele>4511.04</ele>
        <time>2026-06-12T14:34:18</time>
      </trkpt>
      <trkpt lat="29.473209381104" lon="117.27261352539">
        <ele>4511.04</ele>
        <time>2026-06-12T14:34:38</time>
      </trkpt>
      <trkpt lat="29.442239761353" lon="117.26387023926">
        <ele>4526.28</ele>
        <time>2026-06-12T14:34:53</time>
      </trkpt>
      <trkpt lat="29.420749664307" lon="117.25782012939">
        <ele>4610.1</ele>
        <time>2026-06-12T14:35:08</time>
      </trkpt>
      <trkpt lat="29.392900466919" lon="117.25003051758">
        <ele>4792.98</ele>
        <time>2026-06-12T14:35:23</time>
      </trkpt>
      <trkpt lat="29.368270874023" lon="117.243019104">
        <ele>4960.62</ele>
        <time>2026-06-12T14:35:38</time>
      </trkpt>
      <trkpt lat="29.340549468994" lon="117.23880004883">
        <ele>5128.26</ele>
        <time>2026-06-12T14:35:53</time>
      </trkpt>
      <trkpt lat="29.311710357666" lon="117.24350738525">
        <ele>5242.56</ele>
        <time>2026-06-12T14:36:08</time>
      </trkpt>
      <trkpt lat="29.274280548096" lon="117.25450134277">
        <ele>5364.48</ele>
        <time>2026-06-12T14:36:33</time>
      </trkpt>
      <trkpt lat="29.243869781494" lon="117.26367950439">
        <ele>5501.64</ele>
        <time>2026-06-12T14:36:48</time>
      </trkpt>
      <trkpt lat="29.215019226074" lon="117.2723236084">
        <ele>5638.8</ele>
        <time>2026-06-12T14:37:03</time>
      </trkpt>
      <trkpt lat="29.188249588013" lon="117.27911376953">
        <ele>5753.1</ele>
        <time>2026-06-12T14:37:18</time>
      </trkpt>
      <trkpt lat="29.156457901001" lon="117.2808303833">
        <ele>5867.4</ele>
        <time>2026-06-12T14:37:33</time>
      </trkpt>
      <trkpt lat="29.129411697388" lon="117.27727508545">
        <ele>5974.08</ele>
        <time>2026-06-12T14:37:48</time>
      </trkpt>
      <trkpt lat="29.101106643677" lon="117.26947021484">
        <ele>6004.56</ele>
        <time>2026-06-12T14:38:03</time>
      </trkpt>
      <trkpt lat="29.07546043396" lon="117.25826263428">
        <ele>6080.76</ele>
        <time>2026-06-12T14:38:18</time>
      </trkpt>
      <trkpt lat="29.050827026367" lon="117.24334716797">
        <ele>6210.3</ele>
        <time>2026-06-12T14:38:33</time>
      </trkpt>
      <trkpt lat="29.029130935669" lon="117.22622680664">
        <ele>6339.84</ele>
        <time>2026-06-12T14:38:48</time>
      </trkpt>
      <trkpt lat="29.007120132446" lon="117.20397949219">
        <ele>6438.9</ele>
        <time>2026-06-12T14:39:03</time>
      </trkpt>
      <trkpt lat="28.98669052124" lon="117.18328857422">
        <ele>6553.2</ele>
        <time>2026-06-12T14:39:18</time>
      </trkpt>
      <trkpt lat="28.962390899658" lon="117.16554260254">
        <ele>6614.16</ele>
        <time>2026-06-12T14:39:33</time>
      </trkpt>
      <trkpt lat="28.937429428101" lon="117.14920806885">
        <ele>6621.78</ele>
        <time>2026-06-12T14:39:48</time>
      </trkpt>
      <trkpt lat="28.913860321045" lon="117.13363647461">
        <ele>6614.16</ele>
        <time>2026-06-12T14:40:03</time>
      </trkpt>
      <trkpt lat="28.887664794922" lon="117.11673736572">
        <ele>6614.16</ele>
        <time>2026-06-12T14:40:23</time>
      </trkpt>
      <trkpt lat="28.863876342773" lon="117.10157775879">
        <ele>6614.16</ele>
        <time>2026-06-12T14:40:38</time>
      </trkpt>
      <trkpt lat="28.83805847168" lon="117.08494567871">
        <ele>6614.16</ele>
        <time>2026-06-12T14:40:53</time>
      </trkpt>
      <trkpt lat="28.812580108643" lon="117.06816101074">
        <ele>6614.16</ele>
        <time>2026-06-12T14:41:08</time>
      </trkpt>
      <trkpt lat="28.789440155029" lon="117.05307769775">
        <ele>6614.16</ele>
        <time>2026-06-12T14:41:23</time>
      </trkpt>
      <trkpt lat="28.764404296875" lon="117.03677368164">
        <ele>6614.16</ele>
        <time>2026-06-12T14:41:38</time>
      </trkpt>
      <trkpt lat="28.74009513855" lon="117.02098083496">
        <ele>6614.16</ele>
        <time>2026-06-12T14:41:53</time>
      </trkpt>
      <trkpt lat="28.715839385986" lon="117.00514984131">
        <ele>6614.16</ele>
        <time>2026-06-12T14:42:08</time>
      </trkpt>
      <trkpt lat="28.691820144653" lon="116.98393249512">
        <ele>6614.16</ele>
        <time>2026-06-12T14:42:23</time>
      </trkpt>
      <trkpt lat="28.676229476929" lon="116.95877838135">
        <ele>6614.16</ele>
        <time>2026-06-12T14:42:38</time>
      </trkpt>
      <trkpt lat="28.663982391357" lon="116.93276977539">
        <ele>6614.16</ele>
        <time>2026-06-12T14:42:53</time>
      </trkpt>
      <trkpt lat="28.651458740234" lon="116.90546417236">
        <ele>6614.16</ele>
        <time>2026-06-12T14:43:08</time>
      </trkpt>
      <trkpt lat="28.638843536377" lon="116.87810516357">
        <ele>6614.16</ele>
        <time>2026-06-12T14:43:28</time>
      </trkpt>
      <trkpt lat="28.62565612793" lon="116.84953308105">
        <ele>6614.16</ele>
        <time>2026-06-12T14:43:43</time>
      </trkpt>
      <trkpt lat="28.613050460815" lon="116.82219696045">
        <ele>6614.16</ele>
        <time>2026-06-12T14:43:58</time>
      </trkpt>
      <trkpt lat="28.601369857788" lon="116.79694366455">
        <ele>6614.16</ele>
        <time>2026-06-12T14:44:13</time>
      </trkpt>
      <trkpt lat="28.588060379028" lon="116.76802825928">
        <ele>6614.16</ele>
        <time>2026-06-12T14:44:28</time>
      </trkpt>
      <trkpt lat="28.57580947876" lon="116.74141693115">
        <ele>6614.16</ele>
        <time>2026-06-12T14:44:43</time>
      </trkpt>
      <trkpt lat="28.5625" lon="116.71244812012">
        <ele>6614.16</ele>
        <time>2026-06-12T14:44:58</time>
      </trkpt>
      <trkpt lat="28.552185058594" lon="116.68589782715">
        <ele>6614.16</ele>
        <time>2026-06-12T14:45:13</time>
      </trkpt>
      <trkpt lat="28.547649383545" lon="116.65557861328">
        <ele>6614.16</ele>
        <time>2026-06-12T14:45:28</time>
      </trkpt>
      <trkpt lat="28.547149658203" lon="116.62595367432">
        <ele>6614.16</ele>
        <time>2026-06-12T14:45:43</time>
      </trkpt>
      <trkpt lat="28.546716690063" lon="116.59434509277">
        <ele>6614.16</ele>
        <time>2026-06-12T14:46:03</time>
      </trkpt>
      <trkpt lat="28.546279907227" lon="116.56324768066">
        <ele>6614.16</ele>
        <time>2026-06-12T14:46:18</time>
      </trkpt>
      <trkpt lat="28.545785903931" lon="116.53063964844">
        <ele>6614.16</ele>
        <time>2026-06-12T14:46:33</time>
      </trkpt>
      <trkpt lat="28.545274734497" lon="116.50144958496">
        <ele>6614.16</ele>
        <time>2026-06-12T14:46:48</time>
      </trkpt>
      <trkpt lat="28.544719696045" lon="116.47235107422">
        <ele>6614.16</ele>
        <time>2026-06-12T14:47:03</time>
      </trkpt>
      <trkpt lat="28.544082641602" lon="116.44293212891">
        <ele>6614.16</ele>
        <time>2026-06-12T14:47:18</time>
      </trkpt>
      <trkpt lat="28.543395996094" lon="116.41377258301">
        <ele>6614.16</ele>
        <time>2026-06-12T14:47:33</time>
      </trkpt>
      <trkpt lat="28.542760848999" lon="116.38468933105">
        <ele>6614.16</ele>
        <time>2026-06-12T14:47:48</time>
      </trkpt>
      <trkpt lat="28.542114257812" lon="116.35546112061">
        <ele>6614.16</ele>
        <time>2026-06-12T14:48:03</time>
      </trkpt>
      <trkpt lat="28.541362762451" lon="116.32507324219">
        <ele>6614.16</ele>
        <time>2026-06-12T14:48:18</time>
      </trkpt>
      <trkpt lat="28.541381835938" lon="116.29577636719">
        <ele>6614.16</ele>
        <time>2026-06-12T14:48:33</time>
      </trkpt>
      <trkpt lat="28.546005249023" lon="116.26667022705">
        <ele>6614.16</ele>
        <time>2026-06-12T14:48:48</time>
      </trkpt>
      <trkpt lat="28.553237915039" lon="116.23862457275">
        <ele>6614.16</ele>
        <time>2026-06-12T14:49:03</time>
      </trkpt>
      <trkpt lat="28.561241149902" lon="116.20966339111">
        <ele>6614.16</ele>
        <time>2026-06-12T14:49:18</time>
      </trkpt>
      <trkpt lat="28.569295883179" lon="116.18128204346">
        <ele>6614.16</ele>
        <time>2026-06-12T14:49:33</time>
      </trkpt>
      <trkpt lat="28.577270507812" lon="116.1533203125">
        <ele>6614.16</ele>
        <time>2026-06-12T14:49:48</time>
      </trkpt>
      <trkpt lat="28.585447311401" lon="116.12441253662">
        <ele>6614.16</ele>
        <time>2026-06-12T14:50:03</time>
      </trkpt>
      <trkpt lat="28.593566894531" lon="116.09585571289">
        <ele>6614.16</ele>
        <time>2026-06-12T14:50:18</time>
      </trkpt>
      <trkpt lat="28.601554870605" lon="116.06759643555">
        <ele>6614.16</ele>
        <time>2026-06-12T14:50:33</time>
      </trkpt>
      <trkpt lat="28.609609603882" lon="116.03872680664">
        <ele>6659.88</ele>
        <time>2026-06-12T14:50:48</time>
      </trkpt>
      <trkpt lat="28.617755889893" lon="116.00970458984">
        <ele>6774.18</ele>
        <time>2026-06-12T14:51:03</time>
      </trkpt>
      <trkpt lat="28.625839233398" lon="115.98134613037">
        <ele>6865.62</ele>
        <time>2026-06-12T14:51:18</time>
      </trkpt>
      <trkpt lat="28.634328842163" lon="115.95180511475">
        <ele>6941.82</ele>
        <time>2026-06-12T14:51:33</time>
      </trkpt>
      <trkpt lat="28.643005371094" lon="115.92213439941">
        <ele>7010.4</ele>
        <time>2026-06-12T14:51:48</time>
      </trkpt>
      <trkpt lat="28.651880264282" lon="115.89283752441">
        <ele>7109.46</ele>
        <time>2026-06-12T14:52:03</time>
      </trkpt>
      <trkpt lat="28.662631988525" lon="115.86305236816">
        <ele>7178.04</ele>
        <time>2026-06-12T14:52:18</time>
      </trkpt>
      <trkpt lat="28.672079086304" lon="115.83424377441">
        <ele>7193.28</ele>
        <time>2026-06-12T14:52:33</time>
      </trkpt>
      <trkpt lat="28.675712585449" lon="115.80322265625">
        <ele>7200.9</ele>
        <time>2026-06-12T14:52:48</time>
      </trkpt>
      <trkpt lat="28.672315597534" lon="115.77144622803">
        <ele>7193.28</ele>
        <time>2026-06-12T14:53:03</time>
      </trkpt>
      <trkpt lat="28.665657043457" lon="115.74193572998">
        <ele>7193.28</ele>
        <time>2026-06-12T14:53:18</time>
      </trkpt>
      <trkpt lat="28.658432006836" lon="115.71218109131">
        <ele>7193.28</ele>
        <time>2026-06-12T14:53:33</time>
      </trkpt>
      <trkpt lat="28.65087890625" lon="115.6812286377">
        <ele>7193.28</ele>
        <time>2026-06-12T14:53:48</time>
      </trkpt>
      <trkpt lat="28.64381980896" lon="115.65232086182">
        <ele>7193.28</ele>
        <time>2026-06-12T14:54:03</time>
      </trkpt>
      <trkpt lat="28.635955810547" lon="115.62038421631">
        <ele>7193.28</ele>
        <time>2026-06-12T14:54:18</time>
      </trkpt>
      <trkpt lat="28.628648757935" lon="115.59038543701">
        <ele>7193.28</ele>
        <time>2026-06-12T14:54:33</time>
      </trkpt>
      <trkpt lat="28.621433258057" lon="115.56050109863">
        <ele>7193.28</ele>
        <time>2026-06-12T14:54:48</time>
      </trkpt>
      <trkpt lat="28.613658905029" lon="115.52807617188">
        <ele>7193.28</ele>
        <time>2026-06-12T14:55:03</time>
      </trkpt>
      <trkpt lat="28.606658935547" lon="115.49816131592">
        <ele>7193.28</ele>
        <time>2026-06-12T14:55:18</time>
      </trkpt>
      <trkpt lat="28.599609375" lon="115.46784210205">
        <ele>7193.28</ele>
        <time>2026-06-12T14:55:33</time>
      </trkpt>
      <trkpt lat="28.592571258545" lon="115.43808746338">
        <ele>7193.28</ele>
        <time>2026-06-12T14:55:48</time>
      </trkpt>
      <trkpt lat="28.58528137207" lon="115.4077835083">
        <ele>7193.28</ele>
        <time>2026-06-12T14:56:03</time>
      </trkpt>
      <trkpt lat="28.578050613403" lon="115.37750244141">
        <ele>7193.28</ele>
        <time>2026-06-12T14:56:18</time>
      </trkpt>
      <trkpt lat="28.570739746094" lon="115.34739685059">
        <ele>7193.28</ele>
        <time>2026-06-12T14:56:33</time>
      </trkpt>
      <trkpt lat="28.5634765625" lon="115.31772613525">
        <ele>7193.28</ele>
        <time>2026-06-12T14:56:48</time>
      </trkpt>
      <trkpt lat="28.555938720703" lon="115.28677368164">
        <ele>7193.28</ele>
        <time>2026-06-12T14:57:03</time>
      </trkpt>
      <trkpt lat="28.547834396362" lon="115.25654602051">
        <ele>7193.28</ele>
        <time>2026-06-12T14:57:18</time>
      </trkpt>
      <trkpt lat="28.538269042969" lon="115.22814941406">
        <ele>7193.28</ele>
        <time>2026-06-12T14:57:33</time>
      </trkpt>
      <trkpt lat="28.527816772461" lon="115.19989013672">
        <ele>7193.28</ele>
        <time>2026-06-12T14:57:48</time>
      </trkpt>
      <trkpt lat="28.515850067139" lon="115.17178344727">
        <ele>7193.28</ele>
        <time>2026-06-12T14:58:03</time>
      </trkpt>
      <trkpt lat="28.503280639648" lon="115.1438293457">
        <ele>7193.28</ele>
        <time>2026-06-12T14:58:18</time>
      </trkpt>
      <trkpt lat="28.489875793457" lon="115.11372375488">
        <ele>7193.28</ele>
        <time>2026-06-12T14:58:38</time>
      </trkpt>
      <trkpt lat="28.477214813232" lon="115.08544921875">
        <ele>7193.28</ele>
        <time>2026-06-12T14:58:52</time>
      </trkpt>
      <trkpt lat="28.464202880859" lon="115.05643463135">
        <ele>7193.28</ele>
        <time>2026-06-12T14:59:07</time>
      </trkpt>
      <trkpt lat="28.452360153198" lon="115.02976226807">
        <ele>7193.28</ele>
        <time>2026-06-12T14:59:22</time>
      </trkpt>
      <trkpt lat="28.440065383911" lon="115.00186920166">
        <ele>7193.28</ele>
        <time>2026-06-12T14:59:37</time>
      </trkpt>
      <trkpt lat="28.426752090454" lon="114.97143554688">
        <ele>7193.28</ele>
        <time>2026-06-12T14:59:52</time>
      </trkpt>
      <trkpt lat="28.414352416992" lon="114.94287109375">
        <ele>7193.28</ele>
        <time>2026-06-12T15:00:06</time>
      </trkpt>
      <trkpt lat="28.40071105957" lon="114.91144561768">
        <ele>7193.28</ele>
        <time>2026-06-12T15:00:26</time>
      </trkpt>
      <trkpt lat="28.388530731201" lon="114.88355255127">
        <ele>7193.28</ele>
        <time>2026-06-12T15:00:41</time>
      </trkpt>
      <trkpt lat="28.376754760742" lon="114.85317230225">
        <ele>7193.28</ele>
        <time>2026-06-12T15:00:56</time>
      </trkpt>
      <trkpt lat="28.371168136597" lon="114.82306671143">
        <ele>7193.28</ele>
        <time>2026-06-12T15:01:11</time>
      </trkpt>
      <trkpt lat="28.366790771484" lon="114.79038238525">
        <ele>7193.28</ele>
        <time>2026-06-12T15:01:26</time>
      </trkpt>
      <trkpt lat="28.362442016602" lon="114.7590637207">
        <ele>7193.28</ele>
        <time>2026-06-12T15:01:41</time>
      </trkpt>
      <trkpt lat="28.358047485352" lon="114.72858428955">
        <ele>7193.28</ele>
        <time>2026-06-12T15:01:56</time>
      </trkpt>
      <trkpt lat="28.353652954102" lon="114.69827270508">
        <ele>7193.28</ele>
        <time>2026-06-12T15:02:11</time>
      </trkpt>
      <trkpt lat="28.349008560181" lon="114.66689300537">
        <ele>7193.28</ele>
        <time>2026-06-12T15:02:26</time>
      </trkpt>
      <trkpt lat="28.344449996948" lon="114.63610076904">
        <ele>7193.28</ele>
        <time>2026-06-12T15:02:41</time>
      </trkpt>
      <trkpt lat="28.339874267578" lon="114.60541534424">
        <ele>7193.28</ele>
        <time>2026-06-12T15:02:56</time>
      </trkpt>
      <trkpt lat="28.335296630859" lon="114.57488250732">
        <ele>7193.28</ele>
        <time>2026-06-12T15:03:11</time>
      </trkpt>
      <trkpt lat="28.330627441406" lon="114.54340362549">
        <ele>7193.28</ele>
        <time>2026-06-12T15:03:26</time>
      </trkpt>
      <trkpt lat="28.32600402832" lon="114.51197814941">
        <ele>7193.28</ele>
        <time>2026-06-12T15:03:41</time>
      </trkpt>
      <trkpt lat="28.321563720703" lon="114.48171234131">
        <ele>7193.28</ele>
        <time>2026-06-12T15:03:56</time>
      </trkpt>
      <trkpt lat="28.317031860352" lon="114.45070648193">
        <ele>7193.28</ele>
        <time>2026-06-12T15:04:11</time>
      </trkpt>
      <trkpt lat="28.312589645386" lon="114.42044067383">
        <ele>7193.28</ele>
        <time>2026-06-12T15:04:26</time>
      </trkpt>
      <trkpt lat="28.307996749878" lon="114.38916778564">
        <ele>7193.28</ele>
        <time>2026-06-12T15:04:41</time>
      </trkpt>
      <trkpt lat="28.303573608398" lon="114.35901641846">
        <ele>7193.28</ele>
        <time>2026-06-12T15:04:56</time>
      </trkpt>
      <trkpt lat="28.299385070801" lon="114.32707214355">
        <ele>7193.28</ele>
        <time>2026-06-12T15:05:11</time>
      </trkpt>
      <trkpt lat="28.296112060547" lon="114.29737091064">
        <ele>7193.28</ele>
        <time>2026-06-12T15:05:26</time>
      </trkpt>
      <trkpt lat="28.292907714844" lon="114.26684570312">
        <ele>7132.32</ele>
        <time>2026-06-12T15:05:41</time>
      </trkpt>
      <trkpt lat="28.289422988892" lon="114.23460388184">
        <ele>7056.12</ele>
        <time>2026-06-12T15:05:56</time>
      </trkpt>
      <trkpt lat="28.286260604858" lon="114.20606231689">
        <ele>6979.92</ele>
        <time>2026-06-12T15:06:11</time>
      </trkpt>
      <trkpt lat="28.282766342163" lon="114.17530822754">
        <ele>6873.24</ele>
        <time>2026-06-12T15:06:26</time>
      </trkpt>
      <trkpt lat="28.279266357422" lon="114.14462280273">
        <ele>6751.32</ele>
        <time>2026-06-12T15:06:41</time>
      </trkpt>
      <trkpt lat="28.275779724121" lon="114.1146697998">
        <ele>6644.64</ele>
        <time>2026-06-12T15:06:56</time>
      </trkpt>
      <trkpt lat="28.272260665894" lon="114.08441162109">
        <ele>6614.16</ele>
        <time>2026-06-12T15:07:11</time>
      </trkpt>
      <trkpt lat="28.268569946289" lon="114.05310821533">
        <ele>6606.54</ele>
        <time>2026-06-12T15:07:26</time>
      </trkpt>
      <trkpt lat="28.264980316162" lon="114.02272033691">
        <ele>6614.16</ele>
        <time>2026-06-12T15:07:41</time>
      </trkpt>
      <trkpt lat="28.261413574219" lon="113.99276733398">
        <ele>6614.16</ele>
        <time>2026-06-12T15:07:56</time>
      </trkpt>
      <trkpt lat="28.257814407349" lon="113.96241760254">
        <ele>6614.16</ele>
        <time>2026-06-12T15:08:11</time>
      </trkpt>
      <trkpt lat="28.25422668457" lon="113.9323425293">
        <ele>6614.16</ele>
        <time>2026-06-12T15:08:26</time>
      </trkpt>
      <trkpt lat="28.250738143921" lon="113.9024810791">
        <ele>6614.16</ele>
        <time>2026-06-12T15:08:41</time>
      </trkpt>
      <trkpt lat="28.247200012207" lon="113.87226867676">
        <ele>6614.16</ele>
        <time>2026-06-12T15:08:56</time>
      </trkpt>
      <trkpt lat="28.243661880493" lon="113.84205627441">
        <ele>6614.16</ele>
        <time>2026-06-12T15:09:11</time>
      </trkpt>
      <trkpt lat="28.240127563477" lon="113.81212615967">
        <ele>6614.16</ele>
        <time>2026-06-12T15:09:26</time>
      </trkpt>
      <trkpt lat="28.236679077148" lon="113.78265380859">
        <ele>6614.16</ele>
        <time>2026-06-12T15:09:41</time>
      </trkpt>
      <trkpt lat="28.232574462891" lon="113.747215271">
        <ele>6614.16</ele>
        <time>2026-06-12T15:09:56</time>
      </trkpt>
      <trkpt lat="28.229141235352" lon="113.71821594238">
        <ele>6614.16</ele>
        <time>2026-06-12T15:10:11</time>
      </trkpt>
      <trkpt lat="28.225645065308" lon="113.68856811523">
        <ele>6614.16</ele>
        <time>2026-06-12T15:10:26</time>
      </trkpt>
      <trkpt lat="28.222061157227" lon="113.65884399414">
        <ele>6614.16</ele>
        <time>2026-06-12T15:10:41</time>
      </trkpt>
      <trkpt lat="28.219360351562" lon="113.63671112061">
        <ele>6614.16</ele>
        <time>2026-06-12T15:10:55</time>
      </trkpt>
      <trkpt lat="28.215591430664" lon="113.60601043701">
        <ele>6614.16</ele>
        <time>2026-06-12T15:11:10</time>
      </trkpt>
      <trkpt lat="28.211791992188" lon="113.57550048828">
        <ele>6614.16</ele>
        <time>2026-06-12T15:11:25</time>
      </trkpt>
      <trkpt lat="28.208129882812" lon="113.54586791992">
        <ele>6614.16</ele>
        <time>2026-06-12T15:11:40</time>
      </trkpt>
      <trkpt lat="28.20442199707" lon="113.5161819458">
        <ele>6614.16</ele>
        <time>2026-06-12T15:11:55</time>
      </trkpt>
      <trkpt lat="28.200714111328" lon="113.48575592041">
        <ele>6614.16</ele>
        <time>2026-06-12T15:12:10</time>
      </trkpt>
      <trkpt lat="28.197006225586" lon="113.45597076416">
        <ele>6614.16</ele>
        <time>2026-06-12T15:12:25</time>
      </trkpt>
      <trkpt lat="28.193439483643" lon="113.42691802979">
        <ele>6614.16</ele>
        <time>2026-06-12T15:12:40</time>
      </trkpt>
      <trkpt lat="28.189727783203" lon="113.39697265625">
        <ele>6614.16</ele>
        <time>2026-06-12T15:12:55</time>
      </trkpt>
      <trkpt lat="28.186080932617" lon="113.3673324585">
        <ele>6614.16</ele>
        <time>2026-06-12T15:13:10</time>
      </trkpt>
      <trkpt lat="28.182312011719" lon="113.3369140625">
        <ele>6614.16</ele>
        <time>2026-06-12T15:13:25</time>
      </trkpt>
      <trkpt lat="28.178720474243" lon="113.30760192871">
        <ele>6614.16</ele>
        <time>2026-06-12T15:13:40</time>
      </trkpt>
      <trkpt lat="28.175079345703" lon="113.27802276611">
        <ele>6614.16</ele>
        <time>2026-06-12T15:13:55</time>
      </trkpt>
      <trkpt lat="28.171413421631" lon="113.24814605713">
        <ele>6614.16</ele>
        <time>2026-06-12T15:14:10</time>
      </trkpt>
      <trkpt lat="28.167779922485" lon="113.21880340576">
        <ele>6614.16</ele>
        <time>2026-06-12T15:14:25</time>
      </trkpt>
      <trkpt lat="28.164089202881" lon="113.18901824951">
        <ele>6614.16</ele>
        <time>2026-06-12T15:14:40</time>
      </trkpt>
      <trkpt lat="28.160430908203" lon="113.15933990479">
        <ele>6614.16</ele>
        <time>2026-06-12T15:14:55</time>
      </trkpt>
      <trkpt lat="28.156539916992" lon="113.12896728516">
        <ele>6614.16</ele>
        <time>2026-06-12T15:15:10</time>
      </trkpt>
      <trkpt lat="28.15279006958" lon="113.09960174561">
        <ele>6614.16</ele>
        <time>2026-06-12T15:15:25</time>
      </trkpt>
      <trkpt lat="28.149068832397" lon="113.06999969482">
        <ele>6614.16</ele>
        <time>2026-06-12T15:15:40</time>
      </trkpt>
      <trkpt lat="28.14533996582" lon="113.04020690918">
        <ele>6614.16</ele>
        <time>2026-06-12T15:15:55</time>
      </trkpt>
      <trkpt lat="28.141666412354" lon="113.01042938232">
        <ele>6614.16</ele>
        <time>2026-06-12T15:16:10</time>
      </trkpt>
      <trkpt lat="28.13826751709" lon="112.97978973389">
        <ele>6614.16</ele>
        <time>2026-06-12T15:16:25</time>
      </trkpt>
      <trkpt lat="28.136764526367" lon="112.95080566406">
        <ele>6614.16</ele>
        <time>2026-06-12T15:16:40</time>
      </trkpt>
      <trkpt lat="28.136917114258" lon="112.92140960693">
        <ele>6614.16</ele>
        <time>2026-06-12T15:16:55</time>
      </trkpt>
      <trkpt lat="28.138690948486" lon="112.89151763916">
        <ele>6614.16</ele>
        <time>2026-06-12T15:17:10</time>
      </trkpt>
      <trkpt lat="28.140550613403" lon="112.8617401123">
        <ele>6614.16</ele>
        <time>2026-06-12T15:17:25</time>
      </trkpt>
      <trkpt lat="28.142223358154" lon="112.83222961426">
        <ele>6614.16</ele>
        <time>2026-06-12T15:17:40</time>
      </trkpt>
      <trkpt lat="28.143909454346" lon="112.8021774292">
        <ele>6614.16</ele>
        <time>2026-06-12T15:17:55</time>
      </trkpt>
      <trkpt lat="28.145690917969" lon="112.77059173584">
        <ele>6614.16</ele>
        <time>2026-06-12T15:18:10</time>
      </trkpt>
      <trkpt lat="28.147344589233" lon="112.74185943604">
        <ele>6614.16</ele>
        <time>2026-06-12T15:18:25</time>
      </trkpt>
      <trkpt lat="28.149068832397" lon="112.71245574951">
        <ele>6614.16</ele>
        <time>2026-06-12T15:18:40</time>
      </trkpt>
      <trkpt lat="28.150819778442" lon="112.68244171143">
        <ele>6614.16</ele>
        <time>2026-06-12T15:18:55</time>
      </trkpt>
      <trkpt lat="28.15251159668" lon="112.65243530273">
        <ele>6614.16</ele>
        <time>2026-06-12T15:19:10</time>
      </trkpt>
      <trkpt lat="28.154190063477" lon="112.62246704102">
        <ele>6614.16</ele>
        <time>2026-06-12T15:19:25</time>
      </trkpt>
      <trkpt lat="28.155910491943" lon="112.59214782715">
        <ele>6614.16</ele>
        <time>2026-06-12T15:19:40</time>
      </trkpt>
      <trkpt lat="28.157632827759" lon="112.56257629395">
        <ele>6614.16</ele>
        <time>2026-06-12T15:19:55</time>
      </trkpt>
      <trkpt lat="28.15940284729" lon="112.5323638916">
        <ele>6614.16</ele>
        <time>2026-06-12T15:20:10</time>
      </trkpt>
      <trkpt lat="28.161125183105" lon="112.50253295898">
        <ele>6614.16</ele>
        <time>2026-06-12T15:20:25</time>
      </trkpt>
      <trkpt lat="28.162811279297" lon="112.47226715088">
        <ele>6614.16</ele>
        <time>2026-06-12T15:20:40</time>
      </trkpt>
      <trkpt lat="28.164459228516" lon="112.44237518311">
        <ele>6614.16</ele>
        <time>2026-06-12T15:20:55</time>
      </trkpt>
      <trkpt lat="28.166059494019" lon="112.4128112793">
        <ele>6614.16</ele>
        <time>2026-06-12T15:21:10</time>
      </trkpt>
      <trkpt lat="28.167734146118" lon="112.38243865967">
        <ele>6614.16</ele>
        <time>2026-06-12T15:21:25</time>
      </trkpt>
      <trkpt lat="28.169269561768" lon="112.35279083252">
        <ele>6614.16</ele>
        <time>2026-06-12T15:21:40</time>
      </trkpt>
      <trkpt lat="28.172420501709" lon="112.32279205322">
        <ele>6614.16</ele>
        <time>2026-06-12T15:21:55</time>
      </trkpt>
      <trkpt lat="28.179510116577" lon="112.2928237915">
        <ele>6614.16</ele>
        <time>2026-06-12T15:22:10</time>
      </trkpt>
      <trkpt lat="28.188129425049" lon="112.26480102539">
        <ele>6614.16</ele>
        <time>2026-06-12T15:22:25</time>
      </trkpt>
      <trkpt lat="28.197143554688" lon="112.23542785645">
        <ele>6614.16</ele>
        <time>2026-06-12T15:22:40</time>
      </trkpt>
      <trkpt lat="28.206512451172" lon="112.20751953125">
        <ele>6614.16</ele>
        <time>2026-06-12T15:22:55</time>
      </trkpt>
      <trkpt lat="28.217405319214" lon="112.17897033691">
        <ele>6614.16</ele>
        <time>2026-06-12T15:23:10</time>
      </trkpt>
      <trkpt lat="28.227834701538" lon="112.15113067627">
        <ele>6614.16</ele>
        <time>2026-06-12T15:23:25</time>
      </trkpt>
      <trkpt lat="28.238401412964" lon="112.12274932861">
        <ele>6614.16</ele>
        <time>2026-06-12T15:23:40</time>
      </trkpt>
      <trkpt lat="28.248550415039" lon="112.09523010254">
        <ele>6614.16</ele>
        <time>2026-06-12T15:23:55</time>
      </trkpt>
      <trkpt lat="28.258850097656" lon="112.06741333008">
        <ele>6614.16</ele>
        <time>2026-06-12T15:24:10</time>
      </trkpt>
      <trkpt lat="28.269264221191" lon="112.03916931152">
        <ele>6614.16</ele>
        <time>2026-06-12T15:24:25</time>
      </trkpt>
      <trkpt lat="28.279678344727" lon="112.01100158691">
        <ele>6614.16</ele>
        <time>2026-06-12T15:24:40</time>
      </trkpt>
      <trkpt lat="28.291400909424" lon="111.98458862305">
        <ele>6614.16</ele>
        <time>2026-06-12T15:24:55</time>
      </trkpt>
      <trkpt lat="28.30645942688" lon="111.95722961426">
        <ele>6614.16</ele>
        <time>2026-06-12T15:25:10</time>
      </trkpt>
      <trkpt lat="28.322059631348" lon="111.9324798584">
        <ele>6614.16</ele>
        <time>2026-06-12T15:25:25</time>
      </trkpt>
      <trkpt lat="28.337949752808" lon="111.90769195557">
        <ele>6614.16</ele>
        <time>2026-06-12T15:25:40</time>
      </trkpt>
      <trkpt lat="28.354827880859" lon="111.88061523438">
        <ele>6614.16</ele>
        <time>2026-06-12T15:25:55</time>
      </trkpt>
      <trkpt lat="28.369720458984" lon="111.85592651367">
        <ele>6614.16</ele>
        <time>2026-06-12T15:26:10</time>
      </trkpt>
      <trkpt lat="28.384389877319" lon="111.830909729">
        <ele>6614.16</ele>
        <time>2026-06-12T15:26:25</time>
      </trkpt>
      <trkpt lat="28.399660110474" lon="111.8044128418">
        <ele>6614.16</ele>
        <time>2026-06-12T15:26:40</time>
      </trkpt>
      <trkpt lat="28.4088306427" lon="111.78842163086">
        <ele>6614.16</ele>
        <time>2026-06-12T15:26:51</time>
      </trkpt>
      <trkpt lat="28.423830032349" lon="111.76206970215">
        <ele>6614.16</ele>
        <time>2026-06-12T15:27:05</time>
      </trkpt>
      <trkpt lat="28.437879562378" lon="111.73731231689">
        <ele>6614.16</ele>
        <time>2026-06-12T15:27:20</time>
      </trkpt>
      <trkpt lat="28.452310562134" lon="111.71189117432">
        <ele>6614.16</ele>
        <time>2026-06-12T15:27:35</time>
      </trkpt>
      <trkpt lat="28.466630935669" lon="111.6867980957">
        <ele>6614.16</ele>
        <time>2026-06-12T15:27:50</time>
      </trkpt>
      <trkpt lat="28.481309890747" lon="111.66110992432">
        <ele>6614.16</ele>
        <time>2026-06-12T15:28:05</time>
      </trkpt>
      <trkpt lat="28.496110916138" lon="111.63514709473">
        <ele>6614.16</ele>
        <time>2026-06-12T15:28:20</time>
      </trkpt>
      <trkpt lat="28.510173797607" lon="111.61053466797">
        <ele>6614.16</ele>
        <time>2026-06-12T15:28:35</time>
      </trkpt>
      <trkpt lat="28.524600982666" lon="111.58516693115">
        <ele>6614.16</ele>
        <time>2026-06-12T15:28:50</time>
      </trkpt>
      <trkpt lat="28.539129257202" lon="111.55953979492">
        <ele>6614.16</ele>
        <time>2026-06-12T15:29:05</time>
      </trkpt>
      <trkpt lat="28.553829193115" lon="111.53368377686">
        <ele>6614.16</ele>
        <time>2026-06-12T15:29:20</time>
      </trkpt>
      <trkpt lat="28.568529129028" lon="111.50779724121">
        <ele>6614.16</ele>
        <time>2026-06-12T15:29:35</time>
      </trkpt>
      <trkpt lat="28.583030700684" lon="111.48220062256">
        <ele>6614.16</ele>
        <time>2026-06-12T15:29:50</time>
      </trkpt>
      <trkpt lat="28.597459793091" lon="111.45684051514">
        <ele>6614.16</ele>
        <time>2026-06-12T15:30:05</time>
      </trkpt>
      <trkpt lat="28.611839294434" lon="111.43153381348">
        <ele>6614.16</ele>
        <time>2026-06-12T15:30:20</time>
      </trkpt>
      <trkpt lat="28.626529693604" lon="111.40570068359">
        <ele>6614.16</ele>
        <time>2026-06-12T15:30:35</time>
      </trkpt>
      <trkpt lat="28.641679763794" lon="111.37896728516">
        <ele>6614.16</ele>
        <time>2026-06-12T15:30:50</time>
      </trkpt>
      <trkpt lat="28.657649993896" lon="111.35085296631">
        <ele>6614.16</ele>
        <time>2026-06-12T15:31:10</time>
      </trkpt>
      <trkpt lat="28.671197891235" lon="111.32548522949">
        <ele>6560.82</ele>
        <time>2026-06-12T15:31:25</time>
      </trkpt>
      <trkpt lat="28.682180404663" lon="111.29727172852">
        <ele>6484.62</ele>
        <time>2026-06-12T15:31:40</time>
      </trkpt>
      <trkpt lat="28.689960479736" lon="111.26921081543">
        <ele>6408.42</ele>
        <time>2026-06-12T15:31:55</time>
      </trkpt>
      <trkpt lat="28.697500228882" lon="111.24088287354">
        <ele>6339.84</ele>
        <time>2026-06-12T15:32:10</time>
      </trkpt>
      <trkpt lat="28.705629348755" lon="111.21096038818">
        <ele>6263.64</ele>
        <time>2026-06-12T15:32:25</time>
      </trkpt>
      <trkpt lat="28.713680267334" lon="111.18184661865">
        <ele>6179.82</ele>
        <time>2026-06-12T15:32:40</time>
      </trkpt>
      <trkpt lat="28.721990585327" lon="111.15267181396">
        <ele>6096.0</ele>
        <time>2026-06-12T15:32:55</time>
      </trkpt>
      <trkpt lat="28.730621337891" lon="111.12285614014">
        <ele>6027.42</ele>
        <time>2026-06-12T15:33:10</time>
      </trkpt>
      <trkpt lat="28.73842048645" lon="111.09590148926">
        <ele>6004.56</ele>
        <time>2026-06-12T15:33:25</time>
      </trkpt>
      <trkpt lat="28.746839523315" lon="111.06665802002">
        <ele>6004.56</ele>
        <time>2026-06-12T15:33:40</time>
      </trkpt>
      <trkpt lat="28.755319595337" lon="111.03720092773">
        <ele>6004.56</ele>
        <time>2026-06-12T15:33:55</time>
      </trkpt>
      <trkpt lat="28.763700485229" lon="111.00807189941">
        <ele>6004.56</ele>
        <time>2026-06-12T15:34:10</time>
      </trkpt>
      <trkpt lat="28.772590637207" lon="110.9786605835">
        <ele>6004.56</ele>
        <time>2026-06-12T15:34:25</time>
      </trkpt>
      <trkpt lat="28.785900115967" lon="110.95043945312">
        <ele>6004.56</ele>
        <time>2026-06-12T15:34:40</time>
      </trkpt>
      <trkpt lat="28.801639556885" lon="110.9234085083">
        <ele>6004.56</ele>
        <time>2026-06-12T15:34:55</time>
      </trkpt>
      <trkpt lat="28.815950393677" lon="110.89852905273">
        <ele>6004.56</ele>
        <time>2026-06-12T15:35:10</time>
      </trkpt>
      <trkpt lat="28.830410003662" lon="110.87301635742">
        <ele>6004.56</ele>
        <time>2026-06-12T15:35:25</time>
      </trkpt>
      <trkpt lat="28.846189498901" lon="110.84520721436">
        <ele>6004.56</ele>
        <time>2026-06-12T15:35:40</time>
      </trkpt>
      <trkpt lat="28.860349655151" lon="110.82009887695">
        <ele>6004.56</ele>
        <time>2026-06-12T15:35:55</time>
      </trkpt>
      <trkpt lat="28.874950408936" lon="110.79427337646">
        <ele>6004.56</ele>
        <time>2026-06-12T15:36:10</time>
      </trkpt>
      <trkpt lat="28.892030715942" lon="110.76410675049">
        <ele>6004.56</ele>
        <time>2026-06-12T15:36:30</time>
      </trkpt>
      <trkpt lat="28.906799316406" lon="110.73819732666">
        <ele>6004.56</ele>
        <time>2026-06-12T15:36:45</time>
      </trkpt>
      <trkpt lat="28.921600341797" lon="110.71224212646">
        <ele>6004.56</ele>
        <time>2026-06-12T15:37:00</time>
      </trkpt>
      <trkpt lat="28.935754776001" lon="110.68730926514">
        <ele>6004.56</ele>
        <time>2026-06-12T15:37:15</time>
      </trkpt>
      <trkpt lat="28.951770782471" lon="110.65908813477">
        <ele>6004.56</ele>
        <time>2026-06-12T15:37:30</time>
      </trkpt>
      <trkpt lat="28.965549468994" lon="110.63481140137">
        <ele>6004.56</ele>
        <time>2026-06-12T15:37:45</time>
      </trkpt>
      <trkpt lat="28.980024337769" lon="110.60922241211">
        <ele>6004.56</ele>
        <time>2026-06-12T15:38:00</time>
      </trkpt>
      <trkpt lat="28.994499206543" lon="110.58364105225">
        <ele>6004.56</ele>
        <time>2026-06-12T15:38:15</time>
      </trkpt>
      <trkpt lat="29.008710861206" lon="110.55854034424">
        <ele>6004.56</ele>
        <time>2026-06-12T15:38:30</time>
      </trkpt>
      <trkpt lat="29.023643493652" lon="110.53204345703">
        <ele>6004.56</ele>
        <time>2026-06-12T15:38:45</time>
      </trkpt>
      <trkpt lat="29.038509368896" lon="110.5057220459">
        <ele>6004.56</ele>
        <time>2026-06-12T15:39:00</time>
      </trkpt>
      <trkpt lat="29.052879333496" lon="110.48040008545">
        <ele>6004.56</ele>
        <time>2026-06-12T15:39:15</time>
      </trkpt>
      <trkpt lat="29.067729949951" lon="110.45411682129">
        <ele>6004.56</ele>
        <time>2026-06-12T15:39:30</time>
      </trkpt>
      <trkpt lat="29.082250595093" lon="110.4284286499">
        <ele>6004.56</ele>
        <time>2026-06-12T15:39:45</time>
      </trkpt>
      <trkpt lat="29.094449996948" lon="110.40268707275">
        <ele>6004.56</ele>
        <time>2026-06-12T15:40:00</time>
      </trkpt>
      <trkpt lat="29.101589202881" lon="110.37351226807">
        <ele>6004.56</ele>
        <time>2026-06-12T15:40:15</time>
      </trkpt>
      <trkpt lat="29.107530593872" lon="110.34409332275">
        <ele>6004.56</ele>
        <time>2026-06-12T15:40:30</time>
      </trkpt>
      <trkpt lat="29.116060256958" lon="110.30326080322">
        <ele>6004.56</ele>
        <time>2026-06-12T15:40:50</time>
      </trkpt>
      <trkpt lat="29.122289657593" lon="110.27391815186">
        <ele>6004.56</ele>
        <time>2026-06-12T15:41:05</time>
      </trkpt>
      <trkpt lat="29.128620147705" lon="110.24436187744">
        <ele>6004.56</ele>
        <time>2026-06-12T15:41:24</time>
      </trkpt>
      <trkpt lat="29.13524055481" lon="110.21347045898">
        <ele>6004.56</ele>
        <time>2026-06-12T15:41:38</time>
      </trkpt>
      <trkpt lat="29.14142036438" lon="110.18451690674">
        <ele>6004.56</ele>
        <time>2026-06-12T15:41:53</time>
      </trkpt>
      <trkpt lat="29.148099899292" lon="110.15305328369">
        <ele>6004.56</ele>
        <time>2026-06-12T15:42:08</time>
      </trkpt>
      <trkpt lat="29.154830932617" lon="110.12145996094">
        <ele>6004.56</ele>
        <time>2026-06-12T15:42:23</time>
      </trkpt>
      <trkpt lat="29.161066055298" lon="110.09210968018">
        <ele>6004.56</ele>
        <time>2026-06-12T15:42:38</time>
      </trkpt>
      <trkpt lat="29.167165756226" lon="110.06329345703">
        <ele>6004.56</ele>
        <time>2026-06-12T15:42:53</time>
      </trkpt>
      <trkpt lat="29.173540115356" lon="110.0329208374">
        <ele>6004.56</ele>
        <time>2026-06-12T15:43:08</time>
      </trkpt>
      <trkpt lat="29.179689407349" lon="110.00420379639">
        <ele>6004.56</ele>
        <time>2026-06-12T15:43:23</time>
      </trkpt>
      <trkpt lat="29.185640335083" lon="109.97621154785">
        <ele>6004.56</ele>
        <time>2026-06-12T15:43:38</time>
      </trkpt>
      <trkpt lat="29.191860198975" lon="109.94709777832">
        <ele>6004.56</ele>
        <time>2026-06-12T15:43:53</time>
      </trkpt>
      <trkpt lat="29.198089599609" lon="109.91767883301">
        <ele>6004.56</ele>
        <time>2026-06-12T15:44:08</time>
      </trkpt>
      <trkpt lat="29.204872131348" lon="109.88579559326">
        <ele>6004.56</ele>
        <time>2026-06-12T15:44:28</time>
      </trkpt>
      <trkpt lat="29.211229324341" lon="109.85540771484">
        <ele>6004.56</ele>
        <time>2026-06-12T15:44:43</time>
      </trkpt>
      <trkpt lat="29.217409133911" lon="109.82566833496">
        <ele>6004.56</ele>
        <time>2026-06-12T15:44:58</time>
      </trkpt>
      <trkpt lat="29.223770141602" lon="109.79546356201">
        <ele>6004.56</ele>
        <time>2026-06-12T15:45:13</time>
      </trkpt>
      <trkpt lat="29.229959487915" lon="109.76586151123">
        <ele>6004.56</ele>
        <time>2026-06-12T15:45:28</time>
      </trkpt>
      <trkpt lat="29.236110687256" lon="109.73635101318">
        <ele>6004.56</ele>
        <time>2026-06-12T15:45:43</time>
      </trkpt>
      <trkpt lat="29.242170333862" lon="109.70747375488">
        <ele>6004.56</ele>
        <time>2026-06-12T15:45:58</time>
      </trkpt>
      <trkpt lat="29.247747421265" lon="109.67850494385">
        <ele>6004.56</ele>
        <time>2026-06-12T15:46:13</time>
      </trkpt>
      <trkpt lat="29.247840881348" lon="109.64846038818">
        <ele>6004.56</ele>
        <time>2026-06-12T15:46:28</time>
      </trkpt>
      <trkpt lat="29.240570068359" lon="109.61926269531">
        <ele>6004.56</ele>
        <time>2026-06-12T15:46:43</time>
      </trkpt>
      <trkpt lat="29.226379394531" lon="109.59265899658">
        <ele>6004.56</ele>
        <time>2026-06-12T15:46:58</time>
      </trkpt>
      <trkpt lat="29.210510253906" lon="109.56848144531">
        <ele>6004.56</ele>
        <time>2026-06-12T15:47:13</time>
      </trkpt>
      <trkpt lat="29.194059371948" lon="109.5432510376">
        <ele>6004.56</ele>
        <time>2026-06-12T15:47:28</time>
      </trkpt>
      <trkpt lat="29.178590774536" lon="109.51927185059">
        <ele>6004.56</ele>
        <time>2026-06-12T15:47:43</time>
      </trkpt>
      <trkpt lat="29.161905288696" lon="109.49319458008">
        <ele>6004.56</ele>
        <time>2026-06-12T15:47:58</time>
      </trkpt>
      <trkpt lat="29.146640777588" lon="109.46927642822">
        <ele>6004.56</ele>
        <time>2026-06-12T15:48:13</time>
      </trkpt>
      <trkpt lat="29.130390167236" lon="109.44394683838">
        <ele>6004.56</ele>
        <time>2026-06-12T15:48:28</time>
      </trkpt>
      <trkpt lat="29.113719940186" lon="109.41790008545">
        <ele>6004.56</ele>
        <time>2026-06-12T15:48:43</time>
      </trkpt>
      <trkpt lat="29.097839355469" lon="109.39308929443">
        <ele>6004.56</ele>
        <time>2026-06-12T15:48:58</time>
      </trkpt>
      <trkpt lat="29.081449508667" lon="109.36752319336">
        <ele>6004.56</ele>
        <time>2026-06-12T15:49:13</time>
      </trkpt>
      <trkpt lat="29.06529045105" lon="109.34211730957">
        <ele>6004.56</ele>
        <time>2026-06-12T15:49:28</time>
      </trkpt>
      <trkpt lat="29.052110671997" lon="109.30815124512">
        <ele>6004.56</ele>
        <time>2026-06-12T15:49:48</time>
      </trkpt>
      <trkpt lat="29.05078125" lon="109.2752456665">
        <ele>6004.56</ele>
        <time>2026-06-12T15:50:03</time>
      </trkpt>
      <trkpt lat="29.05385017395" lon="109.24555969238">
        <ele>6004.56</ele>
        <time>2026-06-12T15:50:18</time>
      </trkpt>
      <trkpt lat="29.057209014893" lon="109.21395874023">
        <ele>6004.56</ele>
        <time>2026-06-12T15:50:33</time>
      </trkpt>
      <trkpt lat="29.060209274292" lon="109.18576812744">
        <ele>6004.56</ele>
        <time>2026-06-12T15:50:48</time>
      </trkpt>
      <trkpt lat="29.063415527344" lon="109.15534973145">
        <ele>6004.56</ele>
        <time>2026-06-12T15:51:03</time>
      </trkpt>
      <trkpt lat="29.066530227661" lon="109.12609100342">
        <ele>6004.56</ele>
        <time>2026-06-12T15:51:18</time>
      </trkpt>
      <trkpt lat="29.073080062866" lon="109.09703826904">
        <ele>6004.56</ele>
        <time>2026-06-12T15:51:33</time>
      </trkpt>
      <trkpt lat="29.086580276489" lon="109.07041931152">
        <ele>6004.56</ele>
        <time>2026-06-12T15:51:48</time>
      </trkpt>
      <trkpt lat="29.101499557495" lon="109.04586029053">
        <ele>6004.56</ele>
        <time>2026-06-12T15:52:03</time>
      </trkpt>
      <trkpt lat="29.116329193115" lon="109.02131652832">
        <ele>6004.56</ele>
        <time>2026-06-12T15:52:18</time>
      </trkpt>
      <trkpt lat="29.132219314575" lon="108.99472808838">
        <ele>6004.56</ele>
        <time>2026-06-12T15:52:33</time>
      </trkpt>
      <trkpt lat="29.145809173584" lon="108.97344207764">
        <ele>6004.56</ele>
        <time>2026-06-12T15:52:47</time>
      </trkpt>
      <trkpt lat="29.165069580078" lon="108.95539855957">
        <ele>6004.56</ele>
        <time>2026-06-12T15:53:02</time>
      </trkpt>
      <trkpt lat="29.190540313721" lon="108.94496917725">
        <ele>6004.56</ele>
        <time>2026-06-12T15:53:17</time>
      </trkpt>
      <trkpt lat="29.214973449707" lon="108.94274139404">
        <ele>6004.56</ele>
        <time>2026-06-12T15:53:32</time>
      </trkpt>
      <trkpt lat="29.239009857178" lon="108.94142913818">
        <ele>6004.56</ele>
        <time>2026-06-12T15:53:47</time>
      </trkpt>
      <trkpt lat="29.263179779053" lon="108.9400100708">
        <ele>6004.56</ele>
        <time>2026-06-12T15:54:02</time>
      </trkpt>
      <trkpt lat="29.28611946106" lon="108.93862915039">
        <ele>6004.56</ele>
        <time>2026-06-12T15:54:17</time>
      </trkpt>
      <trkpt lat="29.30970954895" lon="108.93720245361">
        <ele>6004.56</ele>
        <time>2026-06-12T15:54:32</time>
      </trkpt>
      <trkpt lat="29.333820343018" lon="108.93572998047">
        <ele>6004.56</ele>
        <time>2026-06-12T15:54:47</time>
      </trkpt>
      <trkpt lat="29.357139587402" lon="108.9342880249">
        <ele>6004.56</ele>
        <time>2026-06-12T15:55:02</time>
      </trkpt>
      <trkpt lat="29.383346557617" lon="108.93260955811">
        <ele>6004.56</ele>
        <time>2026-06-12T15:55:17</time>
      </trkpt>
      <trkpt lat="29.406330108643" lon="108.93119049072">
        <ele>6004.56</ele>
        <time>2026-06-12T15:55:32</time>
      </trkpt>
      <trkpt lat="29.429439544678" lon="108.92971038818">
        <ele>6004.56</ele>
        <time>2026-06-12T15:55:47</time>
      </trkpt>
      <trkpt lat="29.453430175781" lon="108.92823028564">
        <ele>6004.56</ele>
        <time>2026-06-12T15:56:02</time>
      </trkpt>
      <trkpt lat="29.477989196777" lon="108.92664337158">
        <ele>6004.56</ele>
        <time>2026-06-12T15:56:17</time>
      </trkpt>
      <trkpt lat="29.500169754028" lon="108.9252166748">
        <ele>6004.56</ele>
        <time>2026-06-12T15:56:32</time>
      </trkpt>
      <trkpt lat="29.52520942688" lon="108.92362976074">
        <ele>6004.56</ele>
        <time>2026-06-12T15:56:52</time>
      </trkpt>
      <trkpt lat="29.549312591553" lon="108.92206573486">
        <ele>6004.56</ele>
        <time>2026-06-12T15:57:07</time>
      </trkpt>
      <trkpt lat="29.572219848633" lon="108.9206237793">
        <ele>6004.56</ele>
        <time>2026-06-12T15:57:22</time>
      </trkpt>
      <trkpt lat="29.596340179443" lon="108.91903686523">
        <ele>6004.56</ele>
        <time>2026-06-12T15:57:37</time>
      </trkpt>
      <trkpt lat="29.619319915771" lon="108.9175567627">
        <ele>6004.56</ele>
        <time>2026-06-12T15:57:52</time>
      </trkpt>
      <trkpt lat="29.64262008667" lon="108.91607666016">
        <ele>6004.56</ele>
        <time>2026-06-12T15:58:07</time>
      </trkpt>
      <trkpt lat="29.666610717773" lon="108.91455078125">
        <ele>6004.56</ele>
        <time>2026-06-12T15:58:22</time>
      </trkpt>
      <trkpt lat="29.691560745239" lon="108.91291046143">
        <ele>6004.56</ele>
        <time>2026-06-12T15:58:37</time>
      </trkpt>
      <trkpt lat="29.714719772339" lon="108.91143035889">
        <ele>6004.56</ele>
        <time>2026-06-12T15:58:52</time>
      </trkpt>
      <trkpt lat="29.738296508789" lon="108.90995025635">
        <ele>6004.56</ele>
        <time>2026-06-12T15:59:07</time>
      </trkpt>
      <trkpt lat="29.761030197144" lon="108.90849304199">
        <ele>6004.56</ele>
        <time>2026-06-12T15:59:22</time>
      </trkpt>
      <trkpt lat="29.784805297852" lon="108.9069442749">
        <ele>6004.56</ele>
        <time>2026-06-12T15:59:37</time>
      </trkpt>
      <trkpt lat="29.811080932617" lon="108.90525054932">
        <ele>6004.56</ele>
        <time>2026-06-12T15:59:52</time>
      </trkpt>
      <trkpt lat="29.834957122803" lon="108.90370178223">
        <ele>6004.56</ele>
        <time>2026-06-12T16:00:07</time>
      </trkpt>
      <trkpt lat="29.86171913147" lon="108.90197753906">
        <ele>6004.56</ele>
        <time>2026-06-12T16:00:27</time>
      </trkpt>
      <trkpt lat="29.899059295654" lon="108.8995513916">
        <ele>6004.56</ele>
        <time>2026-06-12T16:00:50</time>
      </trkpt>
      <trkpt lat="29.92786026001" lon="108.89766693115">
        <ele>6004.56</ele>
        <time>2026-06-12T16:01:08</time>
      </trkpt>
      <trkpt lat="29.95133972168" lon="108.89615631104">
        <ele>6004.56</ele>
        <time>2026-06-12T16:01:21</time>
      </trkpt>
      <trkpt lat="29.977029800415" lon="108.89444732666">
        <ele>6004.56</ele>
        <time>2026-06-12T16:01:41</time>
      </trkpt>
      <trkpt lat="29.999797821045" lon="108.89296722412">
        <ele>6004.56</ele>
        <time>2026-06-12T16:01:55</time>
      </trkpt>
      <trkpt lat="30.024810791016" lon="108.89137268066">
        <ele>6004.56</ele>
        <time>2026-06-12T16:02:10</time>
      </trkpt>
      <trkpt lat="30.045650482178" lon="108.88999938965">
        <ele>6004.56</ele>
        <time>2026-06-12T16:02:25</time>
      </trkpt>
      <trkpt lat="30.337299346924" lon="108.83392333984">
        <ele>5074.92</ele>
        <time>2026-06-12T16:05:41</time>
      </trkpt>
      <trkpt lat="30.341400146484" lon="108.80618286133">
        <ele>4876.8</ele>
        <time>2026-06-12T16:05:59</time>
      </trkpt>
      <trkpt lat="30.334600448608" lon="108.78079986572">
        <ele>4747.26</ele>
        <time>2026-06-12T16:06:18</time>
      </trkpt>
      <trkpt lat="30.29866027832" lon="108.7274017334">
        <ele>4381.5</ele>
        <time>2026-06-12T16:06:55</time>
      </trkpt>
      <trkpt lat="29.903667449951" lon="108.15048980713">
        <ele>4206.24</ele>
        <time>2026-06-12T16:13:16</time>
      </trkpt>
      <trkpt lat="29.887001037598" lon="108.12631225586">
        <ele>4206.24</ele>
        <time>2026-06-12T16:13:31</time>
      </trkpt>
      <trkpt lat="29.871185302734" lon="108.10324859619">
        <ele>4206.24</ele>
        <time>2026-06-12T16:13:46</time>
      </trkpt>
      <trkpt lat="29.85530090332" lon="108.08026123047">
        <ele>4206.24</ele>
        <time>2026-06-12T16:14:01</time>
      </trkpt>
      <trkpt lat="29.844453811646" lon="108.0645904541">
        <ele>4206.24</ele>
        <time>2026-06-12T16:14:13</time>
      </trkpt>
      <trkpt lat="29.827331542969" lon="108.03992462158">
        <ele>4198.62</ele>
        <time>2026-06-12T16:14:27</time>
      </trkpt>
      <trkpt lat="29.813589096069" lon="108.02011108398">
        <ele>4137.66</ele>
        <time>2026-06-12T16:14:42</time>
      </trkpt>
      <trkpt lat="29.765779495239" lon="107.95128631592">
        <ele>3810.0</ele>
        <time>2026-06-12T16:15:30</time>
      </trkpt>
      <trkpt lat="29.754608154297" lon="107.92984771729">
        <ele>3665.22</ele>
        <time>2026-06-12T16:15:45</time>
      </trkpt>
      <trkpt lat="29.7509765625" lon="107.90367889404">
        <ele>3604.26</ele>
        <time>2026-06-12T16:16:00</time>
      </trkpt>
      <trkpt lat="29.749603271484" lon="107.87760925293">
        <ele>3589.02</ele>
        <time>2026-06-12T16:16:15</time>
      </trkpt>
      <trkpt lat="29.748092651367" lon="107.85108947754">
        <ele>3589.02</ele>
        <time>2026-06-12T16:16:30</time>
      </trkpt>
      <trkpt lat="29.74658203125" lon="107.82441711426">
        <ele>3589.02</ele>
        <time>2026-06-12T16:16:45</time>
      </trkpt>
      <trkpt lat="29.745208740234" lon="107.80017852783">
        <ele>3528.06</ele>
        <time>2026-06-12T16:17:00</time>
      </trkpt>
      <trkpt lat="29.743761062622" lon="107.77545166016">
        <ele>3436.62</ele>
        <time>2026-06-12T16:17:15</time>
      </trkpt>
      <trkpt lat="29.74241065979" lon="107.75234222412">
        <ele>3322.32</ele>
        <time>2026-06-12T16:17:30</time>
      </trkpt>
      <trkpt lat="29.740997314453" lon="107.72871398926">
        <ele>3208.02</ele>
        <time>2026-06-12T16:17:45</time>
      </trkpt>
      <trkpt lat="29.739486694336" lon="107.70420074463">
        <ele>3101.34</ele>
        <time>2026-06-12T16:18:00</time>
      </trkpt>
      <trkpt lat="29.738082885742" lon="107.68147277832">
        <ele>3017.52</ele>
        <time>2026-06-12T16:18:15</time>
      </trkpt>
      <trkpt lat="29.73664855957" lon="107.65867614746">
        <ele>2994.66</ele>
        <time>2026-06-12T16:18:30</time>
      </trkpt>
      <trkpt lat="29.735229492188" lon="107.63527679443">
        <ele>2994.66</ele>
        <time>2026-06-12T16:18:45</time>
      </trkpt>
      <trkpt lat="29.734176635742" lon="107.61636352539">
        <ele>2994.66</ele>
        <time>2026-06-12T16:19:00</time>
      </trkpt>
      <trkpt lat="29.732629776001" lon="107.5894317627">
        <ele>3002.28</ele>
        <time>2026-06-12T16:19:15</time>
      </trkpt>
      <trkpt lat="29.731201171875" lon="107.56587219238">
        <ele>3002.28</ele>
        <time>2026-06-12T16:19:30</time>
      </trkpt>
      <trkpt lat="29.729736328125" lon="107.54331970215">
        <ele>3002.28</ele>
        <time>2026-06-12T16:19:45</time>
      </trkpt>
      <trkpt lat="29.728225708008" lon="107.52071380615">
        <ele>2994.66</ele>
        <time>2026-06-12T16:20:00</time>
      </trkpt>
      <trkpt lat="29.726852416992" lon="107.50042724609">
        <ele>2994.66</ele>
        <time>2026-06-12T16:20:15</time>
      </trkpt>
      <trkpt lat="29.724380493164" lon="107.46266174316">
        <ele>2994.66</ele>
        <time>2026-06-12T16:20:39</time>
      </trkpt>
      <trkpt lat="29.723049163818" lon="107.44222259521">
        <ele>2994.66</ele>
        <time>2026-06-12T16:20:53</time>
      </trkpt>
      <trkpt lat="29.721450805664" lon="107.41618347168">
        <ele>2994.66</ele>
        <time>2026-06-12T16:21:08</time>
      </trkpt>
      <trkpt lat="29.71973991394" lon="107.38877105713">
        <ele>2994.66</ele>
        <time>2026-06-12T16:21:27</time>
      </trkpt>
      <trkpt lat="29.717506408691" lon="107.3546295166">
        <ele>2994.66</ele>
        <time>2026-06-12T16:21:47</time>
      </trkpt>
      <trkpt lat="29.716249465942" lon="107.33615875244">
        <ele>2994.66</ele>
        <time>2026-06-12T16:22:02</time>
      </trkpt>
      <trkpt lat="29.714540481567" lon="107.31027984619">
        <ele>2994.66</ele>
        <time>2026-06-12T16:22:16</time>
      </trkpt>
      <trkpt lat="29.713069915771" lon="107.28740692139">
        <ele>2994.66</ele>
        <time>2026-06-12T16:22:30</time>
      </trkpt>
      <trkpt lat="29.711685180664" lon="107.26452636719">
        <ele>2994.66</ele>
        <time>2026-06-12T16:22:45</time>
      </trkpt>
      <trkpt lat="29.710380554199" lon="107.24471282959">
        <ele>2994.66</ele>
        <time>2026-06-12T16:23:00</time>
      </trkpt>
      <trkpt lat="29.708570480347" lon="107.21756744385">
        <ele>2994.66</ele>
        <time>2026-06-12T16:23:15</time>
      </trkpt>
      <trkpt lat="29.706939697266" lon="107.19381713867">
        <ele>2994.66</ele>
        <time>2026-06-12T16:23:30</time>
      </trkpt>
      <trkpt lat="29.705699920654" lon="107.17501068115">
        <ele>2994.66</ele>
        <time>2026-06-12T16:23:45</time>
      </trkpt>
      <trkpt lat="29.704010009766" lon="107.14827728271">
        <ele>2994.66</ele>
        <time>2026-06-12T16:24:00</time>
      </trkpt>
      <trkpt lat="29.702499389648" lon="107.12467193604">
        <ele>2971.8</ele>
        <time>2026-06-12T16:24:15</time>
      </trkpt>
      <trkpt lat="29.700939178467" lon="107.10111999512">
        <ele>2895.6</ele>
        <time>2026-06-12T16:24:30</time>
      </trkpt>
      <trkpt lat="29.699300765991" lon="107.07676696777">
        <ele>2773.68</ele>
        <time>2026-06-12T16:24:45</time>
      </trkpt>
      <trkpt lat="29.69766998291" lon="107.05239868164">
        <ele>2621.28</ele>
        <time>2026-06-12T16:25:00</time>
      </trkpt>
      <trkpt lat="29.696138381958" lon="107.02891540527">
        <ele>2522.22</ele>
        <time>2026-06-12T16:25:15</time>
      </trkpt>
      <trkpt lat="29.694759368896" lon="107.00662231445">
        <ele>2446.02</ele>
        <time>2026-06-12T16:25:30</time>
      </trkpt>
      <trkpt lat="29.693435668945" lon="106.98728942871">
        <ele>2423.16</ele>
        <time>2026-06-12T16:25:45</time>
      </trkpt>
      <trkpt lat="29.691925048828" lon="106.96569061279">
        <ele>2415.54</ele>
        <time>2026-06-12T16:26:00</time>
      </trkpt>
      <trkpt lat="29.690319061279" lon="106.94302368164">
        <ele>2415.54</ele>
        <time>2026-06-12T16:26:14</time>
      </trkpt>
      <trkpt lat="29.688537597656" lon="106.91804504395">
        <ele>2415.54</ele>
        <time>2026-06-12T16:26:29</time>
      </trkpt>
      <trkpt lat="29.686981201172" lon="106.89559936523">
        <ele>2415.54</ele>
        <time>2026-06-12T16:26:44</time>
      </trkpt>
      <trkpt lat="29.687620162964" lon="106.87494659424">
        <ele>2415.54</ele>
        <time>2026-06-12T16:26:59</time>
      </trkpt>
      <trkpt lat="29.692932128906" lon="106.85530090332">
        <ele>2423.16</ele>
        <time>2026-06-12T16:27:14</time>
      </trkpt>
      <trkpt lat="29.69818687439" lon="106.83628082275">
        <ele>2415.54</ele>
        <time>2026-06-12T16:27:29</time>
      </trkpt>
      <trkpt lat="29.702819824219" lon="106.81874847412">
        <ele>2423.16</ele>
        <time>2026-06-12T16:27:44</time>
      </trkpt>
      <trkpt lat="29.707220077515" lon="106.80272674561">
        <ele>2423.16</ele>
        <time>2026-06-12T16:27:59</time>
      </trkpt>
      <trkpt lat="29.719829559326" lon="106.78861999512">
        <ele>2415.54</ele>
        <time>2026-06-12T16:28:19</time>
      </trkpt>
      <trkpt lat="29.735010147095" lon="106.78942871094">
        <ele>2423.16</ele>
        <time>2026-06-12T16:28:39</time>
      </trkpt>
      <trkpt lat="29.748920440674" lon="106.79550933838">
        <ele>2415.54</ele>
        <time>2026-06-12T16:28:54</time>
      </trkpt>
      <trkpt lat="29.762050628662" lon="106.80052947998">
        <ele>2415.54</ele>
        <time>2026-06-12T16:29:09</time>
      </trkpt>
      <trkpt lat="29.77931022644" lon="106.80618286133">
        <ele>2415.54</ele>
        <time>2026-06-12T16:29:29</time>
      </trkpt>
      <trkpt lat="29.791530609131" lon="106.81002807617">
        <ele>2415.54</ele>
        <time>2026-06-12T16:29:44</time>
      </trkpt>
      <trkpt lat="29.804859161377" lon="106.81414794922">
        <ele>2415.54</ele>
        <time>2026-06-12T16:29:59</time>
      </trkpt>
      <trkpt lat="29.818359375" lon="106.81848144531">
        <ele>2415.54</ele>
        <time>2026-06-12T16:30:14</time>
      </trkpt>
      <trkpt lat="29.832349777222" lon="106.82308197021">
        <ele>2415.54</ele>
        <time>2026-06-12T16:30:34</time>
      </trkpt>
      <trkpt lat="29.84534072876" lon="106.82760620117">
        <ele>2415.54</ele>
        <time>2026-06-12T16:30:49</time>
      </trkpt>
      <trkpt lat="29.857580184937" lon="106.83202362061">
        <ele>2415.54</ele>
        <time>2026-06-12T16:31:04</time>
      </trkpt>
      <trkpt lat="29.87228012085" lon="106.83722686768">
        <ele>2415.54</ele>
        <time>2026-06-12T16:31:19</time>
      </trkpt>
      <trkpt lat="29.884910583496" lon="106.84172058105">
        <ele>2415.54</ele>
        <time>2026-06-12T16:31:34</time>
      </trkpt>
      <trkpt lat="29.899929046631" lon="106.84706115723">
        <ele>2407.92</ele>
        <time>2026-06-12T16:31:49</time>
      </trkpt>
      <trkpt lat="29.910278320312" lon="106.85075378418">
        <ele>2346.96</ele>
        <time>2026-06-12T16:32:04</time>
      </trkpt>
      <trkpt lat="29.923233032227" lon="106.85534667969">
        <ele>2247.9</ele>
        <time>2026-06-12T16:32:19</time>
      </trkpt>
      <trkpt lat="29.937417984009" lon="106.86027526855">
        <ele>2148.84</ele>
        <time>2026-06-12T16:32:34</time>
      </trkpt>
      <trkpt lat="29.949920654297" lon="106.86466217041">
        <ele>2065.02</ele>
        <time>2026-06-12T16:32:49</time>
      </trkpt>
      <trkpt lat="29.962184906006" lon="106.86890411377">
        <ele>1973.58</ele>
        <time>2026-06-12T16:33:04</time>
      </trkpt>
      <trkpt lat="29.975143432617" lon="106.87343597412">
        <ele>1889.76</ele>
        <time>2026-06-12T16:33:19</time>
      </trkpt>
      <trkpt lat="29.987089157104" lon="106.87675476074">
        <ele>1828.8</ele>
        <time>2026-06-12T16:33:34</time>
      </trkpt>
      <trkpt lat="29.99688911438" lon="106.87397766113">
        <ele>1813.56</ele>
        <time>2026-06-12T16:33:49</time>
      </trkpt>
      <trkpt lat="30.005218505859" lon="106.86260986328">
        <ele>1805.94</ele>
        <time>2026-06-12T16:34:04</time>
      </trkpt>
      <trkpt lat="30.009429931641" lon="106.84651184082">
        <ele>1760.22</ele>
        <time>2026-06-12T16:34:19</time>
      </trkpt>
      <trkpt lat="30.015380859375" lon="106.819480896">
        <ele>1615.44</ele>
        <time>2026-06-12T16:34:49</time>
      </trkpt>
      <trkpt lat="30.016839981079" lon="106.80145263672">
        <ele>1524.0</ele>
        <time>2026-06-12T16:35:08</time>
      </trkpt>
      <trkpt lat="30.010620117188" lon="106.79002380371">
        <ele>1508.76</ele>
        <time>2026-06-12T16:35:23</time>
      </trkpt>
      <trkpt lat="30.001510620117" lon="106.77902984619">
        <ele>1501.14</ele>
        <time>2026-06-12T16:35:38</time>
      </trkpt>
      <trkpt lat="29.991930007935" lon="106.76805114746">
        <ele>1501.14</ele>
        <time>2026-06-12T16:35:53</time>
      </trkpt>
      <trkpt lat="29.981599807739" lon="106.75997161865">
        <ele>1501.14</ele>
        <time>2026-06-12T16:36:08</time>
      </trkpt>
      <trkpt lat="29.968189239502" lon="106.75399017334">
        <ele>1501.14</ele>
        <time>2026-06-12T16:36:23</time>
      </trkpt>
      <trkpt lat="29.956190109253" lon="106.74947357178">
        <ele>1501.14</ele>
        <time>2026-06-12T16:36:38</time>
      </trkpt>
      <trkpt lat="29.942770004272" lon="106.74475860596">
        <ele>1501.14</ele>
        <time>2026-06-12T16:36:53</time>
      </trkpt>
      <trkpt lat="29.932430267334" lon="106.74111938477">
        <ele>1493.52</ele>
        <time>2026-06-12T16:37:08</time>
      </trkpt>
      <trkpt lat="29.914979934692" lon="106.73513793945">
        <ele>1417.32</ele>
        <time>2026-06-12T16:37:25</time>
      </trkpt>
      <trkpt lat="29.901950836182" lon="106.73059082031">
        <ele>1341.12</ele>
        <time>2026-06-12T16:37:40</time>
      </trkpt>
      <trkpt lat="29.890729904175" lon="106.72673797607">
        <ele>1272.54</ele>
        <time>2026-06-12T16:37:55</time>
      </trkpt>
      <trkpt lat="29.872249603271" lon="106.7202835083">
        <ele>1150.62</ele>
        <time>2026-06-12T16:38:24</time>
      </trkpt>
      <trkpt lat="29.862489700317" lon="106.71691131592">
        <ele>1089.66</ele>
        <time>2026-06-12T16:38:39</time>
      </trkpt>
      <trkpt lat="29.852600097656" lon="106.71347808838">
        <ele>1036.32</ele>
        <time>2026-06-12T16:38:54</time>
      </trkpt>
      <trkpt lat="29.842269897461" lon="106.70987701416">
        <ele>975.36</ele>
        <time>2026-06-12T16:39:09</time>
      </trkpt>
      <trkpt lat="29.832050323486" lon="106.70635223389">
        <ele>914.4</ele>
        <time>2026-06-12T16:39:23</time>
      </trkpt>
      <trkpt lat="29.8180809021" lon="106.70149230957">
        <ele>830.58</ele>
        <time>2026-06-12T16:39:48</time>
      </trkpt>
      <trkpt lat="29.802230834961" lon="106.69599151611">
        <ele>731.52</ele>
        <time>2026-06-12T16:40:08</time>
      </trkpt>
      <trkpt lat="29.791759490967" lon="106.6923828125">
        <ele>678.18</ele>
        <time>2026-06-12T16:40:28</time>
      </trkpt>
      <trkpt lat="29.782350540161" lon="106.68908691406">
        <ele>617.22</ele>
        <time>2026-06-12T16:40:43</time>
      </trkpt>
      <trkpt lat="29.771879196167" lon="106.68549346924">
        <ele>556.26</ele>
        <time>2026-06-12T16:40:58</time>
      </trkpt>
      <trkpt lat="29.761730194092" lon="106.68199920654">
        <ele>495.3</ele>
        <time>2026-06-12T16:41:13</time>
      </trkpt>
      <trkpt lat="29.751979827881" lon="106.67861938477">
        <ele>434.34</ele>
        <time>2026-06-12T16:41:28</time>
      </trkpt>
      <trkpt lat="29.735929489136" lon="106.67304992676">
        <ele>434.34</ele>
        <time>2026-06-12T16:41:55</time>
      </trkpt>
      <trkpt lat="29.732210159302" lon="106.67176818848">
        <ele>434.34</ele>
        <time>2026-06-12T16:42:09</time>
      </trkpt>
      <trkpt lat="29.730630874634" lon="106.67086791992">
        <ele>434.34</ele>
        <time>2026-06-12T16:42:24</time>
      </trkpt>
      <trkpt lat="29.72979927063" lon="106.67002105713">
        <ele>434.34</ele>
        <time>2026-06-12T16:42:38</time>
      </trkpt>
      <trkpt lat="29.728960037231" lon="106.669090271">
        <ele>434.34</ele>
        <time>2026-06-12T16:42:52</time>
      </trkpt>
      <trkpt lat="29.728120803833" lon="106.66835021973">
        <ele>434.34</ele>
        <time>2026-06-12T16:43:11</time>
      </trkpt>
      <trkpt lat="29.727039337158" lon="106.66792297363">
        <ele>434.34</ele>
        <time>2026-06-12T16:43:25</time>
      </trkpt>
      <trkpt lat="29.726390838623" lon="106.6676864624">
        <ele>434.34</ele>
        <time>2026-06-12T16:43:40</time>
      </trkpt>
      <trkpt lat="29.732629776001" lon="106.66470336914">
        <ele>434.34</ele>
        <time>2026-06-12T16:46:15</time>
      </trkpt>
      <trkpt lat="29.734260559082" lon="106.66526794434">
        <ele>434.34</ele>
        <time>2026-06-12T16:46:33</time>
      </trkpt>
      <trkpt lat="29.735460281372" lon="106.66533660889">
        <ele>434.34</ele>
        <time>2026-06-12T16:47:03</time>
      </trkpt>
      <trkpt lat="29.735540390015" lon="106.66506958008">
        <ele>434.34</ele>
        <time>2026-06-12T16:47:04</time>
      </trkpt>
      <trkpt lat="29.735689163208" lon="106.66448974609">
        <ele>434.34</ele>
        <time>2026-06-12T16:47:18</time>
      </trkpt>
      <trkpt lat="29.73623085022" lon="106.66230010986">
        <ele>434.34</ele>
        <time>2026-06-12T16:48:01</time>
      </trkpt>
      <trkpt lat="29.735849380493" lon="106.66195678711">
        <ele>434.34</ele>
        <time>2026-06-12T16:48:15</time>
      </trkpt>
      <trkpt lat="29.735330581665" lon="106.66136932373">
        <ele>434.34</ele>
        <time>2026-06-12T16:48:39</time>
      </trkpt>
      <trkpt lat="29.735130310059" lon="106.66088867188">
        <ele>434.34</ele>
        <time>2026-06-12T16:48:52</time>
      </trkpt>
      <trkpt lat="29.734819412231" lon="106.66015625">
        <ele>434.34</ele>
        <time>2026-06-12T16:49:08</time>
      </trkpt>
    </trkseg>
  </trk>
</gpx>