<?xml version="1.0" encoding="UTF-8"?>
<gpx xmlns="http://www.topografix.com/GPX/1/1" xmlns:xsi="http://www.w3.org/2001/XMLSchema-instance" xsi:schemaLocation="http://www.topografix.com/GPX/1/1 http://www.topografix.com/GPX/1/1/gpx.xsd" version="1.1" creator="gpx.py -- https://github.com/tkrajina/gpxpy">
  <trk>
    <name>Variflight_MU9603_20260704.csv</name>
    <trkseg>
      <trkpt lat="25.112445831299" lon="102.94578552246">
        <ele>1895.0</ele>
        <time>2026-07-04T23:44:40</time>
      </trkpt>
      <trkpt lat="25.112442016602" lon="102.94577789307">
        <ele>1895.0</ele>
        <time>2026-07-04T23:44:45</time>
      </trkpt>
      <trkpt lat="25.112442016602" lon="102.94579315186">
        <ele>1895.0</ele>
        <time>2026-07-04T23:44:50</time>
      </trkpt>
      <trkpt lat="25.112445831299" lon="102.94578552246">
        <ele>1895.0</ele>
        <time>2026-07-04T23:44:56</time>
      </trkpt>
      <trkpt lat="25.112445831299" lon="102.94578552246">
        <ele>1895.0</ele>
        <time>2026-07-04T23:45:00</time>
      </trkpt>
      <trkpt lat="25.112442016602" lon="102.94579315186">
        <ele>1895.0</ele>
        <time>2026-07-04T23:45:05</time>
      </trkpt>
      <trkpt lat="25.112445831299" lon="102.94578552246">
        <ele>1895.0</ele>
        <time>2026-07-04T23:45:15</time>
      </trkpt>
      <trkpt lat="25.112445831299" lon="102.94578552246">
        <ele>1895.0</ele>
        <time>2026-07-04T23:45:16</time>
      </trkpt>
      <trkpt lat="25.112442016602" lon="102.94579315186">
        <ele>1895.0</ele>
        <time>2026-07-04T23:45:21</time>
      </trkpt>
      <trkpt lat="25.112442016602" lon="102.94579315186">
        <ele>1895.0</ele>
        <time>2026-07-04T23:45:26</time>
      </trkpt>
      <trkpt lat="25.112445831299" lon="102.94578552246">
        <ele>1895.0</ele>
        <time>2026-07-04T23:45:31</time>
      </trkpt>
      <trkpt lat="25.112442016602" lon="102.94579315186">
        <ele>1895.0</ele>
        <time>2026-07-04T23:45:41</time>
      </trkpt>
      <trkpt lat="25.112442016602" lon="102.94579315186">
        <ele>1895.0</ele>
        <time>2026-07-04T23:45:46</time>
      </trkpt>
      <trkpt lat="25.112442016602" lon="102.94579315186">
        <ele>1895.0</ele>
        <time>2026-07-04T23:45:56</time>
      </trkpt>
      <trkpt lat="25.112442016602" lon="102.94579315186">
        <ele>1895.0</ele>
        <time>2026-07-04T23:46:01</time>
      </trkpt>
      <trkpt lat="25.112445831299" lon="102.94578552246">
        <ele>1895.0</ele>
        <time>2026-07-04T23:46:06</time>
      </trkpt>
      <trkpt lat="25.112442016602" lon="102.94579315186">
        <ele>1895.0</ele>
        <time>2026-07-04T23:46:12</time>
      </trkpt>
      <trkpt lat="25.112445831299" lon="102.94578552246">
        <ele>1895.0</ele>
        <time>2026-07-04T23:46:16</time>
      </trkpt>
      <trkpt lat="25.112445831299" lon="102.94578552246">
        <ele>1895.0</ele>
        <time>2026-07-04T23:46:21</time>
      </trkpt>
      <trkpt lat="25.112442016602" lon="102.94579315186">
        <ele>1895.0</ele>
        <time>2026-07-04T23:46:25</time>
      </trkpt>
      <trkpt lat="25.112445831299" lon="102.94578552246">
        <ele>1895.0</ele>
        <time>2026-07-04T23:46:30</time>
      </trkpt>
      <trkpt lat="25.112442016602" lon="102.94579315186">
        <ele>1895.0</ele>
        <time>2026-07-04T23:46:35</time>
      </trkpt>
      <trkpt lat="25.112445831299" lon="102.94578552246">
        <ele>1895.0</ele>
        <time>2026-07-04T23:46:41</time>
      </trkpt>
      <trkpt lat="25.112442016602" lon="102.94579315186">
        <ele>1895.0</ele>
        <time>2026-07-04T23:46:45</time>
      </trkpt>
      <trkpt lat="25.112445831299" lon="102.94578552246">
        <ele>1895.0</ele>
        <time>2026-07-04T23:46:50</time>
      </trkpt>
      <trkpt lat="25.112442016602" lon="102.94579315186">
        <ele>1895.0</ele>
        <time>2026-07-04T23:46:55</time>
      </trkpt>
      <trkpt lat="25.112445831299" lon="102.94578552246">
        <ele>1895.0</ele>
        <time>2026-07-04T23:47:05</time>
      </trkpt>
      <trkpt lat="25.112442016602" lon="102.94579315186">
        <ele>1895.0</ele>
        <time>2026-07-04T23:47:15</time>
      </trkpt>
      <trkpt lat="25.112442016602" lon="102.94579315186">
        <ele>1895.0</ele>
        <time>2026-07-04T23:47:20</time>
      </trkpt>
      <trkpt lat="25.112442016602" lon="102.94579315186">
        <ele>1895.0</ele>
        <time>2026-07-04T23:47:25</time>
      </trkpt>
      <trkpt lat="25.112442016602" lon="102.94579315186">
        <ele>1895.0</ele>
        <time>2026-07-04T23:47:30</time>
      </trkpt>
      <trkpt lat="25.112445831299" lon="102.94578552246">
        <ele>1895.0</ele>
        <time>2026-07-04T23:47:35</time>
      </trkpt>
      <trkpt lat="25.112445831299" lon="102.94578552246">
        <ele>1895.0</ele>
        <time>2026-07-04T23:47:40</time>
      </trkpt>
      <trkpt lat="25.112445831299" lon="102.94578552246">
        <ele>1895.0</ele>
        <time>2026-07-04T23:47:50</time>
      </trkpt>
      <trkpt lat="25.112445831299" lon="102.94578552246">
        <ele>1895.0</ele>
        <time>2026-07-04T23:48:00</time>
      </trkpt>
      <trkpt lat="25.112445831299" lon="102.94578552246">
        <ele>1895.0</ele>
        <time>2026-07-04T23:48:06</time>
      </trkpt>
      <trkpt lat="25.112442016602" lon="102.94579315186">
        <ele>1895.0</ele>
        <time>2026-07-04T23:48:11</time>
      </trkpt>
      <trkpt lat="25.112442016602" lon="102.94579315186">
        <ele>1895.0</ele>
        <time>2026-07-04T23:48:16</time>
      </trkpt>
      <trkpt lat="25.112442016602" lon="102.94579315186">
        <ele>1895.0</ele>
        <time>2026-07-04T23:48:20</time>
      </trkpt>
      <trkpt lat="25.112442016602" lon="102.94579315186">
        <ele>1895.0</ele>
        <time>2026-07-04T23:48:25</time>
      </trkpt>
      <trkpt lat="25.112442016602" lon="102.94579315186">
        <ele>1895.0</ele>
        <time>2026-07-04T23:48:30</time>
      </trkpt>
      <trkpt lat="25.112442016602" lon="102.94579315186">
        <ele>1895.0</ele>
        <time>2026-07-04T23:48:36</time>
      </trkpt>
      <trkpt lat="25.112445831299" lon="102.94578552246">
        <ele>1895.0</ele>
        <time>2026-07-04T23:48:41</time>
      </trkpt>
      <trkpt lat="25.112442016602" lon="102.94579315186">
        <ele>1895.0</ele>
        <time>2026-07-04T23:48:45</time>
      </trkpt>
      <trkpt lat="25.112445831299" lon="102.94578552246">
        <ele>1895.0</ele>
        <time>2026-07-04T23:48:50</time>
      </trkpt>
      <trkpt lat="25.112445831299" lon="102.94578552246">
        <ele>1895.0</ele>
        <time>2026-07-04T23:48:55</time>
      </trkpt>
      <trkpt lat="25.112445831299" lon="102.94578552246">
        <ele>1895.0</ele>
        <time>2026-07-04T23:49:05</time>
      </trkpt>
      <trkpt lat="25.112442016602" lon="102.94577789307">
        <ele>1895.0</ele>
        <time>2026-07-04T23:49:10</time>
      </trkpt>
      <trkpt lat="25.112442016602" lon="102.94577789307">
        <ele>1895.0</ele>
        <time>2026-07-04T23:49:15</time>
      </trkpt>
      <trkpt lat="25.112442016602" lon="102.94577789307">
        <ele>1895.0</ele>
        <time>2026-07-04T23:49:20</time>
      </trkpt>
      <trkpt lat="25.112442016602" lon="102.94577789307">
        <ele>1895.0</ele>
        <time>2026-07-04T23:49:25</time>
      </trkpt>
      <trkpt lat="25.112442016602" lon="102.94577789307">
        <ele>1895.0</ele>
        <time>2026-07-04T23:49:30</time>
      </trkpt>
      <trkpt lat="25.112442016602" lon="102.94577789307">
        <ele>1895.0</ele>
        <time>2026-07-04T23:49:35</time>
      </trkpt>
      <trkpt lat="25.112442016602" lon="102.94577789307">
        <ele>1895.0</ele>
        <time>2026-07-04T23:49:40</time>
      </trkpt>
      <trkpt lat="25.112442016602" lon="102.94577789307">
        <ele>1895.0</ele>
        <time>2026-07-04T23:49:50</time>
      </trkpt>
      <trkpt lat="25.112445831299" lon="102.94578552246">
        <ele>1895.0</ele>
        <time>2026-07-04T23:49:55</time>
      </trkpt>
      <trkpt lat="25.112445831299" lon="102.94578552246">
        <ele>1895.0</ele>
        <time>2026-07-04T23:50:00</time>
      </trkpt>
      <trkpt lat="25.112442016602" lon="102.94577789307">
        <ele>1895.0</ele>
        <time>2026-07-04T23:50:05</time>
      </trkpt>
      <trkpt lat="25.112442016602" lon="102.94577789307">
        <ele>1895.0</ele>
        <time>2026-07-04T23:50:10</time>
      </trkpt>
      <trkpt lat="25.112442016602" lon="102.94577789307">
        <ele>1895.0</ele>
        <time>2026-07-04T23:50:20</time>
      </trkpt>
      <trkpt lat="25.112445831299" lon="102.94578552246">
        <ele>1895.0</ele>
        <time>2026-07-04T23:50:25</time>
      </trkpt>
      <trkpt lat="25.112445831299" lon="102.94578552246">
        <ele>1895.0</ele>
        <time>2026-07-04T23:50:30</time>
      </trkpt>
      <trkpt lat="25.112445831299" lon="102.94578552246">
        <ele>1895.0</ele>
        <time>2026-07-04T23:50:35</time>
      </trkpt>
      <trkpt lat="25.112445831299" lon="102.94578552246">
        <ele>1895.0</ele>
        <time>2026-07-04T23:50:40</time>
      </trkpt>
      <trkpt lat="25.112445831299" lon="102.94578552246">
        <ele>1895.0</ele>
        <time>2026-07-04T23:50:45</time>
      </trkpt>
      <trkpt lat="25.11243057251" lon="102.94579315186">
        <ele>1895.0</ele>
        <time>2026-07-04T23:50:50</time>
      </trkpt>
      <trkpt lat="25.112407684326" lon="102.94583129883">
        <ele>1895.0</ele>
        <time>2026-07-04T23:50:55</time>
      </trkpt>
      <trkpt lat="25.11236000061" lon="102.94588470459">
        <ele>1895.0</ele>
        <time>2026-07-04T23:51:00</time>
      </trkpt>
      <trkpt lat="25.112285614014" lon="102.94599151611">
        <ele>1895.0</ele>
        <time>2026-07-04T23:51:05</time>
      </trkpt>
      <trkpt lat="25.112209320068" lon="102.94610595703">
        <ele>1895.0</ele>
        <time>2026-07-04T23:51:10</time>
      </trkpt>
      <trkpt lat="25.11213684082" lon="102.94620513916">
        <ele>1895.0</ele>
        <time>2026-07-04T23:51:15</time>
      </trkpt>
      <trkpt lat="25.112058639526" lon="102.9462890625">
        <ele>1895.0</ele>
        <time>2026-07-04T23:51:20</time>
      </trkpt>
      <trkpt lat="25.111919403076" lon="102.94631958008">
        <ele>1895.0</ele>
        <time>2026-07-04T23:51:25</time>
      </trkpt>
      <trkpt lat="25.111782073975" lon="102.94626617432">
        <ele>1895.0</ele>
        <time>2026-07-04T23:51:30</time>
      </trkpt>
      <trkpt lat="25.111633300781" lon="102.94616699219">
        <ele>1895.0</ele>
        <time>2026-07-04T23:51:35</time>
      </trkpt>
      <trkpt lat="25.111473083496" lon="102.94602966309">
        <ele>1895.0</ele>
        <time>2026-07-04T23:51:40</time>
      </trkpt>
      <trkpt lat="25.111301422119" lon="102.94588470459">
        <ele>1895.0</ele>
        <time>2026-07-04T23:51:45</time>
      </trkpt>
      <trkpt lat="25.111129760742" lon="102.9457244873">
        <ele>1895.0</ele>
        <time>2026-07-04T23:51:50</time>
      </trkpt>
      <trkpt lat="25.110940933228" lon="102.94556427002">
        <ele>1895.0</ele>
        <time>2026-07-04T23:51:55</time>
      </trkpt>
      <trkpt lat="25.110729217529" lon="102.94538116455">
        <ele>1895.0</ele>
        <time>2026-07-04T23:52:00</time>
      </trkpt>
      <trkpt lat="25.110544204712" lon="102.94522094727">
        <ele>1895.0</ele>
        <time>2026-07-04T23:52:05</time>
      </trkpt>
      <trkpt lat="25.110363006592" lon="102.94506072998">
        <ele>1895.0</ele>
        <time>2026-07-04T23:52:10</time>
      </trkpt>
      <trkpt lat="25.110191345215" lon="102.94492340088">
        <ele>1895.0</ele>
        <time>2026-07-04T23:52:15</time>
      </trkpt>
      <trkpt lat="25.109998703003" lon="102.9447479248">
        <ele>1895.0</ele>
        <time>2026-07-04T23:52:20</time>
      </trkpt>
      <trkpt lat="25.109788894653" lon="102.94456481934">
        <ele>1895.0</ele>
        <time>2026-07-04T23:52:25</time>
      </trkpt>
      <trkpt lat="25.109624862671" lon="102.94441986084">
        <ele>1895.0</ele>
        <time>2026-07-04T23:52:30</time>
      </trkpt>
      <trkpt lat="25.10945892334" lon="102.94427490234">
        <ele>1895.0</ele>
        <time>2026-07-04T23:52:35</time>
      </trkpt>
      <trkpt lat="25.109310150146" lon="102.94415283203">
        <ele>1895.0</ele>
        <time>2026-07-04T23:52:40</time>
      </trkpt>
      <trkpt lat="25.109161376953" lon="102.94401550293">
        <ele>1895.0</ele>
        <time>2026-07-04T23:52:45</time>
      </trkpt>
      <trkpt lat="25.10901260376" lon="102.94387817383">
        <ele>1895.0</ele>
        <time>2026-07-04T23:52:50</time>
      </trkpt>
      <trkpt lat="25.108821868896" lon="102.94371795654">
        <ele>1895.0</ele>
        <time>2026-07-04T23:52:55</time>
      </trkpt>
      <trkpt lat="25.108636856079" lon="102.94355010986">
        <ele>1895.0</ele>
        <time>2026-07-04T23:53:00</time>
      </trkpt>
      <trkpt lat="25.108449935913" lon="102.94339752197">
        <ele>1895.0</ele>
        <time>2026-07-04T23:53:05</time>
      </trkpt>
      <trkpt lat="25.108222961426" lon="102.94319152832">
        <ele>1895.0</ele>
        <time>2026-07-04T23:53:10</time>
      </trkpt>
      <trkpt lat="25.107973098755" lon="102.94298553467">
        <ele>1895.0</ele>
        <time>2026-07-04T23:53:15</time>
      </trkpt>
      <trkpt lat="25.107740402222" lon="102.94277954102">
        <ele>1895.0</ele>
        <time>2026-07-04T23:53:20</time>
      </trkpt>
      <trkpt lat="25.107507705688" lon="102.94258117676">
        <ele>1895.0</ele>
        <time>2026-07-04T23:53:25</time>
      </trkpt>
      <trkpt lat="25.107273101807" lon="102.94237518311">
        <ele>1895.0</ele>
        <time>2026-07-04T23:53:30</time>
      </trkpt>
      <trkpt lat="25.107065200806" lon="102.94219207764">
        <ele>1895.0</ele>
        <time>2026-07-04T23:53:35</time>
      </trkpt>
      <trkpt lat="25.106832504272" lon="102.94198608398">
        <ele>1895.0</ele>
        <time>2026-07-04T23:53:40</time>
      </trkpt>
      <trkpt lat="25.106506347656" lon="102.94170379639">
        <ele>1895.0</ele>
        <time>2026-07-04T23:53:45</time>
      </trkpt>
      <trkpt lat="25.106266021729" lon="102.94149780273">
        <ele>1895.0</ele>
        <time>2026-07-04T23:53:50</time>
      </trkpt>
      <trkpt lat="25.106025695801" lon="102.94128417969">
        <ele>1895.0</ele>
        <time>2026-07-04T23:53:55</time>
      </trkpt>
      <trkpt lat="25.105808258057" lon="102.94109344482">
        <ele>1895.0</ele>
        <time>2026-07-04T23:54:00</time>
      </trkpt>
      <trkpt lat="25.10555267334" lon="102.94087219238">
        <ele>1895.0</ele>
        <time>2026-07-04T23:54:05</time>
      </trkpt>
      <trkpt lat="25.105339050293" lon="102.94068908691">
        <ele>1895.0</ele>
        <time>2026-07-04T23:54:10</time>
      </trkpt>
      <trkpt lat="25.105155944824" lon="102.94053649902">
        <ele>1895.0</ele>
        <time>2026-07-04T23:54:15</time>
      </trkpt>
      <trkpt lat="25.105005264282" lon="102.94035339355">
        <ele>1895.0</ele>
        <time>2026-07-04T23:54:20</time>
      </trkpt>
      <trkpt lat="25.104911804199" lon="102.94013214111">
        <ele>1895.0</ele>
        <time>2026-07-04T23:54:25</time>
      </trkpt>
      <trkpt lat="25.104972839355" lon="102.93988800049">
        <ele>1895.0</ele>
        <time>2026-07-04T23:54:30</time>
      </trkpt>
      <trkpt lat="25.105098724365" lon="102.93966674805">
        <ele>1895.0</ele>
        <time>2026-07-04T23:54:35</time>
      </trkpt>
      <trkpt lat="25.10525894165" lon="102.93943786621">
        <ele>1895.0</ele>
        <time>2026-07-04T23:54:40</time>
      </trkpt>
      <trkpt lat="25.105424880981" lon="102.93921661377">
        <ele>1895.0</ele>
        <time>2026-07-04T23:54:45</time>
      </trkpt>
      <trkpt lat="25.105613708496" lon="102.93894195557">
        <ele>1895.0</ele>
        <time>2026-07-04T23:54:50</time>
      </trkpt>
      <trkpt lat="25.105796813965" lon="102.93870544434">
        <ele>1895.0</ele>
        <time>2026-07-04T23:54:55</time>
      </trkpt>
      <trkpt lat="25.106006622314" lon="102.93840789795">
        <ele>1895.0</ele>
        <time>2026-07-04T23:55:00</time>
      </trkpt>
      <trkpt lat="25.106227874756" lon="102.93810272217">
        <ele>1895.0</ele>
        <time>2026-07-04T23:55:05</time>
      </trkpt>
      <trkpt lat="25.106460571289" lon="102.9377746582">
        <ele>1895.0</ele>
        <time>2026-07-04T23:55:10</time>
      </trkpt>
      <trkpt lat="25.106689453125" lon="102.93746948242">
        <ele>1895.0</ele>
        <time>2026-07-04T23:55:15</time>
      </trkpt>
      <trkpt lat="25.106952667236" lon="102.93710327148">
        <ele>1895.0</ele>
        <time>2026-07-04T23:55:20</time>
      </trkpt>
      <trkpt lat="25.107227325439" lon="102.93671417236">
        <ele>1895.0</ele>
        <time>2026-07-04T23:55:25</time>
      </trkpt>
      <trkpt lat="25.107490539551" lon="102.93634796143">
        <ele>1895.0</ele>
        <time>2026-07-04T23:55:30</time>
      </trkpt>
      <trkpt lat="25.107692718506" lon="102.93607330322">
        <ele>1895.0</ele>
        <time>2026-07-04T23:55:35</time>
      </trkpt>
      <trkpt lat="25.107891082764" lon="102.93580627441">
        <ele>1895.0</ele>
        <time>2026-07-04T23:55:40</time>
      </trkpt>
      <trkpt lat="25.108089447021" lon="102.93550872803">
        <ele>1895.0</ele>
        <time>2026-07-04T23:55:44</time>
      </trkpt>
      <trkpt lat="25.108251571655" lon="102.93528747559">
        <ele>1895.0</ele>
        <time>2026-07-04T23:55:49</time>
      </trkpt>
      <trkpt lat="25.108394622803" lon="102.93508911133">
        <ele>1895.0</ele>
        <time>2026-07-04T23:55:54</time>
      </trkpt>
      <trkpt lat="25.108531951904" lon="102.93489837646">
        <ele>1895.0</ele>
        <time>2026-07-04T23:55:59</time>
      </trkpt>
      <trkpt lat="25.108680725098" lon="102.93470001221">
        <ele>1895.0</ele>
        <time>2026-07-04T23:56:04</time>
      </trkpt>
      <trkpt lat="25.108846664429" lon="102.93447113037">
        <ele>1895.0</ele>
        <time>2026-07-04T23:56:08</time>
      </trkpt>
      <trkpt lat="25.109020233154" lon="102.93422698975">
        <ele>1895.0</ele>
        <time>2026-07-04T23:56:13</time>
      </trkpt>
      <trkpt lat="25.109218597412" lon="102.93395996094">
        <ele>1895.0</ele>
        <time>2026-07-04T23:56:18</time>
      </trkpt>
      <trkpt lat="25.109378814697" lon="102.9337310791">
        <ele>1895.0</ele>
        <time>2026-07-04T23:56:23</time>
      </trkpt>
      <trkpt lat="25.109601974487" lon="102.93341827393">
        <ele>1895.0</ele>
        <time>2026-07-04T23:56:29</time>
      </trkpt>
      <trkpt lat="25.109846115112" lon="102.93308258057">
        <ele>1895.0</ele>
        <time>2026-07-04T23:56:33</time>
      </trkpt>
      <trkpt lat="25.110076904297" lon="102.932762146">
        <ele>1895.0</ele>
        <time>2026-07-04T23:56:38</time>
      </trkpt>
      <trkpt lat="25.110311508179" lon="102.93243408203">
        <ele>1895.0</ele>
        <time>2026-07-04T23:56:43</time>
      </trkpt>
      <trkpt lat="25.110649108887" lon="102.93196105957">
        <ele>1895.0</ele>
        <time>2026-07-04T23:56:54</time>
      </trkpt>
      <trkpt lat="25.11088180542" lon="102.93164825439">
        <ele>1895.0</ele>
        <time>2026-07-04T23:56:58</time>
      </trkpt>
      <trkpt lat="25.111114501953" lon="102.93132019043">
        <ele>1895.0</ele>
        <time>2026-07-04T23:57:03</time>
      </trkpt>
      <trkpt lat="25.111438751221" lon="102.93087005615">
        <ele>1895.0</ele>
        <time>2026-07-04T23:57:08</time>
      </trkpt>
      <trkpt lat="25.111684799194" lon="102.93053436279">
        <ele>1895.0</ele>
        <time>2026-07-04T23:57:12</time>
      </trkpt>
      <trkpt lat="25.111885070801" lon="102.9302444458">
        <ele>1895.0</ele>
        <time>2026-07-04T23:57:17</time>
      </trkpt>
      <trkpt lat="25.112091064453" lon="102.92997741699">
        <ele>1895.0</ele>
        <time>2026-07-04T23:57:22</time>
      </trkpt>
      <trkpt lat="25.112289428711" lon="102.92977905273">
        <ele>1895.0</ele>
        <time>2026-07-04T23:57:33</time>
      </trkpt>
      <trkpt lat="25.112548828125" lon="102.92974090576">
        <ele>1895.0</ele>
        <time>2026-07-04T23:57:39</time>
      </trkpt>
      <trkpt lat="25.112791061401" lon="102.92985534668">
        <ele>1895.0</ele>
        <time>2026-07-04T23:57:43</time>
      </trkpt>
      <trkpt lat="25.113128662109" lon="102.93014526367">
        <ele>1895.0</ele>
        <time>2026-07-04T23:57:48</time>
      </trkpt>
      <trkpt lat="25.113418579102" lon="102.93039703369">
        <ele>1895.0</ele>
        <time>2026-07-04T23:57:53</time>
      </trkpt>
      <trkpt lat="25.113872528076" lon="102.93079376221">
        <ele>1895.0</ele>
        <time>2026-07-04T23:58:03</time>
      </trkpt>
      <trkpt lat="25.11417388916" lon="102.93104553223">
        <ele>1895.0</ele>
        <time>2026-07-04T23:58:08</time>
      </trkpt>
      <trkpt lat="25.114501953125" lon="102.93133544922">
        <ele>1895.0</ele>
        <time>2026-07-04T23:58:13</time>
      </trkpt>
      <trkpt lat="25.114837646484" lon="102.93163299561">
        <ele>1895.0</ele>
        <time>2026-07-04T23:58:18</time>
      </trkpt>
      <trkpt lat="25.115352630615" lon="102.93206787109">
        <ele>1895.0</ele>
        <time>2026-07-04T23:58:23</time>
      </trkpt>
      <trkpt lat="25.11576461792" lon="102.93243408203">
        <ele>1895.0</ele>
        <time>2026-07-04T23:58:28</time>
      </trkpt>
      <trkpt lat="25.116188049316" lon="102.93280029297">
        <ele>1895.0</ele>
        <time>2026-07-04T23:58:33</time>
      </trkpt>
      <trkpt lat="25.116758346558" lon="102.93328857422">
        <ele>1895.0</ele>
        <time>2026-07-04T23:58:43</time>
      </trkpt>
      <trkpt lat="25.117225646973" lon="102.93369293213">
        <ele>1895.0</ele>
        <time>2026-07-04T23:58:49</time>
      </trkpt>
      <trkpt lat="25.118389129639" lon="102.9347076416">
        <ele>1895.0</ele>
        <time>2026-07-04T23:59:02</time>
      </trkpt>
      <trkpt lat="25.119163513184" lon="102.93538665771">
        <ele>1895.0</ele>
        <time>2026-07-04T23:59:09</time>
      </trkpt>
      <trkpt lat="25.120937347412" lon="102.9369354248">
        <ele>1895.0</ele>
        <time>2026-07-04T23:59:33</time>
      </trkpt>
      <trkpt lat="25.121368408203" lon="102.93729400635">
        <ele>1895.0</ele>
        <time>2026-07-04T23:59:38</time>
      </trkpt>
      <trkpt lat="25.122066497803" lon="102.93790435791">
        <ele>1895.0</ele>
        <time>2026-07-04T23:59:45</time>
      </trkpt>
      <trkpt lat="25.122734069824" lon="102.93849945068">
        <ele>1895.0</ele>
        <time>2026-07-04T23:59:52</time>
      </trkpt>
      <trkpt lat="25.123090744019" lon="102.93881225586">
        <ele>1895.0</ele>
        <time>2026-07-04T23:59:57</time>
      </trkpt>
      <trkpt lat="25.123579025269" lon="102.93922424316">
        <ele>1895.0</ele>
        <time>2026-07-05T00:00:03</time>
      </trkpt>
      <trkpt lat="25.124061584473" lon="102.93964385986">
        <ele>1895.0</ele>
        <time>2026-07-05T00:00:08</time>
      </trkpt>
      <trkpt lat="25.124441146851" lon="102.93998718262">
        <ele>1895.0</ele>
        <time>2026-07-05T00:00:13</time>
      </trkpt>
      <trkpt lat="25.124883651733" lon="102.94036865234">
        <ele>1895.0</ele>
        <time>2026-07-05T00:00:18</time>
      </trkpt>
      <trkpt lat="25.125297546387" lon="102.94072723389">
        <ele>1895.0</ele>
        <time>2026-07-05T00:00:23</time>
      </trkpt>
      <trkpt lat="25.125709533691" lon="102.94109344482">
        <ele>1895.0</ele>
        <time>2026-07-05T00:00:28</time>
      </trkpt>
      <trkpt lat="25.126092910767" lon="102.94141387939">
        <ele>1895.0</ele>
        <time>2026-07-05T00:00:33</time>
      </trkpt>
      <trkpt lat="25.126419067383" lon="102.94169616699">
        <ele>1895.0</ele>
        <time>2026-07-05T00:00:38</time>
      </trkpt>
      <trkpt lat="25.126697540283" lon="102.94193267822">
        <ele>1895.0</ele>
        <time>2026-07-05T00:00:43</time>
      </trkpt>
      <trkpt lat="25.126943588257" lon="102.94215393066">
        <ele>1895.0</ele>
        <time>2026-07-05T00:00:48</time>
      </trkpt>
      <trkpt lat="25.127426147461" lon="102.94213867188">
        <ele>1895.0</ele>
        <time>2026-07-05T00:01:02</time>
      </trkpt>
      <trkpt lat="25.127574920654" lon="102.94198608398">
        <ele>1895.0</ele>
        <time>2026-07-05T00:01:07</time>
      </trkpt>
      <trkpt lat="25.127733230591" lon="102.94178009033">
        <ele>1895.0</ele>
        <time>2026-07-05T00:01:12</time>
      </trkpt>
      <trkpt lat="25.127883911133" lon="102.94156646729">
        <ele>1895.0</ele>
        <time>2026-07-05T00:01:17</time>
      </trkpt>
      <trkpt lat="25.128059387207" lon="102.94132232666">
        <ele>1895.0</ele>
        <time>2026-07-05T00:01:21</time>
      </trkpt>
      <trkpt lat="25.128280639648" lon="102.94102478027">
        <ele>1895.0</ele>
        <time>2026-07-05T00:01:26</time>
      </trkpt>
      <trkpt lat="25.128456115723" lon="102.94076538086">
        <ele>1895.0</ele>
        <time>2026-07-05T00:01:31</time>
      </trkpt>
      <trkpt lat="25.128606796265" lon="102.94054412842">
        <ele>1895.0</ele>
        <time>2026-07-05T00:01:36</time>
      </trkpt>
      <trkpt lat="25.128688812256" lon="102.94035339355">
        <ele>1895.0</ele>
        <time>2026-07-05T00:01:41</time>
      </trkpt>
      <trkpt lat="25.128688812256" lon="102.9401473999">
        <ele>1895.0</ele>
        <time>2026-07-05T00:01:46</time>
      </trkpt>
      <trkpt lat="25.128618240356" lon="102.93996429443">
        <ele>1895.0</ele>
        <time>2026-07-05T00:01:51</time>
      </trkpt>
      <trkpt lat="25.128456115723" lon="102.93981170654">
        <ele>1895.0</ele>
        <time>2026-07-05T00:01:56</time>
      </trkpt>
      <trkpt lat="25.128339767456" lon="102.93970489502">
        <ele>1895.0</ele>
        <time>2026-07-05T00:02:01</time>
      </trkpt>
      <trkpt lat="25.128234863281" lon="102.93961334229">
        <ele>1895.0</ele>
        <time>2026-07-05T00:02:06</time>
      </trkpt>
      <trkpt lat="25.128101348877" lon="102.93950653076">
        <ele>1895.0</ele>
        <time>2026-07-05T00:02:11</time>
      </trkpt>
      <trkpt lat="25.127897262573" lon="102.93933868408">
        <ele>1895.0</ele>
        <time>2026-07-05T00:02:16</time>
      </trkpt>
      <trkpt lat="25.127586364746" lon="102.93905639648">
        <ele>1895.0</ele>
        <time>2026-07-05T00:02:21</time>
      </trkpt>
      <trkpt lat="25.12696647644" lon="102.93853759766">
        <ele>1895.0</ele>
        <time>2026-07-05T00:02:26</time>
      </trkpt>
      <trkpt lat="25.125686645508" lon="102.93740844727">
        <ele>1895.0</ele>
        <time>2026-07-05T00:02:31</time>
      </trkpt>
      <trkpt lat="25.124441146851" lon="102.93632507324">
        <ele>1895.0</ele>
        <time>2026-07-05T00:02:36</time>
      </trkpt>
      <trkpt lat="25.08888053894" lon="102.90084838867">
        <ele>2476.5</ele>
        <time>2026-07-05T00:03:41</time>
      </trkpt>
      <trkpt lat="25.08145904541" lon="102.88696289062">
        <ele>2552.7</ele>
        <time>2026-07-05T00:03:56</time>
      </trkpt>
      <trkpt lat="25.072679519653" lon="102.8733291626">
        <ele>2644.14</ele>
        <time>2026-07-05T00:04:11</time>
      </trkpt>
      <trkpt lat="25.062700271606" lon="102.85841369629">
        <ele>2750.82</ele>
        <time>2026-07-05T00:04:26</time>
      </trkpt>
      <trkpt lat="25.052215576172" lon="102.84261322021">
        <ele>2948.94</ele>
        <time>2026-07-05T00:04:41</time>
      </trkpt>
      <trkpt lat="25.041870117188" lon="102.82724761963">
        <ele>3162.3</ele>
        <time>2026-07-05T00:04:56</time>
      </trkpt>
      <trkpt lat="25.031230926514" lon="102.81160736084">
        <ele>3368.04</ele>
        <time>2026-07-05T00:05:11</time>
      </trkpt>
      <trkpt lat="25.020263671875" lon="102.79556274414">
        <ele>3566.16</ele>
        <time>2026-07-05T00:05:26</time>
      </trkpt>
      <trkpt lat="25.009231567383" lon="102.77954101562">
        <ele>3749.04</ele>
        <time>2026-07-05T00:05:41</time>
      </trkpt>
      <trkpt lat="24.998178482056" lon="102.76331329346">
        <ele>3863.34</ele>
        <time>2026-07-05T00:05:56</time>
      </trkpt>
      <trkpt lat="24.986629486084" lon="102.74646759033">
        <ele>3870.96</ele>
        <time>2026-07-05T00:06:11</time>
      </trkpt>
      <trkpt lat="24.975082397461" lon="102.72979736328">
        <ele>3878.58</ele>
        <time>2026-07-05T00:06:26</time>
      </trkpt>
      <trkpt lat="24.963310241699" lon="102.71293640137">
        <ele>3947.16</ele>
        <time>2026-07-05T00:06:41</time>
      </trkpt>
      <trkpt lat="24.950870513916" lon="102.69515991211">
        <ele>4023.36</ele>
        <time>2026-07-05T00:06:56</time>
      </trkpt>
      <trkpt lat="24.93816947937" lon="102.67723846436">
        <ele>4168.14</ele>
        <time>2026-07-05T00:07:11</time>
      </trkpt>
      <trkpt lat="24.924549102783" lon="102.65782928467">
        <ele>4335.78</ele>
        <time>2026-07-05T00:07:26</time>
      </trkpt>
      <trkpt lat="24.910766601562" lon="102.63849639893">
        <ele>4511.04</ele>
        <time>2026-07-05T00:07:41</time>
      </trkpt>
      <trkpt lat="24.896072387695" lon="102.6203918457">
        <ele>4701.54</ele>
        <time>2026-07-05T00:07:56</time>
      </trkpt>
      <trkpt lat="24.880920410156" lon="102.60227966309">
        <ele>4907.28</ele>
        <time>2026-07-05T00:08:11</time>
      </trkpt>
      <trkpt lat="24.865692138672" lon="102.58374786377">
        <ele>5090.16</ele>
        <time>2026-07-05T00:08:26</time>
      </trkpt>
      <trkpt lat="24.850280761719" lon="102.56488800049">
        <ele>5257.8</ele>
        <time>2026-07-05T00:08:41</time>
      </trkpt>
      <trkpt lat="24.835199356079" lon="102.54627990723">
        <ele>5425.44</ele>
        <time>2026-07-05T00:08:56</time>
      </trkpt>
      <trkpt lat="24.819185256958" lon="102.52679443359">
        <ele>5608.32</ele>
        <time>2026-07-05T00:09:11</time>
      </trkpt>
      <trkpt lat="24.803329467773" lon="102.50778198242">
        <ele>5768.34</ele>
        <time>2026-07-05T00:09:26</time>
      </trkpt>
      <trkpt lat="24.787340164185" lon="102.48866271973">
        <ele>5935.98</ele>
        <time>2026-07-05T00:09:41</time>
      </trkpt>
      <trkpt lat="24.771377563477" lon="102.469581604">
        <ele>6111.24</ele>
        <time>2026-07-05T00:09:56</time>
      </trkpt>
      <trkpt lat="24.754480361938" lon="102.4496307373">
        <ele>6172.2</ele>
        <time>2026-07-05T00:10:11</time>
      </trkpt>
      <trkpt lat="24.737457275391" lon="102.42879486084">
        <ele>6225.54</ele>
        <time>2026-07-05T00:10:26</time>
      </trkpt>
      <trkpt lat="24.722679138184" lon="102.40589904785">
        <ele>6286.5</ele>
        <time>2026-07-05T00:10:41</time>
      </trkpt>
      <trkpt lat="24.709899902344" lon="102.37955474854">
        <ele>6385.56</ele>
        <time>2026-07-05T00:10:56</time>
      </trkpt>
      <trkpt lat="24.698230743408" lon="102.35269927979">
        <ele>6522.72</ele>
        <time>2026-07-05T00:11:11</time>
      </trkpt>
      <trkpt lat="24.685913085938" lon="102.32614898682">
        <ele>6659.88</ele>
        <time>2026-07-05T00:11:26</time>
      </trkpt>
      <trkpt lat="24.669660568237" lon="102.30136871338">
        <ele>6804.66</ele>
        <time>2026-07-05T00:11:41</time>
      </trkpt>
      <trkpt lat="24.650440216064" lon="102.28047943115">
        <ele>6949.44</ele>
        <time>2026-07-05T00:11:55</time>
      </trkpt>
      <trkpt lat="24.628694534302" lon="102.26048278809">
        <ele>7094.22</ele>
        <time>2026-07-05T00:12:10</time>
      </trkpt>
      <trkpt lat="24.607086181641" lon="102.24034881592">
        <ele>7223.76</ele>
        <time>2026-07-05T00:12:25</time>
      </trkpt>
      <trkpt lat="24.585447311401" lon="102.22021484375">
        <ele>7353.3</ele>
        <time>2026-07-05T00:12:40</time>
      </trkpt>
      <trkpt lat="24.564010620117" lon="102.20026397705">
        <ele>7475.22</ele>
        <time>2026-07-05T00:12:55</time>
      </trkpt>
      <trkpt lat="24.540899276733" lon="102.17886352539">
        <ele>7604.76</ele>
        <time>2026-07-05T00:13:10</time>
      </trkpt>
      <trkpt lat="24.517526626587" lon="102.15724945068">
        <ele>7726.68</ele>
        <time>2026-07-05T00:13:25</time>
      </trkpt>
      <trkpt lat="24.494659423828" lon="102.13613128662">
        <ele>7840.98</ele>
        <time>2026-07-05T00:13:40</time>
      </trkpt>
      <trkpt lat="24.472232818604" lon="102.11543273926">
        <ele>7955.28</ele>
        <time>2026-07-05T00:13:55</time>
      </trkpt>
      <trkpt lat="24.449979782104" lon="102.09496307373">
        <ele>8054.34</ele>
        <time>2026-07-05T00:14:10</time>
      </trkpt>
      <trkpt lat="24.427730560303" lon="102.07444000244">
        <ele>8145.78</ele>
        <time>2026-07-05T00:14:25</time>
      </trkpt>
      <trkpt lat="24.404750823975" lon="102.05332183838">
        <ele>8252.46</ele>
        <time>2026-07-05T00:14:41</time>
      </trkpt>
      <trkpt lat="24.381410598755" lon="102.03191375732">
        <ele>8359.14</ele>
        <time>2026-07-05T00:14:55</time>
      </trkpt>
      <trkpt lat="24.357971191406" lon="102.01039886475">
        <ele>8473.44</ele>
        <time>2026-07-05T00:15:10</time>
      </trkpt>
      <trkpt lat="24.335540771484" lon="101.98979949951">
        <ele>8580.12</ele>
        <time>2026-07-05T00:15:25</time>
      </trkpt>
      <trkpt lat="24.310043334961" lon="101.96645355225">
        <ele>8694.42</ele>
        <time>2026-07-05T00:15:44</time>
      </trkpt>
      <trkpt lat="24.28532409668" lon="101.94379425049">
        <ele>8801.1</ele>
        <time>2026-07-05T00:15:59</time>
      </trkpt>
      <trkpt lat="24.260280609131" lon="101.92083740234">
        <ele>8900.16</ele>
        <time>2026-07-05T00:16:13</time>
      </trkpt>
      <trkpt lat="24.236400604248" lon="101.89990234375">
        <ele>8991.6</ele>
        <time>2026-07-05T00:16:28</time>
      </trkpt>
      <trkpt lat="24.209909439087" lon="101.88269805908">
        <ele>9083.04</ele>
        <time>2026-07-05T00:16:43</time>
      </trkpt>
      <trkpt lat="24.180820465088" lon="101.86907196045">
        <ele>9174.48</ele>
        <time>2026-07-05T00:16:58</time>
      </trkpt>
      <trkpt lat="24.150604248047" lon="101.85974121094">
        <ele>9250.68</ele>
        <time>2026-07-05T00:17:13</time>
      </trkpt>
      <trkpt lat="24.1201171875" lon="101.85205841064">
        <ele>9334.5</ele>
        <time>2026-07-05T00:17:28</time>
      </trkpt>
      <trkpt lat="24.086309432983" lon="101.84342193604">
        <ele>9418.32</ele>
        <time>2026-07-05T00:17:47</time>
      </trkpt>
      <trkpt lat="24.055360794067" lon="101.83544158936">
        <ele>9502.14</ele>
        <time>2026-07-05T00:18:01</time>
      </trkpt>
      <trkpt lat="24.02467918396" lon="101.82760620117">
        <ele>9578.34</ele>
        <time>2026-07-05T00:18:15</time>
      </trkpt>
      <trkpt lat="23.990320205688" lon="101.81890869141">
        <ele>9662.16</ele>
        <time>2026-07-05T00:18:30</time>
      </trkpt>
      <trkpt lat="23.958890914917" lon="101.81101226807">
        <ele>9730.74</ele>
        <time>2026-07-05T00:18:45</time>
      </trkpt>
      <trkpt lat="23.927799224854" lon="101.80325317383">
        <ele>9784.08</ele>
        <time>2026-07-05T00:19:00</time>
      </trkpt>
      <trkpt lat="23.894239425659" lon="101.79486083984">
        <ele>9784.08</ele>
        <time>2026-07-05T00:19:19</time>
      </trkpt>
      <trkpt lat="23.857820510864" lon="101.78574371338">
        <ele>9784.08</ele>
        <time>2026-07-05T00:19:34</time>
      </trkpt>
      <trkpt lat="23.826229095459" lon="101.7779083252">
        <ele>9784.08</ele>
        <time>2026-07-05T00:19:49</time>
      </trkpt>
      <trkpt lat="23.794570922852" lon="101.76998138428">
        <ele>9784.08</ele>
        <time>2026-07-05T00:20:04</time>
      </trkpt>
      <trkpt lat="23.763380050659" lon="101.76220703125">
        <ele>9784.08</ele>
        <time>2026-07-05T00:20:19</time>
      </trkpt>
      <trkpt lat="23.731475830078" lon="101.75424957275">
        <ele>9784.08</ele>
        <time>2026-07-05T00:20:34</time>
      </trkpt>
      <trkpt lat="23.699459075928" lon="101.74624633789">
        <ele>9784.08</ele>
        <time>2026-07-05T00:20:49</time>
      </trkpt>
      <trkpt lat="23.668460845947" lon="101.73853302002">
        <ele>9784.08</ele>
        <time>2026-07-05T00:21:04</time>
      </trkpt>
      <trkpt lat="23.637269973755" lon="101.73069763184">
        <ele>9784.08</ele>
        <time>2026-07-05T00:21:19</time>
      </trkpt>
      <trkpt lat="23.606229782104" lon="101.72302246094">
        <ele>9784.08</ele>
        <time>2026-07-05T00:21:34</time>
      </trkpt>
      <trkpt lat="23.574699401855" lon="101.71511077881">
        <ele>9814.56</ele>
        <time>2026-07-05T00:21:49</time>
      </trkpt>
      <trkpt lat="23.543140411377" lon="101.7073135376">
        <ele>9913.62</ele>
        <time>2026-07-05T00:22:04</time>
      </trkpt>
      <trkpt lat="23.50931930542" lon="101.6989364624">
        <ele>10012.68</ele>
        <time>2026-07-05T00:22:19</time>
      </trkpt>
      <trkpt lat="23.475179672241" lon="101.69046783447">
        <ele>10111.74</ele>
        <time>2026-07-05T00:22:38</time>
      </trkpt>
      <trkpt lat="23.444219589233" lon="101.68283843994">
        <ele>10195.56</ele>
        <time>2026-07-05T00:22:52</time>
      </trkpt>
      <trkpt lat="23.412279129028" lon="101.67491912842">
        <ele>10279.38</ele>
        <time>2026-07-05T00:23:07</time>
      </trkpt>
      <trkpt lat="23.380540847778" lon="101.66702270508">
        <ele>10355.58</ele>
        <time>2026-07-05T00:23:22</time>
      </trkpt>
      <trkpt lat="23.345539093018" lon="101.6583404541">
        <ele>10370.82</ele>
        <time>2026-07-05T00:23:37</time>
      </trkpt>
      <trkpt lat="23.314519882202" lon="101.65064239502">
        <ele>10363.2</ele>
        <time>2026-07-05T00:23:52</time>
      </trkpt>
      <trkpt lat="23.282960891724" lon="101.64280700684">
        <ele>10363.2</ele>
        <time>2026-07-05T00:24:07</time>
      </trkpt>
      <trkpt lat="23.251100540161" lon="101.63491821289">
        <ele>10363.2</ele>
        <time>2026-07-05T00:24:22</time>
      </trkpt>
      <trkpt lat="23.217178344727" lon="101.6265335083">
        <ele>10363.2</ele>
        <time>2026-07-05T00:24:37</time>
      </trkpt>
      <trkpt lat="23.185901641846" lon="101.61880493164">
        <ele>10363.2</ele>
        <time>2026-07-05T00:24:52</time>
      </trkpt>
      <trkpt lat="23.153730392456" lon="101.61087036133">
        <ele>10363.2</ele>
        <time>2026-07-05T00:25:07</time>
      </trkpt>
      <trkpt lat="23.10969543457" lon="101.59998321533">
        <ele>10363.2</ele>
        <time>2026-07-05T00:25:32</time>
      </trkpt>
      <trkpt lat="23.08768081665" lon="101.59454345703">
        <ele>10363.2</ele>
        <time>2026-07-05T00:25:43</time>
      </trkpt>
      <trkpt lat="23.056810379028" lon="101.58690643311">
        <ele>10363.2</ele>
        <time>2026-07-05T00:25:57</time>
      </trkpt>
      <trkpt lat="23.024959564209" lon="101.57904052734">
        <ele>10363.2</ele>
        <time>2026-07-05T00:26:12</time>
      </trkpt>
      <trkpt lat="22.99328994751" lon="101.57119750977">
        <ele>10363.2</ele>
        <time>2026-07-05T00:26:27</time>
      </trkpt>
      <trkpt lat="22.959796905518" lon="101.56295776367">
        <ele>10363.2</ele>
        <time>2026-07-05T00:26:42</time>
      </trkpt>
      <trkpt lat="22.926000595093" lon="101.55461883545">
        <ele>10363.2</ele>
        <time>2026-07-05T00:26:56</time>
      </trkpt>
      <trkpt lat="22.893505096436" lon="101.54663085938">
        <ele>10363.2</ele>
        <time>2026-07-05T00:27:10</time>
      </trkpt>
      <trkpt lat="22.861850738525" lon="101.53890228271">
        <ele>10363.2</ele>
        <time>2026-07-05T00:27:25</time>
      </trkpt>
      <trkpt lat="22.831029891968" lon="101.53131866455">
        <ele>10363.2</ele>
        <time>2026-07-05T00:27:40</time>
      </trkpt>
      <trkpt lat="22.799468994141" lon="101.52361297607">
        <ele>10363.2</ele>
        <time>2026-07-05T00:27:55</time>
      </trkpt>
      <trkpt lat="22.767303466797" lon="101.51565551758">
        <ele>10363.2</ele>
        <time>2026-07-05T00:28:10</time>
      </trkpt>
      <trkpt lat="22.736070632935" lon="101.50798034668">
        <ele>10363.2</ele>
        <time>2026-07-05T00:28:25</time>
      </trkpt>
      <trkpt lat="22.704599380493" lon="101.50019073486">
        <ele>10363.2</ele>
        <time>2026-07-05T00:28:40</time>
      </trkpt>
      <trkpt lat="22.672569274902" lon="101.49230957031">
        <ele>10363.2</ele>
        <time>2026-07-05T00:28:55</time>
      </trkpt>
      <trkpt lat="22.640960693359" lon="101.48458099365">
        <ele>10363.2</ele>
        <time>2026-07-05T00:29:10</time>
      </trkpt>
      <trkpt lat="22.609859466553" lon="101.47696685791">
        <ele>10363.2</ele>
        <time>2026-07-05T00:29:25</time>
      </trkpt>
      <trkpt lat="22.577770233154" lon="101.46917724609">
        <ele>10363.2</ele>
        <time>2026-07-05T00:29:40</time>
      </trkpt>
      <trkpt lat="22.545989990234" lon="101.46138763428">
        <ele>10363.2</ele>
        <time>2026-07-05T00:29:55</time>
      </trkpt>
      <trkpt lat="22.514190673828" lon="101.45365142822">
        <ele>10363.2</ele>
        <time>2026-07-05T00:30:10</time>
      </trkpt>
      <trkpt lat="22.482400894165" lon="101.44582366943">
        <ele>10363.2</ele>
        <time>2026-07-05T00:30:25</time>
      </trkpt>
      <trkpt lat="22.450700759888" lon="101.43798828125">
        <ele>10363.2</ele>
        <time>2026-07-05T00:30:40</time>
      </trkpt>
      <trkpt lat="22.419229507446" lon="101.43025970459">
        <ele>10363.2</ele>
        <time>2026-07-05T00:30:55</time>
      </trkpt>
      <trkpt lat="22.387296676636" lon="101.42247772217">
        <ele>10363.2</ele>
        <time>2026-07-05T00:31:10</time>
      </trkpt>
      <trkpt lat="22.355550765991" lon="101.41758728027">
        <ele>10363.2</ele>
        <time>2026-07-05T00:31:25</time>
      </trkpt>
      <trkpt lat="22.310350418091" lon="101.41780090332">
        <ele>10363.2</ele>
        <time>2026-07-05T00:31:50</time>
      </trkpt>
      <trkpt lat="22.277439117432" lon="101.42273712158">
        <ele>10363.2</ele>
        <time>2026-07-05T00:32:05</time>
      </trkpt>
      <trkpt lat="22.24555015564" lon="101.42877960205">
        <ele>10363.2</ele>
        <time>2026-07-05T00:32:20</time>
      </trkpt>
      <trkpt lat="22.212753295898" lon="101.43486785889">
        <ele>10363.2</ele>
        <time>2026-07-05T00:32:35</time>
      </trkpt>
      <trkpt lat="22.180604934692" lon="101.44078826904">
        <ele>10363.2</ele>
        <time>2026-07-05T00:32:50</time>
      </trkpt>
      <trkpt lat="22.147829055786" lon="101.44673919678">
        <ele>10363.2</ele>
        <time>2026-07-05T00:33:05</time>
      </trkpt>
      <trkpt lat="22.116363525391" lon="101.45253753662">
        <ele>10363.2</ele>
        <time>2026-07-05T00:33:20</time>
      </trkpt>
      <trkpt lat="22.073120117188" lon="101.46057128906">
        <ele>10363.2</ele>
        <time>2026-07-05T00:33:37</time>
      </trkpt>
      <trkpt lat="22.038059234619" lon="101.4670791626">
        <ele>10363.2</ele>
        <time>2026-07-05T00:33:52</time>
      </trkpt>
      <trkpt lat="22.005619049072" lon="101.47312164307">
        <ele>10363.2</ele>
        <time>2026-07-05T00:34:07</time>
      </trkpt>
      <trkpt lat="21.973209381104" lon="101.47918701172">
        <ele>10363.2</ele>
        <time>2026-07-05T00:34:22</time>
      </trkpt>
      <trkpt lat="21.940399169922" lon="101.48529052734">
        <ele>10363.2</ele>
        <time>2026-07-05T00:34:37</time>
      </trkpt>
      <trkpt lat="21.905729293823" lon="101.49169921875">
        <ele>10363.2</ele>
        <time>2026-07-05T00:34:57</time>
      </trkpt>
      <trkpt lat="21.873369216919" lon="101.49774169922">
        <ele>10363.2</ele>
        <time>2026-07-05T00:35:12</time>
      </trkpt>
      <trkpt lat="21.837789535522" lon="101.50431060791">
        <ele>10363.2</ele>
        <time>2026-07-05T00:35:27</time>
      </trkpt>
      <trkpt lat="21.805629730225" lon="101.51030731201">
        <ele>10363.2</ele>
        <time>2026-07-05T00:35:42</time>
      </trkpt>
      <trkpt lat="21.753719329834" lon="101.51988220215">
        <ele>10363.2</ele>
        <time>2026-07-05T00:36:06</time>
      </trkpt>
      <trkpt lat="21.719509124756" lon="101.52616119385">
        <ele>10363.2</ele>
        <time>2026-07-05T00:36:20</time>
      </trkpt>
      <trkpt lat="21.683759689331" lon="101.53275299072">
        <ele>10363.2</ele>
        <time>2026-07-05T00:36:39</time>
      </trkpt>
      <trkpt lat="21.652189254761" lon="101.53854370117">
        <ele>10363.2</ele>
        <time>2026-07-05T00:36:53</time>
      </trkpt>
      <trkpt lat="21.619400024414" lon="101.54319000244">
        <ele>10363.2</ele>
        <time>2026-07-05T00:37:08</time>
      </trkpt>
      <trkpt lat="21.5856590271" lon="101.54203796387">
        <ele>10363.2</ele>
        <time>2026-07-05T00:37:23</time>
      </trkpt>
      <trkpt lat="21.553449630737" lon="101.53961181641">
        <ele>10363.2</ele>
        <time>2026-07-05T00:37:38</time>
      </trkpt>
      <trkpt lat="21.517499923706" lon="101.53688812256">
        <ele>10363.2</ele>
        <time>2026-07-05T00:37:53</time>
      </trkpt>
      <trkpt lat="21.484880447388" lon="101.53437042236">
        <ele>10363.2</ele>
        <time>2026-07-05T00:38:08</time>
      </trkpt>
      <trkpt lat="21.447130203247" lon="101.53127288818">
        <ele>10363.2</ele>
        <time>2026-07-05T00:38:23</time>
      </trkpt>
      <trkpt lat="21.414279937744" lon="101.52854919434">
        <ele>10363.2</ele>
        <time>2026-07-05T00:38:38</time>
      </trkpt>
      <trkpt lat="21.374589920044" lon="101.52526092529">
        <ele>10363.2</ele>
        <time>2026-07-05T00:38:58</time>
      </trkpt>
      <trkpt lat="21.350389480591" lon="101.52323150635">
        <ele>10363.2</ele>
        <time>2026-07-05T00:39:09</time>
      </trkpt>
      <trkpt lat="21.316770553589" lon="101.5205078125">
        <ele>10363.2</ele>
        <time>2026-07-05T00:39:22</time>
      </trkpt>
      <trkpt lat="21.28558921814" lon="101.51809692383">
        <ele>10363.2</ele>
        <time>2026-07-05T00:39:37</time>
      </trkpt>
      <trkpt lat="21.237319946289" lon="101.51902008057">
        <ele>10363.2</ele>
        <time>2026-07-05T00:40:02</time>
      </trkpt>
      <trkpt lat="21.165069580078" lon="101.53713989258">
        <ele>10363.2</ele>
        <time>2026-07-05T00:40:34</time>
      </trkpt>
      <trkpt lat="21.139980316162" lon="101.5467300415">
        <ele>10363.2</ele>
        <time>2026-07-05T00:40:49</time>
      </trkpt>
      <trkpt lat="21.105760574341" lon="101.55975341797">
        <ele>10363.2</ele>
        <time>2026-07-05T00:41:04</time>
      </trkpt>
      <trkpt lat="21.069259643555" lon="101.57369232178">
        <ele>10363.2</ele>
        <time>2026-07-05T00:41:24</time>
      </trkpt>
      <trkpt lat="21.038219451904" lon="101.58553314209">
        <ele>10363.2</ele>
        <time>2026-07-05T00:41:39</time>
      </trkpt>
      <trkpt lat="21.006000518799" lon="101.59783172607">
        <ele>10363.2</ele>
        <time>2026-07-05T00:41:53</time>
      </trkpt>
      <trkpt lat="20.973459243774" lon="101.6103515625">
        <ele>10363.2</ele>
        <time>2026-07-05T00:42:08</time>
      </trkpt>
      <trkpt lat="20.945760726929" lon="101.62104034424">
        <ele>10363.2</ele>
        <time>2026-07-05T00:42:23</time>
      </trkpt>
      <trkpt lat="20.911869049072" lon="101.63411712646">
        <ele>10363.2</ele>
        <time>2026-07-05T00:42:37</time>
      </trkpt>
      <trkpt lat="20.880029678345" lon="101.64640808105">
        <ele>10363.2</ele>
        <time>2026-07-05T00:42:52</time>
      </trkpt>
      <trkpt lat="20.853910446167" lon="101.65653991699">
        <ele>10363.2</ele>
        <time>2026-07-05T00:43:07</time>
      </trkpt>
      <trkpt lat="20.811689376831" lon="101.67286682129">
        <ele>10363.2</ele>
        <time>2026-07-05T00:43:26</time>
      </trkpt>
      <trkpt lat="20.778959274292" lon="101.68550872803">
        <ele>10363.2</ele>
        <time>2026-07-05T00:43:41</time>
      </trkpt>
      <trkpt lat="20.729640960693" lon="101.7045135498">
        <ele>10363.2</ele>
        <time>2026-07-05T00:44:06</time>
      </trkpt>
      <trkpt lat="20.701259613037" lon="101.71544647217">
        <ele>10363.2</ele>
        <time>2026-07-05T00:44:21</time>
      </trkpt>
      <trkpt lat="20.67200088501" lon="101.72680664062">
        <ele>10363.2</ele>
        <time>2026-07-05T00:44:36</time>
      </trkpt>
      <trkpt lat="20.64554977417" lon="101.7370300293">
        <ele>10363.2</ele>
        <time>2026-07-05T00:44:50</time>
      </trkpt>
      <trkpt lat="20.610670089722" lon="101.7505569458">
        <ele>10363.2</ele>
        <time>2026-07-05T00:45:07</time>
      </trkpt>
      <trkpt lat="20.566410064697" lon="101.76770782471">
        <ele>10363.2</ele>
        <time>2026-07-05T00:45:27</time>
      </trkpt>
      <trkpt lat="20.51921081543" lon="101.78594207764">
        <ele>10363.2</ele>
        <time>2026-07-05T00:45:51</time>
      </trkpt>
      <trkpt lat="20.489000320435" lon="101.79759979248">
        <ele>10363.2</ele>
        <time>2026-07-05T00:46:05</time>
      </trkpt>
      <trkpt lat="20.447980880737" lon="101.81345367432">
        <ele>10363.2</ele>
        <time>2026-07-05T00:46:23</time>
      </trkpt>
      <trkpt lat="20.415060043335" lon="101.82613372803">
        <ele>10363.2</ele>
        <time>2026-07-05T00:46:42</time>
      </trkpt>
      <trkpt lat="20.384010314941" lon="101.8381729126">
        <ele>10363.2</ele>
        <time>2026-07-05T00:46:57</time>
      </trkpt>
      <trkpt lat="20.347940444946" lon="101.85205078125">
        <ele>10363.2</ele>
        <time>2026-07-05T00:47:12</time>
      </trkpt>
      <trkpt lat="20.316610336304" lon="101.86408996582">
        <ele>10363.2</ele>
        <time>2026-07-05T00:47:28</time>
      </trkpt>
      <trkpt lat="20.28039932251" lon="101.87799072266">
        <ele>10363.2</ele>
        <time>2026-07-05T00:47:47</time>
      </trkpt>
      <trkpt lat="20.203300476074" lon="101.90757751465">
        <ele>10363.2</ele>
        <time>2026-07-05T00:48:21</time>
      </trkpt>
      <trkpt lat="20.171880722046" lon="101.91967773438">
        <ele>10363.2</ele>
        <time>2026-07-05T00:48:39</time>
      </trkpt>
      <trkpt lat="20.140180587769" lon="101.93187713623">
        <ele>10363.2</ele>
        <time>2026-07-05T00:48:54</time>
      </trkpt>
      <trkpt lat="20.117969512939" lon="101.94043731689">
        <ele>10363.2</ele>
        <time>2026-07-05T00:49:05</time>
      </trkpt>
      <trkpt lat="20.095279693604" lon="101.94915008545">
        <ele>10363.2</ele>
        <time>2026-07-05T00:49:16</time>
      </trkpt>
      <trkpt lat="20.050140380859" lon="101.96642303467">
        <ele>10363.2</ele>
        <time>2026-07-05T00:49:37</time>
      </trkpt>
      <trkpt lat="20.018190383911" lon="101.97863006592">
        <ele>10363.2</ele>
        <time>2026-07-05T00:49:52</time>
      </trkpt>
      <trkpt lat="19.995500564575" lon="101.98728179932">
        <ele>10370.82</ele>
        <time>2026-07-05T00:50:03</time>
      </trkpt>
      <trkpt lat="19.953460693359" lon="102.00340270996">
        <ele>10363.2</ele>
        <time>2026-07-05T00:50:24</time>
      </trkpt>
      <trkpt lat="19.911039352417" lon="102.01965332031">
        <ele>10248.9</ele>
        <time>2026-07-05T00:50:45</time>
      </trkpt>
      <trkpt lat="19.864440917969" lon="102.03743743896">
        <ele>10081.26</ele>
        <time>2026-07-05T00:51:06</time>
      </trkpt>
      <trkpt lat="19.842380523682" lon="102.04592132568">
        <ele>9997.44</ele>
        <time>2026-07-05T00:51:17</time>
      </trkpt>
      <trkpt lat="19.810739517212" lon="102.05798339844">
        <ele>9883.14</ele>
        <time>2026-07-05T00:51:33</time>
      </trkpt>
      <trkpt lat="19.720739364624" lon="102.09245300293">
        <ele>9464.04</ele>
        <time>2026-07-05T00:52:15</time>
      </trkpt>
      <trkpt lat="19.699039459229" lon="102.10076141357">
        <ele>9357.36</ele>
        <time>2026-07-05T00:52:26</time>
      </trkpt>
      <trkpt lat="19.666219711304" lon="102.11315917969">
        <ele>9197.34</ele>
        <time>2026-07-05T00:52:42</time>
      </trkpt>
      <trkpt lat="19.622539520264" lon="102.12969207764">
        <ele>8938.26</ele>
        <time>2026-07-05T00:53:03</time>
      </trkpt>
      <trkpt lat="19.591100692749" lon="102.14163970947">
        <ele>8747.76</ele>
        <time>2026-07-05T00:53:19</time>
      </trkpt>
      <trkpt lat="19.550540924072" lon="102.15705871582">
        <ele>8496.3</ele>
        <time>2026-07-05T00:53:39</time>
      </trkpt>
      <trkpt lat="19.528440475464" lon="102.16541290283">
        <ele>8359.14</ele>
        <time>2026-07-05T00:53:51</time>
      </trkpt>
      <trkpt lat="19.453580856323" lon="102.18795776367">
        <ele>7909.56</ele>
        <time>2026-07-05T00:54:27</time>
      </trkpt>
      <trkpt lat="19.432889938354" lon="102.19109344482">
        <ele>7787.64</ele>
        <time>2026-07-05T00:54:38</time>
      </trkpt>
      <trkpt lat="19.40950012207" lon="102.19378662109">
        <ele>7642.86</ele>
        <time>2026-07-05T00:54:49</time>
      </trkpt>
      <trkpt lat="19.378120422363" lon="102.19751739502">
        <ele>7459.98</ele>
        <time>2026-07-05T00:55:04</time>
      </trkpt>
      <trkpt lat="19.355680465698" lon="102.20027160645">
        <ele>7322.82</ele>
        <time>2026-07-05T00:55:15</time>
      </trkpt>
      <trkpt lat="19.333280563354" lon="102.20301818848">
        <ele>7193.28</ele>
        <time>2026-07-05T00:55:26</time>
      </trkpt>
      <trkpt lat="19.302839279175" lon="102.20665740967">
        <ele>7018.02</ele>
        <time>2026-07-05T00:55:41</time>
      </trkpt>
      <trkpt lat="19.228099822998" lon="102.2156829834">
        <ele>6553.2</ele>
        <time>2026-07-05T00:56:18</time>
      </trkpt>
      <trkpt lat="19.186389923096" lon="102.22071838379">
        <ele>6294.12</ele>
        <time>2026-07-05T00:56:39</time>
      </trkpt>
      <trkpt lat="19.156860351562" lon="102.22429656982">
        <ele>6141.72</ele>
        <time>2026-07-05T00:56:54</time>
      </trkpt>
      <trkpt lat="19.127199172974" lon="102.22783660889">
        <ele>5981.7</ele>
        <time>2026-07-05T00:57:09</time>
      </trkpt>
      <trkpt lat="19.097120285034" lon="102.23146057129">
        <ele>5814.06</ele>
        <time>2026-07-05T00:57:25</time>
      </trkpt>
      <trkpt lat="19.068920135498" lon="102.23490142822">
        <ele>5661.66</ele>
        <time>2026-07-05T00:57:41</time>
      </trkpt>
      <trkpt lat="19.007539749146" lon="102.24226379395">
        <ele>5318.76</ele>
        <time>2026-07-05T00:58:13</time>
      </trkpt>
      <trkpt lat="18.988319396973" lon="102.24461364746">
        <ele>5212.08</ele>
        <time>2026-07-05T00:58:24</time>
      </trkpt>
      <trkpt lat="18.968360900879" lon="102.24700927734">
        <ele>5105.4</ele>
        <time>2026-07-05T00:58:35</time>
      </trkpt>
      <trkpt lat="18.940700531006" lon="102.25034332275">
        <ele>4945.38</ele>
        <time>2026-07-05T00:58:50</time>
      </trkpt>
      <trkpt lat="18.921800613403" lon="102.25260162354">
        <ele>4838.7</ele>
        <time>2026-07-05T00:59:01</time>
      </trkpt>
      <trkpt lat="18.883680343628" lon="102.25710296631">
        <ele>4625.34</ele>
        <time>2026-07-05T00:59:22</time>
      </trkpt>
      <trkpt lat="18.853700637817" lon="102.2607421875">
        <ele>4450.08</ele>
        <time>2026-07-05T00:59:39</time>
      </trkpt>
      <trkpt lat="18.83510017395" lon="102.26300048828">
        <ele>4335.78</ele>
        <time>2026-07-05T00:59:50</time>
      </trkpt>
      <trkpt lat="18.816520690918" lon="102.26522064209">
        <ele>4229.1</ele>
        <time>2026-07-05T01:00:01</time>
      </trkpt>
      <trkpt lat="18.788740158081" lon="102.26978302002">
        <ele>4061.46</ele>
        <time>2026-07-05T01:00:17</time>
      </trkpt>
      <trkpt lat="18.763719558716" lon="102.27462768555">
        <ele>3909.06</ele>
        <time>2026-07-05T01:00:32</time>
      </trkpt>
      <trkpt lat="18.744400024414" lon="102.27838134766">
        <ele>3787.14</ele>
        <time>2026-07-05T01:00:43</time>
      </trkpt>
      <trkpt lat="18.718919754028" lon="102.28330230713">
        <ele>3680.46</ele>
        <time>2026-07-05T01:00:59</time>
      </trkpt>
      <trkpt lat="18.65991973877" lon="102.29476165771">
        <ele>3512.82</ele>
        <time>2026-07-05T01:01:36</time>
      </trkpt>
      <trkpt lat="18.62825012207" lon="102.30079650879">
        <ele>3436.62</ele>
        <time>2026-07-05T01:01:57</time>
      </trkpt>
      <trkpt lat="18.612619400024" lon="102.30384063721">
        <ele>3375.66</ele>
        <time>2026-07-05T01:02:09</time>
      </trkpt>
      <trkpt lat="18.596599578857" lon="102.30699157715">
        <ele>3299.46</ele>
        <time>2026-07-05T01:02:21</time>
      </trkpt>
      <trkpt lat="18.545570373535" lon="102.31691741943">
        <ele>3032.76</ele>
        <time>2026-07-05T01:02:55</time>
      </trkpt>
      <trkpt lat="18.525699615479" lon="102.32067871094">
        <ele>2926.08</ele>
        <time>2026-07-05T01:03:09</time>
      </trkpt>
      <trkpt lat="18.502210617065" lon="102.32518768311">
        <ele>2796.54</ele>
        <time>2026-07-05T01:03:29</time>
      </trkpt>
      <trkpt lat="18.483659744263" lon="102.32875823975">
        <ele>2705.1</ele>
        <time>2026-07-05T01:03:40</time>
      </trkpt>
      <trkpt lat="18.467660903931" lon="102.33190155029">
        <ele>2621.28</ele>
        <time>2026-07-05T01:03:51</time>
      </trkpt>
      <trkpt lat="18.44780921936" lon="102.3358001709">
        <ele>2537.46</ele>
        <time>2026-07-05T01:04:06</time>
      </trkpt>
      <trkpt lat="18.431720733643" lon="102.33883666992">
        <ele>2453.64</ele>
        <time>2026-07-05T01:04:17</time>
      </trkpt>
      <trkpt lat="18.417560577393" lon="102.34143829346">
        <ele>2385.06</ele>
        <time>2026-07-05T01:04:28</time>
      </trkpt>
      <trkpt lat="18.399259567261" lon="102.34494018555">
        <ele>2308.86</ele>
        <time>2026-07-05T01:04:44</time>
      </trkpt>
      <trkpt lat="18.379529953003" lon="102.34867858887">
        <ele>2217.42</ele>
        <time>2026-07-05T01:05:00</time>
      </trkpt>
      <trkpt lat="18.357360839844" lon="102.35282897949">
        <ele>2118.36</ele>
        <time>2026-07-05T01:05:15</time>
      </trkpt>
      <trkpt lat="18.339080810547" lon="102.35648345947">
        <ele>2034.54</ele>
        <time>2026-07-05T01:05:31</time>
      </trkpt>
      <trkpt lat="18.320640563965" lon="102.36032104492">
        <ele>1950.72</ele>
        <time>2026-07-05T01:05:46</time>
      </trkpt>
      <trkpt lat="18.30286026001" lon="102.3634185791">
        <ele>1866.9</ele>
        <time>2026-07-05T01:06:01</time>
      </trkpt>
      <trkpt lat="18.290189743042" lon="102.36580657959">
        <ele>1798.32</ele>
        <time>2026-07-05T01:06:12</time>
      </trkpt>
      <trkpt lat="18.273519515991" lon="102.36911010742">
        <ele>1722.12</ele>
        <time>2026-07-05T01:06:28</time>
      </trkpt>
      <trkpt lat="18.249460220337" lon="102.37355804443">
        <ele>1607.82</ele>
        <time>2026-07-05T01:06:49</time>
      </trkpt>
      <trkpt lat="18.228969573975" lon="102.37782287598">
        <ele>1524.0</ele>
        <time>2026-07-05T01:07:09</time>
      </trkpt>
      <trkpt lat="18.213319778442" lon="102.38120269775">
        <ele>1447.8</ele>
        <time>2026-07-05T01:07:25</time>
      </trkpt>
      <trkpt lat="18.192039489746" lon="102.38558197021">
        <ele>1341.12</ele>
        <time>2026-07-05T01:07:48</time>
      </trkpt>
      <trkpt lat="18.176559448242" lon="102.38844299316">
        <ele>1249.68</ele>
        <time>2026-07-05T01:08:01</time>
      </trkpt>
      <trkpt lat="18.163379669189" lon="102.39080810547">
        <ele>1181.1</ele>
        <time>2026-07-05T01:08:15</time>
      </trkpt>
      <trkpt lat="18.145690917969" lon="102.40071868896">
        <ele>1104.9</ele>
        <time>2026-07-05T01:08:40</time>
      </trkpt>
      <trkpt lat="18.13311958313" lon="102.41264343262">
        <ele>1104.9</ele>
        <time>2026-07-05T01:08:55</time>
      </trkpt>
      <trkpt lat="18.119749069214" lon="102.42688751221">
        <ele>1112.52</ele>
        <time>2026-07-05T01:09:17</time>
      </trkpt>
      <trkpt lat="18.111570358276" lon="102.43530273438">
        <ele>1089.66</ele>
        <time>2026-07-05T01:09:31</time>
      </trkpt>
      <trkpt lat="18.103559494019" lon="102.44355773926">
        <ele>1021.08</ele>
        <time>2026-07-05T01:09:44</time>
      </trkpt>
      <trkpt lat="18.092290878296" lon="102.45530700684">
        <ele>929.64</ele>
        <time>2026-07-05T01:10:05</time>
      </trkpt>
      <trkpt lat="18.086580276489" lon="102.46140289307">
        <ele>899.16</ele>
        <time>2026-07-05T01:10:16</time>
      </trkpt>
      <trkpt lat="18.072099685669" lon="102.47619628906">
        <ele>792.48</ele>
        <time>2026-07-05T01:10:42</time>
      </trkpt>
      <trkpt lat="18.066019058228" lon="102.48243713379">
        <ele>739.14</ele>
        <time>2026-07-05T01:10:53</time>
      </trkpt>
      <trkpt lat="18.060020446777" lon="102.48872375488">
        <ele>693.42</ele>
        <time>2026-07-05T01:11:04</time>
      </trkpt>
      <trkpt lat="18.046209335327" lon="102.50317382812">
        <ele>586.74</ele>
        <time>2026-07-05T01:11:30</time>
      </trkpt>
      <trkpt lat="18.032680511475" lon="102.51734161377">
        <ele>480.06</ele>
        <time>2026-07-05T01:11:58</time>
      </trkpt>
      <trkpt lat="18.023769378662" lon="102.52651977539">
        <ele>411.48</ele>
        <time>2026-07-05T01:12:13</time>
      </trkpt>
      <trkpt lat="18.016550064087" lon="102.53392791748">
        <ele>358.14</ele>
        <time>2026-07-05T01:12:30</time>
      </trkpt>
      <trkpt lat="18.008079528809" lon="102.54276275635">
        <ele>289.56</ele>
        <time>2026-07-05T01:12:45</time>
      </trkpt>
      <trkpt lat="18.000919342041" lon="102.55020141602">
        <ele>236.22</ele>
        <time>2026-07-05T01:13:02</time>
      </trkpt>
      <trkpt lat="17.987180709839" lon="102.56448364258">
        <ele>0.0</ele>
        <time>2026-07-05T01:13:31</time>
      </trkpt>
      <trkpt lat="17.984359741211" lon="102.56739807129">
        <ele>0.0</ele>
        <time>2026-07-05T01:13:46</time>
      </trkpt>
      <trkpt lat="17.982679367065" lon="102.56868743896">
        <ele>0.0</ele>
        <time>2026-07-05T01:14:08</time>
      </trkpt>
      <trkpt lat="17.98085975647" lon="102.56918334961">
        <ele>0.0</ele>
        <time>2026-07-05T01:14:29</time>
      </trkpt>
      <trkpt lat="17.978939056396" lon="102.56971740723">
        <ele>0.0</ele>
        <time>2026-07-05T01:14:56</time>
      </trkpt>
      <trkpt lat="17.977779388428" lon="102.56971740723">
        <ele>0.0</ele>
        <time>2026-07-05T01:15:22</time>
      </trkpt>
      <trkpt lat="17.977439880371" lon="102.56934356689">
        <ele>0.0</ele>
        <time>2026-07-05T01:15:33</time>
      </trkpt>
      <trkpt lat="17.9768409729" lon="102.56858062744">
        <ele>0.0</ele>
        <time>2026-07-05T01:15:59</time>
      </trkpt>
      <trkpt lat="17.976680755615" lon="102.56839752197">
        <ele>0.0</ele>
        <time>2026-07-05T01:16:10</time>
      </trkpt>
      <trkpt lat="17.976589202881" lon="102.56831359863">
        <ele>0.0</ele>
        <time>2026-07-05T01:16:31</time>
      </trkpt>
      <trkpt lat="17.976589202881" lon="102.56831359863">
        <ele>0.0</ele>
        <time>2026-07-05T01:16:52</time>
      </trkpt>
      <trkpt lat="17.976589202881" lon="102.56831359863">
        <ele>0.0</ele>
        <time>2026-07-05T01:16:57</time>
      </trkpt>
      <trkpt lat="17.976585388184" lon="102.56831359863">
        <ele>0.0</ele>
        <time>2026-07-05T01:17:48</time>
      </trkpt>
      <trkpt lat="17.976600646973" lon="102.56831359863">
        <ele>0.0</ele>
        <time>2026-07-05T01:18:11</time>
      </trkpt>
      <trkpt lat="17.976600646973" lon="102.56831359863">
        <ele>0.0</ele>
        <time>2026-07-05T01:18:16</time>
      </trkpt>
    </trkseg>
  </trk>
</gpx>