<?xml version="1.0" encoding="UTF-8"?>
<gpx xmlns="http://www.topografix.com/GPX/1/1" xmlns:xsi="http://www.w3.org/2001/XMLSchema-instance" xsi:schemaLocation="http://www.topografix.com/GPX/1/1 http://www.topografix.com/GPX/1/1/gpx.xsd" version="1.1" creator="gpx.py -- https://github.com/tkrajina/gpxpy">
  <trk>
    <name>Variflight_KN5986_20260722.csv</name>
    <trkseg>
      <trkpt lat="30.241300582886" lon="120.42990112305">
        <ele>0.0</ele>
        <time>2026-07-22T14:40:29</time>
      </trkpt>
      <trkpt lat="30.241287231445" lon="120.42985534668">
        <ele>0.0</ele>
        <time>2026-07-22T14:40:33</time>
      </trkpt>
      <trkpt lat="30.241264343262" lon="120.42980194092">
        <ele>0.0</ele>
        <time>2026-07-22T14:40:38</time>
      </trkpt>
      <trkpt lat="30.241207122803" lon="120.42967224121">
        <ele>0.0</ele>
        <time>2026-07-22T14:40:52</time>
      </trkpt>
      <trkpt lat="30.241159439087" lon="120.42961883545">
        <ele>0.0</ele>
        <time>2026-07-22T14:41:01</time>
      </trkpt>
      <trkpt lat="30.240921020508" lon="120.4295425415">
        <ele>0.0</ele>
        <time>2026-07-22T14:41:40</time>
      </trkpt>
      <trkpt lat="30.242053985596" lon="120.42888641357">
        <ele>0.0</ele>
        <time>2026-07-22T14:44:14</time>
      </trkpt>
      <trkpt lat="30.243759155273" lon="120.42752075195">
        <ele>0.0</ele>
        <time>2026-07-22T14:46:31</time>
      </trkpt>
      <trkpt lat="30.243644714355" lon="120.42713165283">
        <ele>0.0</ele>
        <time>2026-07-22T14:46:36</time>
      </trkpt>
      <trkpt lat="30.243511199951" lon="120.42685699463">
        <ele>0.0</ele>
        <time>2026-07-22T14:46:46</time>
      </trkpt>
      <trkpt lat="30.243383407593" lon="120.42656707764">
        <ele>0.0</ele>
        <time>2026-07-22T14:46:51</time>
      </trkpt>
      <trkpt lat="30.243232727051" lon="120.42621612549">
        <ele>0.0</ele>
        <time>2026-07-22T14:46:57</time>
      </trkpt>
      <trkpt lat="30.242963790894" lon="120.42560577393">
        <ele>0.0</ele>
        <time>2026-07-22T14:47:01</time>
      </trkpt>
      <trkpt lat="30.242765426636" lon="120.42516326904">
        <ele>0.0</ele>
        <time>2026-07-22T14:47:11</time>
      </trkpt>
      <trkpt lat="30.242614746094" lon="120.42483520508">
        <ele>0.0</ele>
        <time>2026-07-22T14:47:16</time>
      </trkpt>
      <trkpt lat="30.24245262146" lon="120.42445373535">
        <ele>0.0</ele>
        <time>2026-07-22T14:47:21</time>
      </trkpt>
      <trkpt lat="30.242282867432" lon="120.42407989502">
        <ele>0.0</ele>
        <time>2026-07-22T14:47:26</time>
      </trkpt>
      <trkpt lat="30.242126464844" lon="120.42372131348">
        <ele>0.0</ele>
        <time>2026-07-22T14:47:31</time>
      </trkpt>
      <trkpt lat="30.242021560669" lon="120.42350769043">
        <ele>0.0</ele>
        <time>2026-07-22T14:47:36</time>
      </trkpt>
      <trkpt lat="30.24195098877" lon="120.42333984375">
        <ele>0.0</ele>
        <time>2026-07-22T14:47:41</time>
      </trkpt>
      <trkpt lat="30.241893768311" lon="120.42320251465">
        <ele>0.0</ele>
        <time>2026-07-22T14:47:46</time>
      </trkpt>
      <trkpt lat="30.241836547852" lon="120.42306518555">
        <ele>0.0</ele>
        <time>2026-07-22T14:47:51</time>
      </trkpt>
      <trkpt lat="30.241764068604" lon="120.42291259766">
        <ele>0.0</ele>
        <time>2026-07-22T14:47:56</time>
      </trkpt>
      <trkpt lat="30.24169921875" lon="120.42276000977">
        <ele>0.0</ele>
        <time>2026-07-22T14:48:00</time>
      </trkpt>
      <trkpt lat="30.241653442383" lon="120.42265319824">
        <ele>0.0</ele>
        <time>2026-07-22T14:48:05</time>
      </trkpt>
      <trkpt lat="30.241636276245" lon="120.42261505127">
        <ele>0.0</ele>
        <time>2026-07-22T14:48:10</time>
      </trkpt>
      <trkpt lat="30.241636276245" lon="120.42261505127">
        <ele>0.0</ele>
        <time>2026-07-22T14:48:15</time>
      </trkpt>
      <trkpt lat="30.241630554199" lon="120.42260742188">
        <ele>0.0</ele>
        <time>2026-07-22T14:48:20</time>
      </trkpt>
      <trkpt lat="30.241630554199" lon="120.42260742188">
        <ele>0.0</ele>
        <time>2026-07-22T14:48:25</time>
      </trkpt>
      <trkpt lat="30.241630554199" lon="120.42260742188">
        <ele>0.0</ele>
        <time>2026-07-22T14:48:30</time>
      </trkpt>
      <trkpt lat="30.241636276245" lon="120.42261505127">
        <ele>0.0</ele>
        <time>2026-07-22T14:48:43</time>
      </trkpt>
      <trkpt lat="30.24153137207" lon="120.42239379883">
        <ele>0.0</ele>
        <time>2026-07-22T14:49:14</time>
      </trkpt>
      <trkpt lat="30.24144744873" lon="120.42220306396">
        <ele>0.0</ele>
        <time>2026-07-22T14:49:19</time>
      </trkpt>
      <trkpt lat="30.241334915161" lon="120.42193603516">
        <ele>0.0</ele>
        <time>2026-07-22T14:49:29</time>
      </trkpt>
      <trkpt lat="30.241298675537" lon="120.42174530029">
        <ele>0.0</ele>
        <time>2026-07-22T14:49:34</time>
      </trkpt>
      <trkpt lat="30.241380691528" lon="120.4214553833">
        <ele>0.0</ele>
        <time>2026-07-22T14:49:39</time>
      </trkpt>
      <trkpt lat="30.241497039795" lon="120.42129516602">
        <ele>0.0</ele>
        <time>2026-07-22T14:49:44</time>
      </trkpt>
      <trkpt lat="30.241653442383" lon="120.42114257812">
        <ele>0.0</ele>
        <time>2026-07-22T14:49:49</time>
      </trkpt>
      <trkpt lat="30.241733551025" lon="120.4208984375">
        <ele>0.0</ele>
        <time>2026-07-22T14:49:54</time>
      </trkpt>
      <trkpt lat="30.241722106934" lon="120.42066955566">
        <ele>0.0</ele>
        <time>2026-07-22T14:49:59</time>
      </trkpt>
      <trkpt lat="30.241653442383" lon="120.42044067383">
        <ele>0.0</ele>
        <time>2026-07-22T14:50:04</time>
      </trkpt>
      <trkpt lat="30.241567611694" lon="120.42024993896">
        <ele>0.0</ele>
        <time>2026-07-22T14:50:10</time>
      </trkpt>
      <trkpt lat="30.241470336914" lon="120.42002868652">
        <ele>0.0</ele>
        <time>2026-07-22T14:50:14</time>
      </trkpt>
      <trkpt lat="30.241369247437" lon="120.41979980469">
        <ele>0.0</ele>
        <time>2026-07-22T14:50:19</time>
      </trkpt>
      <trkpt lat="30.24125289917" lon="120.41952514648">
        <ele>0.0</ele>
        <time>2026-07-22T14:50:24</time>
      </trkpt>
      <trkpt lat="30.24112701416" lon="120.41924285889">
        <ele>0.0</ele>
        <time>2026-07-22T14:50:29</time>
      </trkpt>
      <trkpt lat="30.24097442627" lon="120.41890716553">
        <ele>0.0</ele>
        <time>2026-07-22T14:50:34</time>
      </trkpt>
      <trkpt lat="30.240798950195" lon="120.41851806641">
        <ele>0.0</ele>
        <time>2026-07-22T14:50:39</time>
      </trkpt>
      <trkpt lat="30.240623474121" lon="120.4181137085">
        <ele>0.0</ele>
        <time>2026-07-22T14:50:44</time>
      </trkpt>
      <trkpt lat="30.240404129028" lon="120.41761016846">
        <ele>0.0</ele>
        <time>2026-07-22T14:50:49</time>
      </trkpt>
      <trkpt lat="30.240228652954" lon="120.41721343994">
        <ele>0.0</ele>
        <time>2026-07-22T14:50:54</time>
      </trkpt>
      <trkpt lat="30.23998260498" lon="120.41667175293">
        <ele>0.0</ele>
        <time>2026-07-22T14:51:04</time>
      </trkpt>
      <trkpt lat="30.239751815796" lon="120.41614532471">
        <ele>0.0</ele>
        <time>2026-07-22T14:51:09</time>
      </trkpt>
      <trkpt lat="30.2395362854" lon="120.41567230225">
        <ele>0.0</ele>
        <time>2026-07-22T14:51:14</time>
      </trkpt>
      <trkpt lat="30.239286422729" lon="120.41511535645">
        <ele>0.0</ele>
        <time>2026-07-22T14:51:19</time>
      </trkpt>
      <trkpt lat="30.239030838013" lon="120.41452026367">
        <ele>0.0</ele>
        <time>2026-07-22T14:51:24</time>
      </trkpt>
      <trkpt lat="30.238796234131" lon="120.41401672363">
        <ele>0.0</ele>
        <time>2026-07-22T14:51:28</time>
      </trkpt>
      <trkpt lat="30.238285064697" lon="120.41284942627">
        <ele>0.0</ele>
        <time>2026-07-22T14:51:38</time>
      </trkpt>
      <trkpt lat="30.23807144165" lon="120.41237640381">
        <ele>0.0</ele>
        <time>2026-07-22T14:51:43</time>
      </trkpt>
      <trkpt lat="30.237819671631" lon="120.41178894043">
        <ele>0.0</ele>
        <time>2026-07-22T14:51:52</time>
      </trkpt>
      <trkpt lat="30.237682342529" lon="120.41149139404">
        <ele>0.0</ele>
        <time>2026-07-22T14:51:58</time>
      </trkpt>
      <trkpt lat="30.237533569336" lon="120.41114044189">
        <ele>0.0</ele>
        <time>2026-07-22T14:52:02</time>
      </trkpt>
      <trkpt lat="30.237396240234" lon="120.41084289551">
        <ele>0.0</ele>
        <time>2026-07-22T14:52:07</time>
      </trkpt>
      <trkpt lat="30.237308502197" lon="120.41065216064">
        <ele>0.0</ele>
        <time>2026-07-22T14:52:12</time>
      </trkpt>
      <trkpt lat="30.237190246582" lon="120.41037750244">
        <ele>0.0</ele>
        <time>2026-07-22T14:52:22</time>
      </trkpt>
      <trkpt lat="30.237144470215" lon="120.4102935791">
        <ele>0.0</ele>
        <time>2026-07-22T14:52:27</time>
      </trkpt>
      <trkpt lat="30.237133026123" lon="120.41025543213">
        <ele>0.0</ele>
        <time>2026-07-22T14:52:32</time>
      </trkpt>
      <trkpt lat="30.237098693848" lon="120.41018676758">
        <ele>0.0</ele>
        <time>2026-07-22T14:52:37</time>
      </trkpt>
      <trkpt lat="30.23703956604" lon="120.41003417969">
        <ele>0.0</ele>
        <time>2026-07-22T14:52:47</time>
      </trkpt>
      <trkpt lat="30.23698425293" lon="120.40991210938">
        <ele>0.0</ele>
        <time>2026-07-22T14:52:52</time>
      </trkpt>
      <trkpt lat="30.236927032471" lon="120.40979003906">
        <ele>0.0</ele>
        <time>2026-07-22T14:52:58</time>
      </trkpt>
      <trkpt lat="30.236846923828" lon="120.40956115723">
        <ele>0.0</ele>
        <time>2026-07-22T14:53:03</time>
      </trkpt>
      <trkpt lat="30.236854553223" lon="120.40938568115">
        <ele>0.0</ele>
        <time>2026-07-22T14:53:07</time>
      </trkpt>
      <trkpt lat="30.236923217773" lon="120.40923309326">
        <ele>0.0</ele>
        <time>2026-07-22T14:53:12</time>
      </trkpt>
      <trkpt lat="30.23698425293" lon="120.40918731689">
        <ele>0.0</ele>
        <time>2026-07-22T14:53:17</time>
      </trkpt>
      <trkpt lat="30.237016677856" lon="120.40916442871">
        <ele>0.0</ele>
        <time>2026-07-22T14:53:27</time>
      </trkpt>
      <trkpt lat="30.237030029297" lon="120.40915679932">
        <ele>0.0</ele>
        <time>2026-07-22T14:59:00</time>
      </trkpt>
      <trkpt lat="30.237041473389" lon="120.40914916992">
        <ele>0.0</ele>
        <time>2026-07-22T14:59:04</time>
      </trkpt>
      <trkpt lat="30.237121582031" lon="120.40909576416">
        <ele>0.0</ele>
        <time>2026-07-22T14:59:09</time>
      </trkpt>
      <trkpt lat="30.23724937439" lon="120.40901947021">
        <ele>0.0</ele>
        <time>2026-07-22T14:59:14</time>
      </trkpt>
      <trkpt lat="30.237464904785" lon="120.40888977051">
        <ele>0.0</ele>
        <time>2026-07-22T14:59:20</time>
      </trkpt>
      <trkpt lat="30.237693786621" lon="120.40875244141">
        <ele>0.0</ele>
        <time>2026-07-22T14:59:24</time>
      </trkpt>
      <trkpt lat="30.237901687622" lon="120.40864562988">
        <ele>0.0</ele>
        <time>2026-07-22T14:59:29</time>
      </trkpt>
      <trkpt lat="30.238117218018" lon="120.40859222412">
        <ele>0.0</ele>
        <time>2026-07-22T14:59:34</time>
      </trkpt>
      <trkpt lat="30.238265991211" lon="120.40864562988">
        <ele>0.0</ele>
        <time>2026-07-22T14:59:39</time>
      </trkpt>
      <trkpt lat="30.238403320312" lon="120.4087677002">
        <ele>0.0</ele>
        <time>2026-07-22T14:59:44</time>
      </trkpt>
      <trkpt lat="30.238494873047" lon="120.40888977051">
        <ele>0.0</ele>
        <time>2026-07-22T14:59:49</time>
      </trkpt>
      <trkpt lat="30.238565444946" lon="120.40905761719">
        <ele>0.0</ele>
        <time>2026-07-22T14:59:54</time>
      </trkpt>
      <trkpt lat="30.238620758057" lon="120.40920257568">
        <ele>0.0</ele>
        <time>2026-07-22T14:59:59</time>
      </trkpt>
      <trkpt lat="30.238681793213" lon="120.40934753418">
        <ele>0.0</ele>
        <time>2026-07-22T15:00:04</time>
      </trkpt>
      <trkpt lat="30.238773345947" lon="120.40953826904">
        <ele>0.0</ele>
        <time>2026-07-22T15:00:09</time>
      </trkpt>
      <trkpt lat="30.238960266113" lon="120.40998077393">
        <ele>0.0</ele>
        <time>2026-07-22T15:00:14</time>
      </trkpt>
      <trkpt lat="30.239448547363" lon="120.41111755371">
        <ele>0.0</ele>
        <time>2026-07-22T15:00:19</time>
      </trkpt>
      <trkpt lat="30.240846633911" lon="120.41424560547">
        <ele>0.0</ele>
        <time>2026-07-22T15:00:29</time>
      </trkpt>
      <trkpt lat="30.245407104492" lon="120.42453765869">
        <ele>68.58</ele>
        <time>2026-07-22T15:00:44</time>
      </trkpt>
      <trkpt lat="30.250761032104" lon="120.43641662598">
        <ele>243.84</ele>
        <time>2026-07-22T15:00:59</time>
      </trkpt>
      <trkpt lat="30.256118774414" lon="120.44823455811">
        <ele>480.06</ele>
        <time>2026-07-22T15:01:14</time>
      </trkpt>
      <trkpt lat="30.261703491211" lon="120.46035003662">
        <ele>685.8</ele>
        <time>2026-07-22T15:01:29</time>
      </trkpt>
      <trkpt lat="30.267333984375" lon="120.47306060791">
        <ele>899.16</ele>
        <time>2026-07-22T15:01:44</time>
      </trkpt>
      <trkpt lat="30.273059844971" lon="120.4859085083">
        <ele>1059.18</ele>
        <time>2026-07-22T15:01:59</time>
      </trkpt>
      <trkpt lat="30.279279708862" lon="120.50025177002">
        <ele>1150.62</ele>
        <time>2026-07-22T15:02:14</time>
      </trkpt>
      <trkpt lat="30.286233901978" lon="120.51655578613">
        <ele>1234.44</ele>
        <time>2026-07-22T15:02:29</time>
      </trkpt>
      <trkpt lat="30.294008255005" lon="120.53452301025">
        <ele>1341.12</ele>
        <time>2026-07-22T15:02:44</time>
      </trkpt>
      <trkpt lat="30.302307128906" lon="120.55308532715">
        <ele>1554.48</ele>
        <time>2026-07-22T15:02:59</time>
      </trkpt>
      <trkpt lat="30.310913085938" lon="120.57220458984">
        <ele>1775.46</ele>
        <time>2026-07-22T15:03:14</time>
      </trkpt>
      <trkpt lat="30.31965637207" lon="120.59164428711">
        <ele>1981.2</ele>
        <time>2026-07-22T15:03:29</time>
      </trkpt>
      <trkpt lat="30.331157684326" lon="120.61016082764">
        <ele>2209.8</ele>
        <time>2026-07-22T15:03:44</time>
      </trkpt>
      <trkpt lat="30.347730636597" lon="120.62097930908">
        <ele>2415.54</ele>
        <time>2026-07-22T15:03:59</time>
      </trkpt>
      <trkpt lat="30.366989135742" lon="120.62213134766">
        <ele>2636.52</ele>
        <time>2026-07-22T15:04:14</time>
      </trkpt>
      <trkpt lat="30.384366989136" lon="120.6141204834">
        <ele>2842.26</ele>
        <time>2026-07-22T15:04:29</time>
      </trkpt>
      <trkpt lat="30.397020339966" lon="120.59757232666">
        <ele>3032.76</ele>
        <time>2026-07-22T15:04:44</time>
      </trkpt>
      <trkpt lat="30.400989532471" lon="120.57708740234">
        <ele>3261.36</ele>
        <time>2026-07-22T15:04:59</time>
      </trkpt>
      <trkpt lat="30.397020339966" lon="120.55690765381">
        <ele>3467.1</ele>
        <time>2026-07-22T15:05:14</time>
      </trkpt>
      <trkpt lat="30.387313842773" lon="120.539894104">
        <ele>3649.98</ele>
        <time>2026-07-22T15:05:29</time>
      </trkpt>
      <trkpt lat="30.373798370361" lon="120.52375793457">
        <ele>3749.04</ele>
        <time>2026-07-22T15:05:44</time>
      </trkpt>
      <trkpt lat="30.362548828125" lon="120.50434875488">
        <ele>3863.34</ele>
        <time>2026-07-22T15:05:59</time>
      </trkpt>
      <trkpt lat="30.352615356445" lon="120.48431396484">
        <ele>4107.18</ele>
        <time>2026-07-22T15:06:14</time>
      </trkpt>
      <trkpt lat="30.343050003052" lon="120.46341705322">
        <ele>4320.54</ele>
        <time>2026-07-22T15:06:29</time>
      </trkpt>
      <trkpt lat="30.333759307861" lon="120.44229125977">
        <ele>4511.04</ele>
        <time>2026-07-22T15:06:44</time>
      </trkpt>
      <trkpt lat="30.324409484863" lon="120.42092132568">
        <ele>4610.1</ele>
        <time>2026-07-22T15:06:59</time>
      </trkpt>
      <trkpt lat="30.31494140625" lon="120.39916992188">
        <ele>4686.3</ele>
        <time>2026-07-22T15:07:14</time>
      </trkpt>
      <trkpt lat="30.30578994751" lon="120.37830352783">
        <ele>4762.5</ele>
        <time>2026-07-22T15:07:29</time>
      </trkpt>
      <trkpt lat="30.29615020752" lon="120.35637664795">
        <ele>4792.98</ele>
        <time>2026-07-22T15:07:44</time>
      </trkpt>
      <trkpt lat="30.2897605896" lon="120.33347320557">
        <ele>4785.36</ele>
        <time>2026-07-22T15:07:59</time>
      </trkpt>
      <trkpt lat="30.288209915161" lon="120.30890655518">
        <ele>4785.36</ele>
        <time>2026-07-22T15:08:14</time>
      </trkpt>
      <trkpt lat="30.291690826416" lon="120.28430175781">
        <ele>4792.98</ele>
        <time>2026-07-22T15:08:29</time>
      </trkpt>
      <trkpt lat="30.300519943237" lon="120.26039123535">
        <ele>4792.98</ele>
        <time>2026-07-22T15:08:44</time>
      </trkpt>
      <trkpt lat="30.315719604492" lon="120.23809051514">
        <ele>4792.98</ele>
        <time>2026-07-22T15:08:59</time>
      </trkpt>
      <trkpt lat="30.337209701538" lon="120.220703125">
        <ele>4861.56</ele>
        <time>2026-07-22T15:09:14</time>
      </trkpt>
      <trkpt lat="30.363418579102" lon="120.2071762085">
        <ele>4937.76</ele>
        <time>2026-07-22T15:09:29</time>
      </trkpt>
      <trkpt lat="30.388229370117" lon="120.19435882568">
        <ele>5013.96</ele>
        <time>2026-07-22T15:09:43</time>
      </trkpt>
      <trkpt lat="30.41436958313" lon="120.18110656738">
        <ele>5090.16</ele>
        <time>2026-07-22T15:09:58</time>
      </trkpt>
      <trkpt lat="30.44055557251" lon="120.16796112061">
        <ele>5158.74</ele>
        <time>2026-07-22T15:10:13</time>
      </trkpt>
      <trkpt lat="30.467100143433" lon="120.15412902832">
        <ele>5227.32</ele>
        <time>2026-07-22T15:10:28</time>
      </trkpt>
      <trkpt lat="30.491668701172" lon="120.13824462891">
        <ele>5295.9</ele>
        <time>2026-07-22T15:10:42</time>
      </trkpt>
      <trkpt lat="30.515533447266" lon="120.1192855835">
        <ele>5410.2</ele>
        <time>2026-07-22T15:10:57</time>
      </trkpt>
      <trkpt lat="30.538558959961" lon="120.09989929199">
        <ele>5532.12</ele>
        <time>2026-07-22T15:11:12</time>
      </trkpt>
      <trkpt lat="30.561450958252" lon="120.08068084717">
        <ele>5638.8</ele>
        <time>2026-07-22T15:11:27</time>
      </trkpt>
      <trkpt lat="30.585332870483" lon="120.06046295166">
        <ele>5760.72</ele>
        <time>2026-07-22T15:11:42</time>
      </trkpt>
      <trkpt lat="30.608779907227" lon="120.0406036377">
        <ele>5875.02</ele>
        <time>2026-07-22T15:11:57</time>
      </trkpt>
      <trkpt lat="30.634279251099" lon="120.01901245117">
        <ele>5989.32</ele>
        <time>2026-07-22T15:12:12</time>
      </trkpt>
      <trkpt lat="30.658092498779" lon="119.99882507324">
        <ele>6012.18</ele>
        <time>2026-07-22T15:12:27</time>
      </trkpt>
      <trkpt lat="30.681610107422" lon="119.97888946533">
        <ele>6004.56</ele>
        <time>2026-07-22T15:12:42</time>
      </trkpt>
      <trkpt lat="30.705780029297" lon="119.95831298828">
        <ele>6004.56</ele>
        <time>2026-07-22T15:12:57</time>
      </trkpt>
      <trkpt lat="30.729354858398" lon="119.93828582764">
        <ele>6004.56</ele>
        <time>2026-07-22T15:13:12</time>
      </trkpt>
      <trkpt lat="30.75315284729" lon="119.91807556152">
        <ele>6004.56</ele>
        <time>2026-07-22T15:13:27</time>
      </trkpt>
      <trkpt lat="30.776754379272" lon="119.8980255127">
        <ele>6004.56</ele>
        <time>2026-07-22T15:13:42</time>
      </trkpt>
      <trkpt lat="30.800449371338" lon="119.87781524658">
        <ele>6019.8</ele>
        <time>2026-07-22T15:13:57</time>
      </trkpt>
      <trkpt lat="30.824563980103" lon="119.85699462891">
        <ele>6118.86</ele>
        <time>2026-07-22T15:14:12</time>
      </trkpt>
      <trkpt lat="30.848310470581" lon="119.83644866943">
        <ele>6240.78</ele>
        <time>2026-07-22T15:14:27</time>
      </trkpt>
      <trkpt lat="30.872560501099" lon="119.81552124023">
        <ele>6339.84</ele>
        <time>2026-07-22T15:14:42</time>
      </trkpt>
      <trkpt lat="30.896987915039" lon="119.79443359375">
        <ele>6454.14</ele>
        <time>2026-07-22T15:14:57</time>
      </trkpt>
      <trkpt lat="30.915710449219" lon="119.77833557129">
        <ele>6553.2</ele>
        <time>2026-07-22T15:15:11</time>
      </trkpt>
      <trkpt lat="30.9404296875" lon="119.75705718994">
        <ele>6621.78</ele>
        <time>2026-07-22T15:15:26</time>
      </trkpt>
      <trkpt lat="30.965606689453" lon="119.73541259766">
        <ele>6621.78</ele>
        <time>2026-07-22T15:15:40</time>
      </trkpt>
      <trkpt lat="30.992570877075" lon="119.71224975586">
        <ele>6614.16</ele>
        <time>2026-07-22T15:15:55</time>
      </trkpt>
      <trkpt lat="31.017562866211" lon="119.69076538086">
        <ele>6614.16</ele>
        <time>2026-07-22T15:16:10</time>
      </trkpt>
      <trkpt lat="31.042098999023" lon="119.66960144043">
        <ele>6614.16</ele>
        <time>2026-07-22T15:16:25</time>
      </trkpt>
      <trkpt lat="31.067230224609" lon="119.64794921875">
        <ele>6614.16</ele>
        <time>2026-07-22T15:16:40</time>
      </trkpt>
      <trkpt lat="31.091913223267" lon="119.62660980225">
        <ele>6614.16</ele>
        <time>2026-07-22T15:16:55</time>
      </trkpt>
      <trkpt lat="31.11653137207" lon="119.60535430908">
        <ele>6614.16</ele>
        <time>2026-07-22T15:17:10</time>
      </trkpt>
      <trkpt lat="31.141479492188" lon="119.58375549316">
        <ele>6614.16</ele>
        <time>2026-07-22T15:17:25</time>
      </trkpt>
      <trkpt lat="31.166059494019" lon="119.56249237061">
        <ele>6614.16</ele>
        <time>2026-07-22T15:17:40</time>
      </trkpt>
      <trkpt lat="31.190410614014" lon="119.54132080078">
        <ele>6614.16</ele>
        <time>2026-07-22T15:17:55</time>
      </trkpt>
      <trkpt lat="31.21485710144" lon="119.52015686035">
        <ele>6614.16</ele>
        <time>2026-07-22T15:18:10</time>
      </trkpt>
      <trkpt lat="31.239391326904" lon="119.49889373779">
        <ele>6614.16</ele>
        <time>2026-07-22T15:18:25</time>
      </trkpt>
      <trkpt lat="31.263597488403" lon="119.47785949707">
        <ele>6614.16</ele>
        <time>2026-07-22T15:18:40</time>
      </trkpt>
      <trkpt lat="31.288375854492" lon="119.4563369751">
        <ele>6614.16</ele>
        <time>2026-07-22T15:18:54</time>
      </trkpt>
      <trkpt lat="31.312911987305" lon="119.43495941162">
        <ele>6614.16</ele>
        <time>2026-07-22T15:19:09</time>
      </trkpt>
      <trkpt lat="31.337127685547" lon="119.41379547119">
        <ele>6614.16</ele>
        <time>2026-07-22T15:19:24</time>
      </trkpt>
      <trkpt lat="31.362167358398" lon="119.39192962646">
        <ele>6614.16</ele>
        <time>2026-07-22T15:19:39</time>
      </trkpt>
      <trkpt lat="31.386682510376" lon="119.37057495117">
        <ele>6614.16</ele>
        <time>2026-07-22T15:19:54</time>
      </trkpt>
      <trkpt lat="31.411329269409" lon="119.34911346436">
        <ele>6614.16</ele>
        <time>2026-07-22T15:20:09</time>
      </trkpt>
      <trkpt lat="31.435520172119" lon="119.32805633545">
        <ele>6614.16</ele>
        <time>2026-07-22T15:20:24</time>
      </trkpt>
      <trkpt lat="31.460494995117" lon="119.30629730225">
        <ele>6614.16</ele>
        <time>2026-07-22T15:20:39</time>
      </trkpt>
      <trkpt lat="31.485094070435" lon="119.28477478027">
        <ele>6614.16</ele>
        <time>2026-07-22T15:20:54</time>
      </trkpt>
      <trkpt lat="31.510665893555" lon="119.26240539551">
        <ele>6614.16</ele>
        <time>2026-07-22T15:21:13</time>
      </trkpt>
      <trkpt lat="31.535339355469" lon="119.24081420898">
        <ele>6614.16</ele>
        <time>2026-07-22T15:21:28</time>
      </trkpt>
      <trkpt lat="31.559875488281" lon="119.21937561035">
        <ele>6614.16</ele>
        <time>2026-07-22T15:21:42</time>
      </trkpt>
      <trkpt lat="31.584482192993" lon="119.19770812988">
        <ele>6614.16</ele>
        <time>2026-07-22T15:21:57</time>
      </trkpt>
      <trkpt lat="31.610370635986" lon="119.17478942871">
        <ele>6614.16</ele>
        <time>2026-07-22T15:22:11</time>
      </trkpt>
      <trkpt lat="31.634759902954" lon="119.15305328369">
        <ele>6614.16</ele>
        <time>2026-07-22T15:22:26</time>
      </trkpt>
      <trkpt lat="31.659198760986" lon="119.1293182373">
        <ele>6614.16</ele>
        <time>2026-07-22T15:22:41</time>
      </trkpt>
      <trkpt lat="31.68196105957" lon="119.10579681396">
        <ele>6614.16</ele>
        <time>2026-07-22T15:22:56</time>
      </trkpt>
      <trkpt lat="31.706039428711" lon="119.08484649658">
        <ele>6614.16</ele>
        <time>2026-07-22T15:23:11</time>
      </trkpt>
      <trkpt lat="31.735473632812" lon="119.06982421875">
        <ele>6614.16</ele>
        <time>2026-07-22T15:23:26</time>
      </trkpt>
      <trkpt lat="31.764129638672" lon="119.05696868896">
        <ele>6614.16</ele>
        <time>2026-07-22T15:23:41</time>
      </trkpt>
      <trkpt lat="31.792465209961" lon="119.04257965088">
        <ele>6614.16</ele>
        <time>2026-07-22T15:23:56</time>
      </trkpt>
      <trkpt lat="31.82096862793" lon="119.02800750732">
        <ele>6614.16</ele>
        <time>2026-07-22T15:24:11</time>
      </trkpt>
      <trkpt lat="31.849779129028" lon="119.01351928711">
        <ele>6614.16</ele>
        <time>2026-07-22T15:24:26</time>
      </trkpt>
      <trkpt lat="31.879529953003" lon="119.00006103516">
        <ele>6614.16</ele>
        <time>2026-07-22T15:24:41</time>
      </trkpt>
      <trkpt lat="31.908187866211" lon="118.98720550537">
        <ele>6614.16</ele>
        <time>2026-07-22T15:24:56</time>
      </trkpt>
      <trkpt lat="31.937540054321" lon="118.97409057617">
        <ele>6614.16</ele>
        <time>2026-07-22T15:25:11</time>
      </trkpt>
      <trkpt lat="31.967239379883" lon="118.96073150635">
        <ele>6614.16</ele>
        <time>2026-07-22T15:25:26</time>
      </trkpt>
      <trkpt lat="31.996559143066" lon="118.94763183594">
        <ele>6614.16</ele>
        <time>2026-07-22T15:25:41</time>
      </trkpt>
      <trkpt lat="32.025798797607" lon="118.9345703125">
        <ele>6621.78</ele>
        <time>2026-07-22T15:25:56</time>
      </trkpt>
      <trkpt lat="32.054168701172" lon="118.92195129395">
        <ele>6720.84</ele>
        <time>2026-07-22T15:26:11</time>
      </trkpt>
      <trkpt lat="32.083568572998" lon="118.90872955322">
        <ele>6865.62</ele>
        <time>2026-07-22T15:26:26</time>
      </trkpt>
      <trkpt lat="32.113128662109" lon="118.89543914795">
        <ele>7018.02</ele>
        <time>2026-07-22T15:26:41</time>
      </trkpt>
      <trkpt lat="32.141712188721" lon="118.8826675415">
        <ele>7170.42</ele>
        <time>2026-07-22T15:26:56</time>
      </trkpt>
      <trkpt lat="32.170989990234" lon="118.86949157715">
        <ele>7200.9</ele>
        <time>2026-07-22T15:27:11</time>
      </trkpt>
      <trkpt lat="32.199855804443" lon="118.85654449463">
        <ele>7200.9</ele>
        <time>2026-07-22T15:27:26</time>
      </trkpt>
      <trkpt lat="32.228813171387" lon="118.84348297119">
        <ele>7193.28</ele>
        <time>2026-07-22T15:27:41</time>
      </trkpt>
      <trkpt lat="32.258148193359" lon="118.83015441895">
        <ele>7193.28</ele>
        <time>2026-07-22T15:27:56</time>
      </trkpt>
      <trkpt lat="32.286769866943" lon="118.81713867188">
        <ele>7193.28</ele>
        <time>2026-07-22T15:28:11</time>
      </trkpt>
      <trkpt lat="32.315631866455" lon="118.80402374268">
        <ele>7193.28</ele>
        <time>2026-07-22T15:28:26</time>
      </trkpt>
      <trkpt lat="32.344440460205" lon="118.79099273682">
        <ele>7193.28</ele>
        <time>2026-07-22T15:28:41</time>
      </trkpt>
      <trkpt lat="32.373550415039" lon="118.77786254883">
        <ele>7193.28</ele>
        <time>2026-07-22T15:28:56</time>
      </trkpt>
      <trkpt lat="32.402591705322" lon="118.76473236084">
        <ele>7193.28</ele>
        <time>2026-07-22T15:29:11</time>
      </trkpt>
      <trkpt lat="32.431457519531" lon="118.75171661377">
        <ele>7193.28</ele>
        <time>2026-07-22T15:29:26</time>
      </trkpt>
      <trkpt lat="32.460021972656" lon="118.73880767822">
        <ele>7193.28</ele>
        <time>2026-07-22T15:29:41</time>
      </trkpt>
      <trkpt lat="32.489593505859" lon="118.72540283203">
        <ele>7193.28</ele>
        <time>2026-07-22T15:29:56</time>
      </trkpt>
      <trkpt lat="32.518249511719" lon="118.71238708496">
        <ele>7193.28</ele>
        <time>2026-07-22T15:30:11</time>
      </trkpt>
      <trkpt lat="32.547180175781" lon="118.69915008545">
        <ele>7193.28</ele>
        <time>2026-07-22T15:30:26</time>
      </trkpt>
      <trkpt lat="32.576511383057" lon="118.68585968018">
        <ele>7193.28</ele>
        <time>2026-07-22T15:30:41</time>
      </trkpt>
      <trkpt lat="32.606029510498" lon="118.67240905762">
        <ele>7193.28</ele>
        <time>2026-07-22T15:30:56</time>
      </trkpt>
      <trkpt lat="32.634841918945" lon="118.65929412842">
        <ele>7193.28</ele>
        <time>2026-07-22T15:31:11</time>
      </trkpt>
      <trkpt lat="32.664260864258" lon="118.64589691162">
        <ele>7193.28</ele>
        <time>2026-07-22T15:31:26</time>
      </trkpt>
      <trkpt lat="32.693801879883" lon="118.63301086426">
        <ele>7193.28</ele>
        <time>2026-07-22T15:31:41</time>
      </trkpt>
      <trkpt lat="32.725849151611" lon="118.62158203125">
        <ele>7193.28</ele>
        <time>2026-07-22T15:32:00</time>
      </trkpt>
      <trkpt lat="32.755550384521" lon="118.61092376709">
        <ele>7193.28</ele>
        <time>2026-07-22T15:32:15</time>
      </trkpt>
      <trkpt lat="32.786556243896" lon="118.59987640381">
        <ele>7193.28</ele>
        <time>2026-07-22T15:32:30</time>
      </trkpt>
      <trkpt lat="32.817001342773" lon="118.5890045166">
        <ele>7193.28</ele>
        <time>2026-07-22T15:32:45</time>
      </trkpt>
      <trkpt lat="32.847015380859" lon="118.57823944092">
        <ele>7193.28</ele>
        <time>2026-07-22T15:33:00</time>
      </trkpt>
      <trkpt lat="32.87727355957" lon="118.56742095947">
        <ele>7193.28</ele>
        <time>2026-07-22T15:33:15</time>
      </trkpt>
      <trkpt lat="32.907165527344" lon="118.55670928955">
        <ele>7193.28</ele>
        <time>2026-07-22T15:33:30</time>
      </trkpt>
      <trkpt lat="32.938110351562" lon="118.54566955566">
        <ele>7193.28</ele>
        <time>2026-07-22T15:33:45</time>
      </trkpt>
      <trkpt lat="32.968231201172" lon="118.53489685059">
        <ele>7193.28</ele>
        <time>2026-07-22T15:34:00</time>
      </trkpt>
      <trkpt lat="32.99836730957" lon="118.52420806885">
        <ele>7193.28</ele>
        <time>2026-07-22T15:34:15</time>
      </trkpt>
      <trkpt lat="33.031127929688" lon="118.51259613037">
        <ele>7193.28</ele>
        <time>2026-07-22T15:34:30</time>
      </trkpt>
      <trkpt lat="33.061386108398" lon="118.50188446045">
        <ele>7193.28</ele>
        <time>2026-07-22T15:34:45</time>
      </trkpt>
      <trkpt lat="33.092239379883" lon="118.4907913208">
        <ele>7193.28</ele>
        <time>2026-07-22T15:35:00</time>
      </trkpt>
      <trkpt lat="33.122009277344" lon="118.48004150391">
        <ele>7193.28</ele>
        <time>2026-07-22T15:35:15</time>
      </trkpt>
      <trkpt lat="33.153030395508" lon="118.46881866455">
        <ele>7193.28</ele>
        <time>2026-07-22T15:35:30</time>
      </trkpt>
      <trkpt lat="33.182899475098" lon="118.4580078125">
        <ele>7193.28</ele>
        <time>2026-07-22T15:35:45</time>
      </trkpt>
      <trkpt lat="33.213592529297" lon="118.44695281982">
        <ele>7193.28</ele>
        <time>2026-07-22T15:36:00</time>
      </trkpt>
      <trkpt lat="33.244216918945" lon="118.43591308594">
        <ele>7193.28</ele>
        <time>2026-07-22T15:36:14</time>
      </trkpt>
      <trkpt lat="33.275215148926" lon="118.42476654053">
        <ele>7193.28</ele>
        <time>2026-07-22T15:36:29</time>
      </trkpt>
      <trkpt lat="33.305877685547" lon="118.41377258301">
        <ele>7193.28</ele>
        <time>2026-07-22T15:36:44</time>
      </trkpt>
      <trkpt lat="33.336639404297" lon="118.40273284912">
        <ele>7254.24</ele>
        <time>2026-07-22T15:36:59</time>
      </trkpt>
      <trkpt lat="33.367809295654" lon="118.39158630371">
        <ele>7368.54</ele>
        <time>2026-07-22T15:37:14</time>
      </trkpt>
      <trkpt lat="33.3971824646" lon="118.38098907471">
        <ele>7475.22</ele>
        <time>2026-07-22T15:37:29</time>
      </trkpt>
      <trkpt lat="33.427577972412" lon="118.37006378174">
        <ele>7589.52</ele>
        <time>2026-07-22T15:37:44</time>
      </trkpt>
      <trkpt lat="33.457077026367" lon="118.35939025879">
        <ele>7703.82</ele>
        <time>2026-07-22T15:37:59</time>
      </trkpt>
      <trkpt lat="33.486934661865" lon="118.34854125977">
        <ele>7780.02</ele>
        <time>2026-07-22T15:38:14</time>
      </trkpt>
      <trkpt lat="33.517135620117" lon="118.33763885498">
        <ele>7856.22</ele>
        <time>2026-07-22T15:38:29</time>
      </trkpt>
      <trkpt lat="33.54768371582" lon="118.32653045654">
        <ele>7940.04</ele>
        <time>2026-07-22T15:38:44</time>
      </trkpt>
      <trkpt lat="33.578411102295" lon="118.3154296875">
        <ele>8016.24</ele>
        <time>2026-07-22T15:38:59</time>
      </trkpt>
      <trkpt lat="33.610996246338" lon="118.30364227295">
        <ele>8084.82</ele>
        <time>2026-07-22T15:39:14</time>
      </trkpt>
      <trkpt lat="33.642150878906" lon="118.29232025146">
        <ele>8153.4</ele>
        <time>2026-07-22T15:39:29</time>
      </trkpt>
      <trkpt lat="33.672721862793" lon="118.28121185303">
        <ele>8214.36</ele>
        <time>2026-07-22T15:39:44</time>
      </trkpt>
      <trkpt lat="33.703765869141" lon="118.26989746094">
        <ele>8290.56</ele>
        <time>2026-07-22T15:39:59</time>
      </trkpt>
      <trkpt lat="33.735057830811" lon="118.25855255127">
        <ele>8359.14</ele>
        <time>2026-07-22T15:40:14</time>
      </trkpt>
      <trkpt lat="33.766525268555" lon="118.24710845947">
        <ele>8412.48</ele>
        <time>2026-07-22T15:40:29</time>
      </trkpt>
      <trkpt lat="33.798690795898" lon="118.23544311523">
        <ele>8412.48</ele>
        <time>2026-07-22T15:40:44</time>
      </trkpt>
      <trkpt lat="33.830337524414" lon="118.22387695312">
        <ele>8412.48</ele>
        <time>2026-07-22T15:40:59</time>
      </trkpt>
      <trkpt lat="33.862289428711" lon="118.21227264404">
        <ele>8412.48</ele>
        <time>2026-07-22T15:41:14</time>
      </trkpt>
      <trkpt lat="33.893520355225" lon="118.20098876953">
        <ele>8412.48</ele>
        <time>2026-07-22T15:41:29</time>
      </trkpt>
      <trkpt lat="33.925594329834" lon="118.18943023682">
        <ele>8412.48</ele>
        <time>2026-07-22T15:41:44</time>
      </trkpt>
      <trkpt lat="33.95686340332" lon="118.17819213867">
        <ele>8412.48</ele>
        <time>2026-07-22T15:41:59</time>
      </trkpt>
      <trkpt lat="33.989318847656" lon="118.16654205322">
        <ele>8412.48</ele>
        <time>2026-07-22T15:42:14</time>
      </trkpt>
      <trkpt lat="34.020980834961" lon="118.15504455566">
        <ele>8412.48</ele>
        <time>2026-07-22T15:42:29</time>
      </trkpt>
      <trkpt lat="34.052581787109" lon="118.14349365234">
        <ele>8412.48</ele>
        <time>2026-07-22T15:42:44</time>
      </trkpt>
      <trkpt lat="34.084533691406" lon="118.13189697266">
        <ele>8412.48</ele>
        <time>2026-07-22T15:42:59</time>
      </trkpt>
      <trkpt lat="34.11608505249" lon="118.12042236328">
        <ele>8412.48</ele>
        <time>2026-07-22T15:43:14</time>
      </trkpt>
      <trkpt lat="34.147556304932" lon="118.10897827148">
        <ele>8412.48</ele>
        <time>2026-07-22T15:43:29</time>
      </trkpt>
      <trkpt lat="34.179630279541" lon="118.09735870361">
        <ele>8412.48</ele>
        <time>2026-07-22T15:43:44</time>
      </trkpt>
      <trkpt lat="34.211009979248" lon="118.08586120605">
        <ele>8412.48</ele>
        <time>2026-07-22T15:43:59</time>
      </trkpt>
      <trkpt lat="34.242458343506" lon="118.07444000244">
        <ele>8412.48</ele>
        <time>2026-07-22T15:44:14</time>
      </trkpt>
      <trkpt lat="34.273525238037" lon="118.06314086914">
        <ele>8412.48</ele>
        <time>2026-07-22T15:44:29</time>
      </trkpt>
      <trkpt lat="34.305770874023" lon="118.05139923096">
        <ele>8412.48</ele>
        <time>2026-07-22T15:44:44</time>
      </trkpt>
      <trkpt lat="34.336559295654" lon="118.04037475586">
        <ele>8412.48</ele>
        <time>2026-07-22T15:44:59</time>
      </trkpt>
      <trkpt lat="34.36848449707" lon="118.02903747559">
        <ele>8412.48</ele>
        <time>2026-07-22T15:45:14</time>
      </trkpt>
      <trkpt lat="34.399795532227" lon="118.01788330078">
        <ele>8412.48</ele>
        <time>2026-07-22T15:45:29</time>
      </trkpt>
      <trkpt lat="34.423370361328" lon="118.00952911377">
        <ele>8412.48</ele>
        <time>2026-07-22T15:45:42</time>
      </trkpt>
      <trkpt lat="34.455219268799" lon="117.99819946289">
        <ele>8412.48</ele>
        <time>2026-07-22T15:45:57</time>
      </trkpt>
      <trkpt lat="34.486080169678" lon="117.98721313477">
        <ele>8412.48</ele>
        <time>2026-07-22T15:46:12</time>
      </trkpt>
      <trkpt lat="34.517971038818" lon="117.97583007812">
        <ele>8412.48</ele>
        <time>2026-07-22T15:46:27</time>
      </trkpt>
      <trkpt lat="34.549530029297" lon="117.96452331543">
        <ele>8412.48</ele>
        <time>2026-07-22T15:46:42</time>
      </trkpt>
      <trkpt lat="34.580863952637" lon="117.95333862305">
        <ele>8412.48</ele>
        <time>2026-07-22T15:46:57</time>
      </trkpt>
      <trkpt lat="34.613822937012" lon="117.94149780273">
        <ele>8412.48</ele>
        <time>2026-07-22T15:47:12</time>
      </trkpt>
      <trkpt lat="34.648315429688" lon="117.92915344238">
        <ele>8412.48</ele>
        <time>2026-07-22T15:47:27</time>
      </trkpt>
      <trkpt lat="34.678859710693" lon="117.91821289062">
        <ele>8412.48</ele>
        <time>2026-07-22T15:47:42</time>
      </trkpt>
      <trkpt lat="34.710205078125" lon="117.90701293945">
        <ele>8412.48</ele>
        <time>2026-07-22T15:47:57</time>
      </trkpt>
      <trkpt lat="34.742340087891" lon="117.89552307129">
        <ele>8412.48</ele>
        <time>2026-07-22T15:48:12</time>
      </trkpt>
      <trkpt lat="34.773357391357" lon="117.88438415527">
        <ele>8412.48</ele>
        <time>2026-07-22T15:48:27</time>
      </trkpt>
      <trkpt lat="34.805431365967" lon="117.87128448486">
        <ele>8412.48</ele>
        <time>2026-07-22T15:48:42</time>
      </trkpt>
      <trkpt lat="34.833755493164" lon="117.85432434082">
        <ele>8412.48</ele>
        <time>2026-07-22T15:48:57</time>
      </trkpt>
      <trkpt lat="34.862640380859" lon="117.83128356934">
        <ele>8412.48</ele>
        <time>2026-07-22T15:49:16</time>
      </trkpt>
      <trkpt lat="34.88676071167" lon="117.80668640137">
        <ele>8412.48</ele>
        <time>2026-07-22T15:49:30</time>
      </trkpt>
      <trkpt lat="34.910171508789" lon="117.78105163574">
        <ele>8412.48</ele>
        <time>2026-07-22T15:49:45</time>
      </trkpt>
      <trkpt lat="34.933261871338" lon="117.75598907471">
        <ele>8412.48</ele>
        <time>2026-07-22T15:50:00</time>
      </trkpt>
      <trkpt lat="34.957191467285" lon="117.73011779785">
        <ele>8412.48</ele>
        <time>2026-07-22T15:50:15</time>
      </trkpt>
      <trkpt lat="34.981258392334" lon="117.70403289795">
        <ele>8412.48</ele>
        <time>2026-07-22T15:50:30</time>
      </trkpt>
      <trkpt lat="35.004138946533" lon="117.67916107178">
        <ele>8412.48</ele>
        <time>2026-07-22T15:50:45</time>
      </trkpt>
      <trkpt lat="35.027626037598" lon="117.65361785889">
        <ele>8412.48</ele>
        <time>2026-07-22T15:51:00</time>
      </trkpt>
      <trkpt lat="35.05122756958" lon="117.62798309326">
        <ele>8412.48</ele>
        <time>2026-07-22T15:51:15</time>
      </trkpt>
      <trkpt lat="35.075180053711" lon="117.60186004639">
        <ele>8412.48</ele>
        <time>2026-07-22T15:51:30</time>
      </trkpt>
      <trkpt lat="35.098621368408" lon="117.57630157471">
        <ele>8412.48</ele>
        <time>2026-07-22T15:51:45</time>
      </trkpt>
      <trkpt lat="35.123615264893" lon="117.54890441895">
        <ele>8412.48</ele>
        <time>2026-07-22T15:52:00</time>
      </trkpt>
      <trkpt lat="35.148056030273" lon="117.52220916748">
        <ele>8412.48</ele>
        <time>2026-07-22T15:52:15</time>
      </trkpt>
      <trkpt lat="35.173984527588" lon="117.49803161621">
        <ele>8412.48</ele>
        <time>2026-07-22T15:52:30</time>
      </trkpt>
      <trkpt lat="35.203453063965" lon="117.47984313965">
        <ele>8412.48</ele>
        <time>2026-07-22T15:52:45</time>
      </trkpt>
      <trkpt lat="35.23649597168" lon="117.46387481689">
        <ele>8412.48</ele>
        <time>2026-07-22T15:53:04</time>
      </trkpt>
      <trkpt lat="35.268348693848" lon="117.4521484375">
        <ele>8412.48</ele>
        <time>2026-07-22T15:53:19</time>
      </trkpt>
      <trkpt lat="35.300609588623" lon="117.44127655029">
        <ele>8412.48</ele>
        <time>2026-07-22T15:53:34</time>
      </trkpt>
      <trkpt lat="35.332122802734" lon="117.43074035645">
        <ele>8412.48</ele>
        <time>2026-07-22T15:53:48</time>
      </trkpt>
      <trkpt lat="35.364349365234" lon="117.42004394531">
        <ele>8412.48</ele>
        <time>2026-07-22T15:54:03</time>
      </trkpt>
      <trkpt lat="35.397491455078" lon="117.40911102295">
        <ele>8412.48</ele>
        <time>2026-07-22T15:54:17</time>
      </trkpt>
      <trkpt lat="35.429763793945" lon="117.39859008789">
        <ele>8412.48</ele>
        <time>2026-07-22T15:54:32</time>
      </trkpt>
      <trkpt lat="35.463821411133" lon="117.38754272461">
        <ele>8412.48</ele>
        <time>2026-07-22T15:54:47</time>
      </trkpt>
      <trkpt lat="35.495540618896" lon="117.37718963623">
        <ele>8412.48</ele>
        <time>2026-07-22T15:55:02</time>
      </trkpt>
      <trkpt lat="35.527679443359" lon="117.36666107178">
        <ele>8412.48</ele>
        <time>2026-07-22T15:55:17</time>
      </trkpt>
      <trkpt lat="35.559108734131" lon="117.35636901855">
        <ele>8412.48</ele>
        <time>2026-07-22T15:55:32</time>
      </trkpt>
      <trkpt lat="35.590068817139" lon="117.34607696533">
        <ele>8412.48</ele>
        <time>2026-07-22T15:55:47</time>
      </trkpt>
      <trkpt lat="35.61360168457" lon="117.33827972412">
        <ele>8412.48</ele>
        <time>2026-07-22T15:56:01</time>
      </trkpt>
      <trkpt lat="35.64714050293" lon="117.32708740234">
        <ele>8412.48</ele>
        <time>2026-07-22T15:56:16</time>
      </trkpt>
      <trkpt lat="35.678146362305" lon="117.3168182373">
        <ele>8412.48</ele>
        <time>2026-07-22T15:56:31</time>
      </trkpt>
      <trkpt lat="35.709617614746" lon="117.30634307861">
        <ele>8412.48</ele>
        <time>2026-07-22T15:56:46</time>
      </trkpt>
      <trkpt lat="35.74040222168" lon="117.29610443115">
        <ele>8412.48</ele>
        <time>2026-07-22T15:57:00</time>
      </trkpt>
      <trkpt lat="35.772506713867" lon="117.28536224365">
        <ele>8412.48</ele>
        <time>2026-07-22T15:57:14</time>
      </trkpt>
      <trkpt lat="35.803619384766" lon="117.27499389648">
        <ele>8412.48</ele>
        <time>2026-07-22T15:57:29</time>
      </trkpt>
      <trkpt lat="35.83670425415" lon="117.26391601562">
        <ele>8412.48</ele>
        <time>2026-07-22T15:57:48</time>
      </trkpt>
      <trkpt lat="35.868759155273" lon="117.25318908691">
        <ele>8412.48</ele>
        <time>2026-07-22T15:58:03</time>
      </trkpt>
      <trkpt lat="35.900115966797" lon="117.24272155762">
        <ele>8412.48</ele>
        <time>2026-07-22T15:58:17</time>
      </trkpt>
      <trkpt lat="35.932323455811" lon="117.2320098877">
        <ele>8412.48</ele>
        <time>2026-07-22T15:58:32</time>
      </trkpt>
      <trkpt lat="35.964431762695" lon="117.22120666504">
        <ele>8412.48</ele>
        <time>2026-07-22T15:58:47</time>
      </trkpt>
      <trkpt lat="35.995651245117" lon="117.21067810059">
        <ele>8412.48</ele>
        <time>2026-07-22T15:59:02</time>
      </trkpt>
      <trkpt lat="36.030269622803" lon="117.19905090332">
        <ele>8412.48</ele>
        <time>2026-07-22T15:59:17</time>
      </trkpt>
      <trkpt lat="36.062015533447" lon="117.18841552734">
        <ele>8412.48</ele>
        <time>2026-07-22T15:59:32</time>
      </trkpt>
      <trkpt lat="36.094089508057" lon="117.17760467529">
        <ele>8412.48</ele>
        <time>2026-07-22T15:59:47</time>
      </trkpt>
      <trkpt lat="36.12565612793" lon="117.16701507568">
        <ele>8412.48</ele>
        <time>2026-07-22T16:00:02</time>
      </trkpt>
      <trkpt lat="36.159759521484" lon="117.15557098389">
        <ele>8412.48</ele>
        <time>2026-07-22T16:00:17</time>
      </trkpt>
      <trkpt lat="36.192081451416" lon="117.14476013184">
        <ele>8412.48</ele>
        <time>2026-07-22T16:00:32</time>
      </trkpt>
      <trkpt lat="36.216247558594" lon="117.13668823242">
        <ele>8412.48</ele>
        <time>2026-07-22T16:00:45</time>
      </trkpt>
      <trkpt lat="36.248657226562" lon="117.12576293945">
        <ele>8412.48</ele>
        <time>2026-07-22T16:00:59</time>
      </trkpt>
      <trkpt lat="36.274108886719" lon="117.11705780029">
        <ele>8412.48</ele>
        <time>2026-07-22T16:01:13</time>
      </trkpt>
      <trkpt lat="36.308418273926" lon="117.10543060303">
        <ele>8412.48</ele>
        <time>2026-07-22T16:01:28</time>
      </trkpt>
      <trkpt lat="36.341125488281" lon="117.09428405762">
        <ele>8412.48</ele>
        <time>2026-07-22T16:01:43</time>
      </trkpt>
      <trkpt lat="36.373668670654" lon="117.08323669434">
        <ele>8412.48</ele>
        <time>2026-07-22T16:01:58</time>
      </trkpt>
      <trkpt lat="36.405807495117" lon="117.07225799561">
        <ele>8412.48</ele>
        <time>2026-07-22T16:02:13</time>
      </trkpt>
      <trkpt lat="36.440185546875" lon="117.06053161621">
        <ele>8412.48</ele>
        <time>2026-07-22T16:02:28</time>
      </trkpt>
      <trkpt lat="36.472869873047" lon="117.04948425293">
        <ele>8412.48</ele>
        <time>2026-07-22T16:02:43</time>
      </trkpt>
      <trkpt lat="36.505748748779" lon="117.03845977783">
        <ele>8412.48</ele>
        <time>2026-07-22T16:02:57</time>
      </trkpt>
      <trkpt lat="36.538944244385" lon="117.02718353271">
        <ele>8412.48</ele>
        <time>2026-07-22T16:03:12</time>
      </trkpt>
      <trkpt lat="36.571197509766" lon="117.0161819458">
        <ele>8412.48</ele>
        <time>2026-07-22T16:03:27</time>
      </trkpt>
      <trkpt lat="36.604072570801" lon="117.00485992432">
        <ele>8412.48</ele>
        <time>2026-07-22T16:03:42</time>
      </trkpt>
      <trkpt lat="36.637298583984" lon="116.99346160889">
        <ele>8412.48</ele>
        <time>2026-07-22T16:03:57</time>
      </trkpt>
      <trkpt lat="36.670391082764" lon="116.98207855225">
        <ele>8412.48</ele>
        <time>2026-07-22T16:04:12</time>
      </trkpt>
      <trkpt lat="36.705600738525" lon="116.97006225586">
        <ele>8412.48</ele>
        <time>2026-07-22T16:04:31</time>
      </trkpt>
      <trkpt lat="36.740840911865" lon="116.95799255371">
        <ele>8412.48</ele>
        <time>2026-07-22T16:04:46</time>
      </trkpt>
      <trkpt lat="36.773334503174" lon="116.94683074951">
        <ele>8412.48</ele>
        <time>2026-07-22T16:05:01</time>
      </trkpt>
      <trkpt lat="36.806396484375" lon="116.93544769287">
        <ele>8412.48</ele>
        <time>2026-07-22T16:05:16</time>
      </trkpt>
      <trkpt lat="36.839168548584" lon="116.92417144775">
        <ele>8412.48</ele>
        <time>2026-07-22T16:05:31</time>
      </trkpt>
      <trkpt lat="36.871994018555" lon="116.912940979">
        <ele>8412.48</ele>
        <time>2026-07-22T16:05:46</time>
      </trkpt>
      <trkpt lat="36.905502319336" lon="116.90148162842">
        <ele>8412.48</ele>
        <time>2026-07-22T16:06:01</time>
      </trkpt>
      <trkpt lat="36.938407897949" lon="116.89022827148">
        <ele>8412.48</ele>
        <time>2026-07-22T16:06:16</time>
      </trkpt>
      <trkpt lat="36.971969604492" lon="116.87869262695">
        <ele>8412.48</ele>
        <time>2026-07-22T16:06:29</time>
      </trkpt>
      <trkpt lat="37.004653930664" lon="116.86742401123">
        <ele>8412.48</ele>
        <time>2026-07-22T16:06:44</time>
      </trkpt>
      <trkpt lat="37.037425994873" lon="116.85614013672">
        <ele>8412.48</ele>
        <time>2026-07-22T16:06:59</time>
      </trkpt>
      <trkpt lat="37.071075439453" lon="116.84456634521">
        <ele>8412.48</ele>
        <time>2026-07-22T16:07:14</time>
      </trkpt>
      <trkpt lat="37.103210449219" lon="116.83351898193">
        <ele>8412.48</ele>
        <time>2026-07-22T16:07:29</time>
      </trkpt>
      <trkpt lat="37.127319335938" lon="116.82521057129">
        <ele>8412.48</ele>
        <time>2026-07-22T16:07:42</time>
      </trkpt>
      <trkpt lat="37.160842895508" lon="116.81359863281">
        <ele>8412.48</ele>
        <time>2026-07-22T16:07:57</time>
      </trkpt>
      <trkpt lat="37.193748474121" lon="116.80222320557">
        <ele>8412.48</ele>
        <time>2026-07-22T16:08:12</time>
      </trkpt>
      <trkpt lat="37.226669311523" lon="116.79180145264">
        <ele>8412.48</ele>
        <time>2026-07-22T16:08:27</time>
      </trkpt>
      <trkpt lat="37.262191772461" lon="116.78179931641">
        <ele>8412.48</ele>
        <time>2026-07-22T16:08:42</time>
      </trkpt>
      <trkpt lat="37.29508972168" lon="116.77291107178">
        <ele>8412.48</ele>
        <time>2026-07-22T16:08:57</time>
      </trkpt>
      <trkpt lat="37.32799911499" lon="116.76400756836">
        <ele>8412.48</ele>
        <time>2026-07-22T16:09:12</time>
      </trkpt>
      <trkpt lat="37.363357543945" lon="116.75428009033">
        <ele>8412.48</ele>
        <time>2026-07-22T16:09:27</time>
      </trkpt>
      <trkpt lat="37.397506713867" lon="116.7446975708">
        <ele>8412.48</ele>
        <time>2026-07-22T16:09:46</time>
      </trkpt>
      <trkpt lat="37.430095672607" lon="116.7353515625">
        <ele>8275.32</ele>
        <time>2026-07-22T16:10:00</time>
      </trkpt>
      <trkpt lat="37.462028503418" lon="116.72621154785">
        <ele>8046.72</ele>
        <time>2026-07-22T16:10:15</time>
      </trkpt>
      <trkpt lat="37.494148254395" lon="116.71701812744">
        <ele>7818.12</ele>
        <time>2026-07-22T16:10:30</time>
      </trkpt>
      <trkpt lat="37.525539398193" lon="116.70793914795">
        <ele>7612.38</ele>
        <time>2026-07-22T16:10:45</time>
      </trkpt>
      <trkpt lat="37.558090209961" lon="116.69841766357">
        <ele>7383.78</ele>
        <time>2026-07-22T16:11:00</time>
      </trkpt>
      <trkpt lat="37.589767456055" lon="116.68912506104">
        <ele>7155.18</ele>
        <time>2026-07-22T16:11:14</time>
      </trkpt>
      <trkpt lat="37.621192932129" lon="116.67987823486">
        <ele>6934.2</ele>
        <time>2026-07-22T16:11:29</time>
      </trkpt>
      <trkpt lat="37.652660369873" lon="116.67056274414">
        <ele>6736.08</ele>
        <time>2026-07-22T16:11:44</time>
      </trkpt>
      <trkpt lat="37.682968139648" lon="116.66159820557">
        <ele>6522.72</ele>
        <time>2026-07-22T16:11:58</time>
      </trkpt>
      <trkpt lat="37.71443939209" lon="116.65247344971">
        <ele>6278.88</ele>
        <time>2026-07-22T16:12:13</time>
      </trkpt>
      <trkpt lat="37.744274139404" lon="116.64399719238">
        <ele>6088.38</ele>
        <time>2026-07-22T16:12:28</time>
      </trkpt>
      <trkpt lat="37.773376464844" lon="116.63558959961">
        <ele>5913.12</ele>
        <time>2026-07-22T16:12:43</time>
      </trkpt>
      <trkpt lat="37.802738189697" lon="116.62734222412">
        <ele>5722.62</ele>
        <time>2026-07-22T16:12:58</time>
      </trkpt>
      <trkpt lat="37.831188201904" lon="116.61904907227">
        <ele>5554.98</ele>
        <time>2026-07-22T16:13:13</time>
      </trkpt>
      <trkpt lat="37.859619140625" lon="116.61058044434">
        <ele>5372.1</ele>
        <time>2026-07-22T16:13:28</time>
      </trkpt>
      <trkpt lat="37.88703918457" lon="116.6024017334">
        <ele>5181.6</ele>
        <time>2026-07-22T16:13:43</time>
      </trkpt>
      <trkpt lat="37.91569519043" lon="116.59386444092">
        <ele>5013.96</ele>
        <time>2026-07-22T16:13:58</time>
      </trkpt>
      <trkpt lat="37.943439483643" lon="116.58563232422">
        <ele>4861.56</ele>
        <time>2026-07-22T16:14:13</time>
      </trkpt>
      <trkpt lat="37.970752716064" lon="116.57765960693">
        <ele>4716.78</ele>
        <time>2026-07-22T16:14:28</time>
      </trkpt>
      <trkpt lat="37.991329193115" lon="116.5715713501">
        <ele>4594.86</ele>
        <time>2026-07-22T16:14:42</time>
      </trkpt>
      <trkpt lat="38.016860961914" lon="116.5641784668">
        <ele>4419.6</ele>
        <time>2026-07-22T16:14:57</time>
      </trkpt>
      <trkpt lat="38.043960571289" lon="116.55635070801">
        <ele>4251.96</ele>
        <time>2026-07-22T16:15:12</time>
      </trkpt>
      <trkpt lat="38.07116317749" lon="116.54840087891">
        <ele>4084.32</ele>
        <time>2026-07-22T16:15:27</time>
      </trkpt>
      <trkpt lat="38.098846435547" lon="116.54028320312">
        <ele>3970.02</ele>
        <time>2026-07-22T16:15:42</time>
      </trkpt>
      <trkpt lat="38.124893188477" lon="116.53274536133">
        <ele>3855.72</ele>
        <time>2026-07-22T16:15:57</time>
      </trkpt>
      <trkpt lat="38.151947021484" lon="116.52485656738">
        <ele>3741.42</ele>
        <time>2026-07-22T16:16:12</time>
      </trkpt>
      <trkpt lat="38.17822265625" lon="116.51719665527">
        <ele>3627.12</ele>
        <time>2026-07-22T16:16:27</time>
      </trkpt>
      <trkpt lat="38.204490661621" lon="116.50952911377">
        <ele>3596.64</ele>
        <time>2026-07-22T16:16:42</time>
      </trkpt>
      <trkpt lat="38.230697631836" lon="116.50170898438">
        <ele>3596.64</ele>
        <time>2026-07-22T16:16:57</time>
      </trkpt>
      <trkpt lat="38.256210327148" lon="116.49418640137">
        <ele>3596.64</ele>
        <time>2026-07-22T16:17:12</time>
      </trkpt>
      <trkpt lat="38.281951904297" lon="116.48657989502">
        <ele>3596.64</ele>
        <time>2026-07-22T16:17:27</time>
      </trkpt>
      <trkpt lat="38.308158874512" lon="116.47878265381">
        <ele>3596.64</ele>
        <time>2026-07-22T16:17:42</time>
      </trkpt>
      <trkpt lat="38.334369659424" lon="116.47102355957">
        <ele>3596.64</ele>
        <time>2026-07-22T16:17:57</time>
      </trkpt>
      <trkpt lat="38.361148834229" lon="116.46308135986">
        <ele>3596.64</ele>
        <time>2026-07-22T16:18:12</time>
      </trkpt>
      <trkpt lat="38.388046264648" lon="116.45520019531">
        <ele>3596.64</ele>
        <time>2026-07-22T16:18:27</time>
      </trkpt>
      <trkpt lat="38.413650512695" lon="116.44763183594">
        <ele>3596.64</ele>
        <time>2026-07-22T16:18:42</time>
      </trkpt>
      <trkpt lat="38.440509796143" lon="116.43963623047">
        <ele>3596.64</ele>
        <time>2026-07-22T16:18:57</time>
      </trkpt>
      <trkpt lat="38.466770172119" lon="116.43187713623">
        <ele>3596.64</ele>
        <time>2026-07-22T16:19:12</time>
      </trkpt>
      <trkpt lat="38.494216918945" lon="116.42385101318">
        <ele>3596.64</ele>
        <time>2026-07-22T16:19:27</time>
      </trkpt>
      <trkpt lat="38.520629882812" lon="116.41609191895">
        <ele>3596.64</ele>
        <time>2026-07-22T16:19:42</time>
      </trkpt>
      <trkpt lat="38.546558380127" lon="116.40844726562">
        <ele>3596.64</ele>
        <time>2026-07-22T16:19:57</time>
      </trkpt>
      <trkpt lat="38.573272705078" lon="116.40044403076">
        <ele>3596.64</ele>
        <time>2026-07-22T16:20:12</time>
      </trkpt>
      <trkpt lat="38.600090026855" lon="116.39240264893">
        <ele>3596.64</ele>
        <time>2026-07-22T16:20:27</time>
      </trkpt>
      <trkpt lat="38.625869750977" lon="116.38564300537">
        <ele>3589.02</ele>
        <time>2026-07-22T16:20:41</time>
      </trkpt>
      <trkpt lat="38.651905059814" lon="116.38677978516">
        <ele>3589.02</ele>
        <time>2026-07-22T16:20:56</time>
      </trkpt>
      <trkpt lat="38.676452636719" lon="116.39417266846">
        <ele>3589.02</ele>
        <time>2026-07-22T16:21:11</time>
      </trkpt>
      <trkpt lat="38.699020385742" lon="116.40110015869">
        <ele>3589.02</ele>
        <time>2026-07-22T16:21:26</time>
      </trkpt>
      <trkpt lat="38.721080780029" lon="116.40783691406">
        <ele>3589.02</ele>
        <time>2026-07-22T16:21:41</time>
      </trkpt>
      <trkpt lat="38.743938446045" lon="116.41485595703">
        <ele>3596.64</ele>
        <time>2026-07-22T16:21:56</time>
      </trkpt>
      <trkpt lat="38.765769958496" lon="116.42156982422">
        <ele>3543.3</ele>
        <time>2026-07-22T16:22:11</time>
      </trkpt>
      <trkpt lat="38.787418365479" lon="116.42840576172">
        <ele>3459.48</ele>
        <time>2026-07-22T16:22:26</time>
      </trkpt>
      <trkpt lat="38.808288574219" lon="116.43477630615">
        <ele>3368.04</ele>
        <time>2026-07-22T16:22:41</time>
      </trkpt>
      <trkpt lat="38.82884979248" lon="116.44116210938">
        <ele>3246.12</ele>
        <time>2026-07-22T16:22:56</time>
      </trkpt>
      <trkpt lat="38.849147796631" lon="116.44769287109">
        <ele>3131.82</ele>
        <time>2026-07-22T16:23:11</time>
      </trkpt>
      <trkpt lat="38.869129180908" lon="116.45388031006">
        <ele>3048.0</ele>
        <time>2026-07-22T16:23:26</time>
      </trkpt>
      <trkpt lat="38.888622283936" lon="116.4599609375">
        <ele>2971.8</ele>
        <time>2026-07-22T16:23:41</time>
      </trkpt>
      <trkpt lat="38.90775680542" lon="116.46569824219">
        <ele>2865.12</ele>
        <time>2026-07-22T16:23:56</time>
      </trkpt>
      <trkpt lat="38.926559448242" lon="116.47155761719">
        <ele>2750.82</ele>
        <time>2026-07-22T16:24:11</time>
      </trkpt>
      <trkpt lat="38.945693969727" lon="116.47741699219">
        <ele>2651.76</ele>
        <time>2026-07-22T16:24:26</time>
      </trkpt>
      <trkpt lat="38.964176177979" lon="116.48315429688">
        <ele>2537.46</ele>
        <time>2026-07-22T16:24:41</time>
      </trkpt>
      <trkpt lat="38.982517242432" lon="116.48864746094">
        <ele>2468.88</ele>
        <time>2026-07-22T16:24:56</time>
      </trkpt>
      <trkpt lat="39.000392913818" lon="116.49401855469">
        <ele>2385.06</ele>
        <time>2026-07-22T16:25:11</time>
      </trkpt>
      <trkpt lat="39.018539428711" lon="116.49752807617">
        <ele>2293.62</ele>
        <time>2026-07-22T16:25:26</time>
      </trkpt>
      <trkpt lat="39.036613464355" lon="116.49835205078">
        <ele>2186.94</ele>
        <time>2026-07-22T16:25:41</time>
      </trkpt>
      <trkpt lat="39.054382324219" lon="116.49687194824">
        <ele>2072.64</ele>
        <time>2026-07-22T16:25:56</time>
      </trkpt>
      <trkpt lat="39.072315216064" lon="116.49401855469">
        <ele>1950.72</ele>
        <time>2026-07-22T16:26:11</time>
      </trkpt>
      <trkpt lat="39.090381622314" lon="116.49127197266">
        <ele>1828.8</ele>
        <time>2026-07-22T16:26:26</time>
      </trkpt>
      <trkpt lat="39.107696533203" lon="116.48876953125">
        <ele>1714.5</ele>
        <time>2026-07-22T16:26:41</time>
      </trkpt>
      <trkpt lat="39.125106811523" lon="116.48594665527">
        <ele>1600.2</ele>
        <time>2026-07-22T16:26:56</time>
      </trkpt>
      <trkpt lat="39.143123626709" lon="116.48297119141">
        <ele>1524.0</ele>
        <time>2026-07-22T16:27:11</time>
      </trkpt>
      <trkpt lat="39.160354614258" lon="116.48027801514">
        <ele>1463.04</ele>
        <time>2026-07-22T16:27:26</time>
      </trkpt>
      <trkpt lat="39.177337646484" lon="116.4775390625">
        <ele>1417.32</ele>
        <time>2026-07-22T16:27:41</time>
      </trkpt>
      <trkpt lat="39.194049835205" lon="116.47485351562">
        <ele>1379.22</ele>
        <time>2026-07-22T16:27:56</time>
      </trkpt>
      <trkpt lat="39.209972381592" lon="116.47229003906">
        <ele>1325.88</ele>
        <time>2026-07-22T16:28:11</time>
      </trkpt>
      <trkpt lat="39.225540161133" lon="116.46982574463">
        <ele>1280.16</ele>
        <time>2026-07-22T16:28:26</time>
      </trkpt>
      <trkpt lat="39.240650177002" lon="116.4674987793">
        <ele>1257.3</ele>
        <time>2026-07-22T16:28:41</time>
      </trkpt>
      <trkpt lat="39.254791259766" lon="116.46528625488">
        <ele>1264.92</ele>
        <time>2026-07-22T16:28:56</time>
      </trkpt>
      <trkpt lat="39.269668579102" lon="116.46283721924">
        <ele>1249.68</ele>
        <time>2026-07-22T16:29:11</time>
      </trkpt>
      <trkpt lat="39.284042358398" lon="116.46069335938">
        <ele>1181.1</ele>
        <time>2026-07-22T16:29:26</time>
      </trkpt>
      <trkpt lat="39.297351837158" lon="116.45861816406">
        <ele>1097.28</ele>
        <time>2026-07-22T16:29:41</time>
      </trkpt>
      <trkpt lat="39.307640075684" lon="116.45703125">
        <ele>1036.32</ele>
        <time>2026-07-22T16:29:56</time>
      </trkpt>
      <trkpt lat="39.322128295898" lon="116.45478057861">
        <ele>967.74</ele>
        <time>2026-07-22T16:30:11</time>
      </trkpt>
      <trkpt lat="39.333435058594" lon="116.4529876709">
        <ele>899.16</ele>
        <time>2026-07-22T16:30:26</time>
      </trkpt>
      <trkpt lat="39.346893310547" lon="116.4508972168">
        <ele>822.96</ele>
        <time>2026-07-22T16:30:41</time>
      </trkpt>
      <trkpt lat="39.355499267578" lon="116.44952392578">
        <ele>777.24</ele>
        <time>2026-07-22T16:30:56</time>
      </trkpt>
      <trkpt lat="39.367488861084" lon="116.44766998291">
        <ele>716.28</ele>
        <time>2026-07-22T16:31:12</time>
      </trkpt>
      <trkpt lat="39.379795074463" lon="116.44573974609">
        <ele>640.08</ele>
        <time>2026-07-22T16:31:26</time>
      </trkpt>
      <trkpt lat="39.388221740723" lon="116.44439697266">
        <ele>586.74</ele>
        <time>2026-07-22T16:31:41</time>
      </trkpt>
      <trkpt lat="39.399349212646" lon="116.4426574707">
        <ele>525.78</ele>
        <time>2026-07-22T16:31:56</time>
      </trkpt>
      <trkpt lat="39.412147521973" lon="116.44067382812">
        <ele>449.58</ele>
        <time>2026-07-22T16:32:11</time>
      </trkpt>
      <trkpt lat="39.425308227539" lon="116.43859863281">
        <ele>373.38</ele>
        <time>2026-07-22T16:32:31</time>
      </trkpt>
      <trkpt lat="39.437328338623" lon="116.43670654297">
        <ele>304.8</ele>
        <time>2026-07-22T16:32:46</time>
      </trkpt>
      <trkpt lat="39.447048187256" lon="116.43520355225">
        <ele>251.46</ele>
        <time>2026-07-22T16:33:01</time>
      </trkpt>
      <trkpt lat="39.457298278809" lon="116.43353271484">
        <ele>190.5</ele>
        <time>2026-07-22T16:33:16</time>
      </trkpt>
      <trkpt lat="39.468566894531" lon="116.43179321289">
        <ele>129.54</ele>
        <time>2026-07-22T16:33:31</time>
      </trkpt>
      <trkpt lat="39.479648590088" lon="116.43005371094">
        <ele>91.44</ele>
        <time>2026-07-22T16:33:46</time>
      </trkpt>
      <trkpt lat="39.487380981445" lon="116.42880249023">
        <ele>0.0</ele>
        <time>2026-07-22T16:34:04</time>
      </trkpt>
      <trkpt lat="39.490310668945" lon="116.42834472656">
        <ele>0.0</ele>
        <time>2026-07-22T16:34:18</time>
      </trkpt>
      <trkpt lat="39.492462158203" lon="116.42799377441">
        <ele>0.0</ele>
        <time>2026-07-22T16:34:32</time>
      </trkpt>
      <trkpt lat="39.493942260742" lon="116.42758178711">
        <ele>0.0</ele>
        <time>2026-07-22T16:34:47</time>
      </trkpt>
      <trkpt lat="39.495792388916" lon="116.42617797852">
        <ele>0.0</ele>
        <time>2026-07-22T16:35:01</time>
      </trkpt>
      <trkpt lat="39.496501922607" lon="116.42555236816">
        <ele>0.0</ele>
        <time>2026-07-22T16:35:15</time>
      </trkpt>
      <trkpt lat="39.496936798096" lon="116.42481994629">
        <ele>0.0</ele>
        <time>2026-07-22T16:35:29</time>
      </trkpt>
      <trkpt lat="39.496948242188" lon="116.4242401123">
        <ele>0.0</ele>
        <time>2026-07-22T16:35:43</time>
      </trkpt>
      <trkpt lat="39.497489929199" lon="116.42384338379">
        <ele>0.0</ele>
        <time>2026-07-22T16:35:57</time>
      </trkpt>
      <trkpt lat="39.498306274414" lon="116.42370605469">
        <ele>0.0</ele>
        <time>2026-07-22T16:36:12</time>
      </trkpt>
      <trkpt lat="39.499492645264" lon="116.42352294922">
        <ele>0.0</ele>
        <time>2026-07-22T16:36:26</time>
      </trkpt>
      <trkpt lat="39.500930786133" lon="116.42328643799">
        <ele>0.0</ele>
        <time>2026-07-22T16:36:41</time>
      </trkpt>
      <trkpt lat="39.502006530762" lon="116.42305755615">
        <ele>0.0</ele>
        <time>2026-07-22T16:37:00</time>
      </trkpt>
      <trkpt lat="39.502109527588" lon="116.42225646973">
        <ele>0.0</ele>
        <time>2026-07-22T16:37:14</time>
      </trkpt>
      <trkpt lat="39.502006530762" lon="116.42119598389">
        <ele>0.0</ele>
        <time>2026-07-22T16:37:30</time>
      </trkpt>
      <trkpt lat="39.501857757568" lon="116.41959381104">
        <ele>0.0</ele>
        <time>2026-07-22T16:37:43</time>
      </trkpt>
      <trkpt lat="39.501739501953" lon="116.41836547852">
        <ele>0.0</ele>
        <time>2026-07-22T16:37:57</time>
      </trkpt>
      <trkpt lat="39.501621246338" lon="116.41708374023">
        <ele>0.0</ele>
        <time>2026-07-22T16:38:10</time>
      </trkpt>
      <trkpt lat="39.501670837402" lon="116.41596984863">
        <ele>0.0</ele>
        <time>2026-07-22T16:38:25</time>
      </trkpt>
      <trkpt lat="39.502109527588" lon="116.41578674316">
        <ele>0.0</ele>
        <time>2026-07-22T16:38:39</time>
      </trkpt>
      <trkpt lat="39.503017425537" lon="116.41566467285">
        <ele>0.0</ele>
        <time>2026-07-22T16:38:58</time>
      </trkpt>
    </trkseg>
  </trk>
</gpx>