<?xml version="1.0" encoding="UTF-8"?>
<gpx xmlns="http://www.topografix.com/GPX/1/1" xmlns:xsi="http://www.w3.org/2001/XMLSchema-instance" xsi:schemaLocation="http://www.topografix.com/GPX/1/1 http://www.topografix.com/GPX/1/1/gpx.xsd" version="1.1" creator="gpx.py -- https://github.com/tkrajina/gpxpy">
  <trk>
    <name>Variflight_MU5191_20260624.csv</name>
    <trkseg>
      <trkpt lat="39.514865875244" lon="116.43162536621">
        <ele>0.0</ele>
        <time>2026-06-24T06:39:18</time>
      </trkpt>
      <trkpt lat="39.514877319336" lon="116.43183898926">
        <ele>0.0</ele>
        <time>2026-06-24T06:39:22</time>
      </trkpt>
      <trkpt lat="39.372482299805" lon="116.7809677124">
        <ele>1859.28</ele>
        <time>2026-06-24T06:50:37</time>
      </trkpt>
      <trkpt lat="39.360149383545" lon="116.8017578125">
        <ele>1859.28</ele>
        <time>2026-06-24T06:50:52</time>
      </trkpt>
      <trkpt lat="39.347442626953" lon="116.82299804688">
        <ele>1859.28</ele>
        <time>2026-06-24T06:51:07</time>
      </trkpt>
      <trkpt lat="39.332641601562" lon="116.83881378174">
        <ele>1866.9</ele>
        <time>2026-06-24T06:51:22</time>
      </trkpt>
      <trkpt lat="39.314575195312" lon="116.84869384766">
        <ele>2011.68</ele>
        <time>2026-06-24T06:51:36</time>
      </trkpt>
      <trkpt lat="39.296398162842" lon="116.85804748535">
        <ele>2247.9</ele>
        <time>2026-06-24T06:51:51</time>
      </trkpt>
      <trkpt lat="39.278217315674" lon="116.86755371094">
        <ele>2461.26</ele>
        <time>2026-06-24T06:52:06</time>
      </trkpt>
      <trkpt lat="39.259140014648" lon="116.87734222412">
        <ele>2644.14</ele>
        <time>2026-06-24T06:52:21</time>
      </trkpt>
      <trkpt lat="39.240417480469" lon="116.88690185547">
        <ele>2819.4</ele>
        <time>2026-06-24T06:52:36</time>
      </trkpt>
      <trkpt lat="39.22119140625" lon="116.89656066895">
        <ele>3002.28</ele>
        <time>2026-06-24T06:52:51</time>
      </trkpt>
      <trkpt lat="39.201278686523" lon="116.90659332275">
        <ele>3147.06</ele>
        <time>2026-06-24T06:53:06</time>
      </trkpt>
      <trkpt lat="39.180633544922" lon="116.91703796387">
        <ele>3230.88</ele>
        <time>2026-06-24T06:53:21</time>
      </trkpt>
      <trkpt lat="39.158748626709" lon="116.92809295654">
        <ele>3314.7</ele>
        <time>2026-06-24T06:53:36</time>
      </trkpt>
      <trkpt lat="39.136234283447" lon="116.93939208984">
        <ele>3383.28</ele>
        <time>2026-06-24T06:53:51</time>
      </trkpt>
      <trkpt lat="39.111740112305" lon="116.9517288208">
        <ele>3474.72</ele>
        <time>2026-06-24T06:54:06</time>
      </trkpt>
      <trkpt lat="39.086841583252" lon="116.96276855469">
        <ele>3566.16</ele>
        <time>2026-06-24T06:54:21</time>
      </trkpt>
      <trkpt lat="39.060585021973" lon="116.96789550781">
        <ele>3665.22</ele>
        <time>2026-06-24T06:54:36</time>
      </trkpt>
      <trkpt lat="39.033401489258" lon="116.97100830078">
        <ele>3787.14</ele>
        <time>2026-06-24T06:54:51</time>
      </trkpt>
      <trkpt lat="39.006637573242" lon="116.97412109375">
        <ele>3901.44</ele>
        <time>2026-06-24T06:55:06</time>
      </trkpt>
      <trkpt lat="38.97981262207" lon="116.97728729248">
        <ele>4023.36</ele>
        <time>2026-06-24T06:55:21</time>
      </trkpt>
      <trkpt lat="38.953170776367" lon="116.98039245605">
        <ele>4137.66</ele>
        <time>2026-06-24T06:55:36</time>
      </trkpt>
      <trkpt lat="38.92529296875" lon="116.98361968994">
        <ele>4198.62</ele>
        <time>2026-06-24T06:55:51</time>
      </trkpt>
      <trkpt lat="38.895278930664" lon="116.98706054688">
        <ele>4206.24</ele>
        <time>2026-06-24T06:56:10</time>
      </trkpt>
      <trkpt lat="38.86674118042" lon="116.99041748047">
        <ele>4206.24</ele>
        <time>2026-06-24T06:56:25</time>
      </trkpt>
      <trkpt lat="38.844680786133" lon="116.99292755127">
        <ele>4206.24</ele>
        <time>2026-06-24T06:56:38</time>
      </trkpt>
      <trkpt lat="38.818653106689" lon="116.99584960938">
        <ele>4206.24</ele>
        <time>2026-06-24T06:56:53</time>
      </trkpt>
      <trkpt lat="38.792083740234" lon="116.99884033203">
        <ele>4206.24</ele>
        <time>2026-06-24T06:57:08</time>
      </trkpt>
      <trkpt lat="38.765029907227" lon="117.00164794922">
        <ele>4206.24</ele>
        <time>2026-06-24T06:57:23</time>
      </trkpt>
      <trkpt lat="38.73811340332" lon="117.00105285645">
        <ele>4206.24</ele>
        <time>2026-06-24T06:57:38</time>
      </trkpt>
      <trkpt lat="38.710372924805" lon="117.00091552734">
        <ele>4206.24</ele>
        <time>2026-06-24T06:57:53</time>
      </trkpt>
      <trkpt lat="38.68327331543" lon="117.00386047363">
        <ele>4206.24</ele>
        <time>2026-06-24T06:58:08</time>
      </trkpt>
      <trkpt lat="38.656791687012" lon="117.00653076172">
        <ele>4206.24</ele>
        <time>2026-06-24T06:58:22</time>
      </trkpt>
      <trkpt lat="38.630954742432" lon="117.00177001953">
        <ele>4206.24</ele>
        <time>2026-06-24T06:58:37</time>
      </trkpt>
      <trkpt lat="38.605270385742" lon="116.99597930908">
        <ele>4206.24</ele>
        <time>2026-06-24T06:58:52</time>
      </trkpt>
      <trkpt lat="38.580638885498" lon="116.99626922607">
        <ele>4221.48</ele>
        <time>2026-06-24T06:59:07</time>
      </trkpt>
      <trkpt lat="38.555099487305" lon="116.99955749512">
        <ele>4312.92</ele>
        <time>2026-06-24T06:59:22</time>
      </trkpt>
      <trkpt lat="38.528728485107" lon="117.00308227539">
        <ele>4495.8</ele>
        <time>2026-06-24T06:59:37</time>
      </trkpt>
      <trkpt lat="38.501354217529" lon="117.00646972656">
        <ele>4671.06</ele>
        <time>2026-06-24T06:59:57</time>
      </trkpt>
      <trkpt lat="38.475269317627" lon="117.00971221924">
        <ele>4846.32</ele>
        <time>2026-06-24T07:00:12</time>
      </trkpt>
      <trkpt lat="38.447772979736" lon="117.01312255859">
        <ele>5059.68</ele>
        <time>2026-06-24T07:00:27</time>
      </trkpt>
      <trkpt lat="38.422351837158" lon="117.01640319824">
        <ele>5242.56</ele>
        <time>2026-06-24T07:00:42</time>
      </trkpt>
      <trkpt lat="38.395660400391" lon="117.01976776123">
        <ele>5379.72</ele>
        <time>2026-06-24T07:00:57</time>
      </trkpt>
      <trkpt lat="38.36833190918" lon="117.02320861816">
        <ele>5509.26</ele>
        <time>2026-06-24T07:01:12</time>
      </trkpt>
      <trkpt lat="38.340980529785" lon="117.02666473389">
        <ele>5638.8</ele>
        <time>2026-06-24T07:01:27</time>
      </trkpt>
      <trkpt lat="38.313220977783" lon="117.03028106689">
        <ele>5844.54</ele>
        <time>2026-06-24T07:01:42</time>
      </trkpt>
      <trkpt lat="38.285980224609" lon="117.03384399414">
        <ele>6118.86</ele>
        <time>2026-06-24T07:01:57</time>
      </trkpt>
      <trkpt lat="38.259281158447" lon="117.03723144531">
        <ele>6316.98</ele>
        <time>2026-06-24T07:02:12</time>
      </trkpt>
      <trkpt lat="38.234161376953" lon="117.04039001465">
        <ele>6477.0</ele>
        <time>2026-06-24T07:02:27</time>
      </trkpt>
      <trkpt lat="38.207328796387" lon="117.043800354">
        <ele>6652.26</ele>
        <time>2026-06-24T07:02:42</time>
      </trkpt>
      <trkpt lat="38.180969238281" lon="117.04717254639">
        <ele>6781.8</ele>
        <time>2026-06-24T07:02:57</time>
      </trkpt>
      <trkpt lat="38.152351379395" lon="117.05078887939">
        <ele>6888.48</ele>
        <time>2026-06-24T07:03:12</time>
      </trkpt>
      <trkpt lat="38.125171661377" lon="117.05423736572">
        <ele>7048.5</ele>
        <time>2026-06-24T07:03:27</time>
      </trkpt>
      <trkpt lat="38.09672164917" lon="117.0578918457">
        <ele>7170.42</ele>
        <time>2026-06-24T07:03:42</time>
      </trkpt>
      <trkpt lat="38.066555023193" lon="117.06171417236">
        <ele>7292.34</ele>
        <time>2026-06-24T07:03:57</time>
      </trkpt>
      <trkpt lat="38.039886474609" lon="117.06510925293">
        <ele>7429.5</ele>
        <time>2026-06-24T07:04:12</time>
      </trkpt>
      <trkpt lat="38.01301574707" lon="117.0685043335">
        <ele>7566.66</ele>
        <time>2026-06-24T07:04:27</time>
      </trkpt>
      <trkpt lat="37.985134124756" lon="117.07204437256">
        <ele>7688.58</ele>
        <time>2026-06-24T07:04:42</time>
      </trkpt>
      <trkpt lat="37.957168579102" lon="117.07556915283">
        <ele>7795.26</ele>
        <time>2026-06-24T07:04:57</time>
      </trkpt>
      <trkpt lat="37.929271697998" lon="117.07908630371">
        <ele>7909.56</ele>
        <time>2026-06-24T07:05:12</time>
      </trkpt>
      <trkpt lat="37.900318145752" lon="117.0827331543">
        <ele>8023.86</ele>
        <time>2026-06-24T07:05:27</time>
      </trkpt>
      <trkpt lat="37.872798919678" lon="117.0862121582">
        <ele>8138.16</ele>
        <time>2026-06-24T07:05:42</time>
      </trkpt>
      <trkpt lat="37.844150543213" lon="117.08982849121">
        <ele>8290.56</ele>
        <time>2026-06-24T07:05:57</time>
      </trkpt>
      <trkpt lat="37.813705444336" lon="117.09368896484">
        <ele>8389.62</ele>
        <time>2026-06-24T07:06:12</time>
      </trkpt>
      <trkpt lat="37.785507202148" lon="117.09725189209">
        <ele>8465.82</ele>
        <time>2026-06-24T07:06:27</time>
      </trkpt>
      <trkpt lat="37.75191116333" lon="117.10146331787">
        <ele>8572.5</ele>
        <time>2026-06-24T07:06:47</time>
      </trkpt>
      <trkpt lat="37.723045349121" lon="117.10512542725">
        <ele>8679.18</ele>
        <time>2026-06-24T07:07:01</time>
      </trkpt>
      <trkpt lat="37.692741394043" lon="117.10894775391">
        <ele>8778.24</ele>
        <time>2026-06-24T07:07:16</time>
      </trkpt>
      <trkpt lat="37.660446166992" lon="117.11296844482">
        <ele>8854.44</ele>
        <time>2026-06-24T07:07:31</time>
      </trkpt>
      <trkpt lat="37.629180908203" lon="117.11694335938">
        <ele>8869.68</ele>
        <time>2026-06-24T07:07:45</time>
      </trkpt>
      <trkpt lat="37.59907913208" lon="117.12077331543">
        <ele>8869.68</ele>
        <time>2026-06-24T07:08:00</time>
      </trkpt>
      <trkpt lat="37.570178985596" lon="117.12436676025">
        <ele>8869.68</ele>
        <time>2026-06-24T07:08:15</time>
      </trkpt>
      <trkpt lat="37.539459228516" lon="117.12821960449">
        <ele>8869.68</ele>
        <time>2026-06-24T07:08:30</time>
      </trkpt>
      <trkpt lat="37.509189605713" lon="117.13204956055">
        <ele>8869.68</ele>
        <time>2026-06-24T07:08:45</time>
      </trkpt>
      <trkpt lat="37.477661132812" lon="117.13594055176">
        <ele>8869.68</ele>
        <time>2026-06-24T07:09:00</time>
      </trkpt>
      <trkpt lat="37.452949523926" lon="117.13903808594">
        <ele>8869.68</ele>
        <time>2026-06-24T07:09:13</time>
      </trkpt>
      <trkpt lat="37.421859741211" lon="117.14289093018">
        <ele>8869.68</ele>
        <time>2026-06-24T07:09:28</time>
      </trkpt>
      <trkpt lat="37.389083862305" lon="117.1470413208">
        <ele>8869.68</ele>
        <time>2026-06-24T07:09:43</time>
      </trkpt>
      <trkpt lat="37.35668182373" lon="117.15116119385">
        <ele>8869.68</ele>
        <time>2026-06-24T07:09:57</time>
      </trkpt>
      <trkpt lat="37.324607849121" lon="117.15522003174">
        <ele>8869.68</ele>
        <time>2026-06-24T07:10:11</time>
      </trkpt>
      <trkpt lat="37.293228149414" lon="117.15910339355">
        <ele>8869.68</ele>
        <time>2026-06-24T07:10:26</time>
      </trkpt>
      <trkpt lat="37.269744873047" lon="117.16194152832">
        <ele>8869.68</ele>
        <time>2026-06-24T07:10:39</time>
      </trkpt>
      <trkpt lat="37.234909057617" lon="117.16626739502">
        <ele>8869.68</ele>
        <time>2026-06-24T07:10:53</time>
      </trkpt>
      <trkpt lat="37.204128265381" lon="117.17008209229">
        <ele>8869.68</ele>
        <time>2026-06-24T07:11:07</time>
      </trkpt>
      <trkpt lat="37.171508789062" lon="117.17415618896">
        <ele>8869.68</ele>
        <time>2026-06-24T07:11:22</time>
      </trkpt>
      <trkpt lat="37.12825012207" lon="117.17945861816">
        <ele>8862.06</ele>
        <time>2026-06-24T07:11:47</time>
      </trkpt>
      <trkpt lat="37.09534072876" lon="117.18357086182">
        <ele>8862.06</ele>
        <time>2026-06-24T07:12:01</time>
      </trkpt>
      <trkpt lat="37.062969207764" lon="117.18753814697">
        <ele>8854.44</ele>
        <time>2026-06-24T07:12:16</time>
      </trkpt>
      <trkpt lat="37.028812408447" lon="117.1918182373">
        <ele>8854.44</ele>
        <time>2026-06-24T07:12:30</time>
      </trkpt>
      <trkpt lat="36.996925354004" lon="117.19576263428">
        <ele>8854.44</ele>
        <time>2026-06-24T07:12:45</time>
      </trkpt>
      <trkpt lat="36.966060638428" lon="117.19952392578">
        <ele>8862.06</ele>
        <time>2026-06-24T07:13:00</time>
      </trkpt>
      <trkpt lat="36.934204101562" lon="117.20343780518">
        <ele>8862.06</ele>
        <time>2026-06-24T07:13:15</time>
      </trkpt>
      <trkpt lat="36.90274810791" lon="117.20734405518">
        <ele>8862.06</ele>
        <time>2026-06-24T07:13:30</time>
      </trkpt>
      <trkpt lat="36.871139526367" lon="117.21128082275">
        <ele>8862.06</ele>
        <time>2026-06-24T07:13:45</time>
      </trkpt>
      <trkpt lat="36.837982177734" lon="117.21674346924">
        <ele>8869.68</ele>
        <time>2026-06-24T07:14:04</time>
      </trkpt>
      <trkpt lat="36.802341461182" lon="117.22522735596">
        <ele>8869.68</ele>
        <time>2026-06-24T07:14:19</time>
      </trkpt>
      <trkpt lat="36.767749786377" lon="117.23551940918">
        <ele>8869.68</ele>
        <time>2026-06-24T07:14:34</time>
      </trkpt>
      <trkpt lat="36.736949920654" lon="117.24472045898">
        <ele>8869.68</ele>
        <time>2026-06-24T07:14:49</time>
      </trkpt>
      <trkpt lat="36.705459594727" lon="117.25409698486">
        <ele>8869.68</ele>
        <time>2026-06-24T07:15:04</time>
      </trkpt>
      <trkpt lat="36.673099517822" lon="117.26365661621">
        <ele>8869.68</ele>
        <time>2026-06-24T07:15:19</time>
      </trkpt>
      <trkpt lat="36.639911651611" lon="117.27349853516">
        <ele>8877.3</ele>
        <time>2026-06-24T07:15:37</time>
      </trkpt>
      <trkpt lat="36.606079101562" lon="117.28352355957">
        <ele>8884.92</ele>
        <time>2026-06-24T07:15:52</time>
      </trkpt>
      <trkpt lat="36.574138641357" lon="117.29308319092">
        <ele>8884.92</ele>
        <time>2026-06-24T07:16:07</time>
      </trkpt>
      <trkpt lat="36.542587280273" lon="117.30251312256">
        <ele>8884.92</ele>
        <time>2026-06-24T07:16:22</time>
      </trkpt>
      <trkpt lat="36.511642456055" lon="117.31172180176">
        <ele>8884.92</ele>
        <time>2026-06-24T07:16:36</time>
      </trkpt>
      <trkpt lat="36.479591369629" lon="117.32129669189">
        <ele>8884.92</ele>
        <time>2026-06-24T07:16:51</time>
      </trkpt>
      <trkpt lat="36.448009490967" lon="117.33067321777">
        <ele>8869.68</ele>
        <time>2026-06-24T07:17:06</time>
      </trkpt>
      <trkpt lat="36.417121887207" lon="117.33982849121">
        <ele>8869.68</ele>
        <time>2026-06-24T07:17:21</time>
      </trkpt>
      <trkpt lat="36.38196182251" lon="117.35028839111">
        <ele>8869.68</ele>
        <time>2026-06-24T07:17:40</time>
      </trkpt>
      <trkpt lat="36.35179901123" lon="117.35916900635">
        <ele>8862.06</ele>
        <time>2026-06-24T07:17:55</time>
      </trkpt>
      <trkpt lat="36.320755004883" lon="117.36846160889">
        <ele>8862.06</ele>
        <time>2026-06-24T07:18:10</time>
      </trkpt>
      <trkpt lat="36.289489746094" lon="117.37782287598">
        <ele>8862.06</ele>
        <time>2026-06-24T07:18:24</time>
      </trkpt>
      <trkpt lat="36.258178710938" lon="117.38708496094">
        <ele>8862.06</ele>
        <time>2026-06-24T07:18:39</time>
      </trkpt>
      <trkpt lat="36.227691650391" lon="117.3960723877">
        <ele>8862.06</ele>
        <time>2026-06-24T07:18:54</time>
      </trkpt>
      <trkpt lat="36.195850372314" lon="117.40550994873">
        <ele>8862.06</ele>
        <time>2026-06-24T07:19:08</time>
      </trkpt>
      <trkpt lat="36.164989471436" lon="117.4146270752">
        <ele>8869.68</ele>
        <time>2026-06-24T07:19:23</time>
      </trkpt>
      <trkpt lat="36.133941650391" lon="117.42374420166">
        <ele>8869.68</ele>
        <time>2026-06-24T07:19:38</time>
      </trkpt>
      <trkpt lat="36.102809906006" lon="117.43292236328">
        <ele>8862.06</ele>
        <time>2026-06-24T07:19:53</time>
      </trkpt>
      <trkpt lat="36.07181930542" lon="117.44201660156">
        <ele>8862.06</ele>
        <time>2026-06-24T07:20:08</time>
      </trkpt>
      <trkpt lat="36.040508270264" lon="117.45114898682">
        <ele>8862.06</ele>
        <time>2026-06-24T07:20:23</time>
      </trkpt>
      <trkpt lat="36.010478973389" lon="117.45993041992">
        <ele>8869.68</ele>
        <time>2026-06-24T07:20:38</time>
      </trkpt>
      <trkpt lat="35.979572296143" lon="117.46897888184">
        <ele>8869.68</ele>
        <time>2026-06-24T07:20:53</time>
      </trkpt>
      <trkpt lat="35.9485206604" lon="117.47814941406">
        <ele>8862.06</ele>
        <time>2026-06-24T07:21:08</time>
      </trkpt>
      <trkpt lat="35.917659759521" lon="117.48715209961">
        <ele>8862.06</ele>
        <time>2026-06-24T07:21:23</time>
      </trkpt>
      <trkpt lat="35.88724899292" lon="117.49603271484">
        <ele>8854.44</ele>
        <time>2026-06-24T07:21:38</time>
      </trkpt>
      <trkpt lat="35.856674194336" lon="117.50495910645">
        <ele>8854.44</ele>
        <time>2026-06-24T07:21:53</time>
      </trkpt>
      <trkpt lat="35.825531005859" lon="117.51403045654">
        <ele>8854.44</ele>
        <time>2026-06-24T07:22:08</time>
      </trkpt>
      <trkpt lat="35.792430877686" lon="117.52366638184">
        <ele>8862.06</ele>
        <time>2026-06-24T07:22:23</time>
      </trkpt>
      <trkpt lat="35.762237548828" lon="117.53248596191">
        <ele>8862.06</ele>
        <time>2026-06-24T07:22:38</time>
      </trkpt>
      <trkpt lat="35.731521606445" lon="117.54146575928">
        <ele>8869.68</ele>
        <time>2026-06-24T07:22:53</time>
      </trkpt>
      <trkpt lat="35.699752807617" lon="117.55073547363">
        <ele>8869.68</ele>
        <time>2026-06-24T07:23:08</time>
      </trkpt>
      <trkpt lat="35.669403076172" lon="117.55954742432">
        <ele>8877.3</ele>
        <time>2026-06-24T07:23:23</time>
      </trkpt>
      <trkpt lat="35.638484954834" lon="117.5684967041">
        <ele>8877.3</ele>
        <time>2026-06-24T07:23:38</time>
      </trkpt>
      <trkpt lat="35.606689453125" lon="117.57772827148">
        <ele>8884.92</ele>
        <time>2026-06-24T07:23:53</time>
      </trkpt>
      <trkpt lat="35.576198577881" lon="117.58660888672">
        <ele>8884.92</ele>
        <time>2026-06-24T07:24:08</time>
      </trkpt>
      <trkpt lat="35.543430328369" lon="117.59610748291">
        <ele>8884.92</ele>
        <time>2026-06-24T07:24:27</time>
      </trkpt>
      <trkpt lat="35.512138366699" lon="117.6051864624">
        <ele>8884.92</ele>
        <time>2026-06-24T07:24:42</time>
      </trkpt>
      <trkpt lat="35.481121063232" lon="117.61418914795">
        <ele>8877.3</ele>
        <time>2026-06-24T07:24:57</time>
      </trkpt>
      <trkpt lat="35.449901580811" lon="117.62325286865">
        <ele>8877.3</ele>
        <time>2026-06-24T07:25:12</time>
      </trkpt>
      <trkpt lat="35.419830322266" lon="117.63189697266">
        <ele>8869.68</ele>
        <time>2026-06-24T07:25:27</time>
      </trkpt>
      <trkpt lat="35.388729095459" lon="117.64096069336">
        <ele>8869.68</ele>
        <time>2026-06-24T07:25:42</time>
      </trkpt>
      <trkpt lat="35.358100891113" lon="117.64978027344">
        <ele>8869.68</ele>
        <time>2026-06-24T07:25:57</time>
      </trkpt>
      <trkpt lat="35.326679229736" lon="117.65884399414">
        <ele>8869.68</ele>
        <time>2026-06-24T07:26:11</time>
      </trkpt>
      <trkpt lat="35.29647064209" lon="117.6675491333">
        <ele>8869.68</ele>
        <time>2026-06-24T07:26:26</time>
      </trkpt>
      <trkpt lat="35.265747070312" lon="117.67639160156">
        <ele>8862.06</ele>
        <time>2026-06-24T07:26:41</time>
      </trkpt>
      <trkpt lat="35.234481811523" lon="117.68537902832">
        <ele>8862.06</ele>
        <time>2026-06-24T07:26:56</time>
      </trkpt>
      <trkpt lat="35.203498840332" lon="117.69429779053">
        <ele>8862.06</ele>
        <time>2026-06-24T07:27:11</time>
      </trkpt>
      <trkpt lat="35.172908782959" lon="117.70304107666">
        <ele>8862.06</ele>
        <time>2026-06-24T07:27:26</time>
      </trkpt>
      <trkpt lat="35.141448974609" lon="117.71209716797">
        <ele>8862.06</ele>
        <time>2026-06-24T07:27:41</time>
      </trkpt>
      <trkpt lat="35.110610961914" lon="117.72097015381">
        <ele>8869.68</ele>
        <time>2026-06-24T07:27:56</time>
      </trkpt>
      <trkpt lat="35.0797996521" lon="117.72982788086">
        <ele>8869.68</ele>
        <time>2026-06-24T07:28:11</time>
      </trkpt>
      <trkpt lat="35.048400878906" lon="117.73880004883">
        <ele>8869.68</ele>
        <time>2026-06-24T07:28:26</time>
      </trkpt>
      <trkpt lat="35.017776489258" lon="117.74754333496">
        <ele>8869.68</ele>
        <time>2026-06-24T07:28:41</time>
      </trkpt>
      <trkpt lat="34.986431121826" lon="117.7565612793">
        <ele>8869.68</ele>
        <time>2026-06-24T07:28:54</time>
      </trkpt>
      <trkpt lat="34.95389175415" lon="117.76583099365">
        <ele>8869.68</ele>
        <time>2026-06-24T07:29:13</time>
      </trkpt>
      <trkpt lat="34.920509338379" lon="117.77532958984">
        <ele>8869.68</ele>
        <time>2026-06-24T07:29:27</time>
      </trkpt>
      <trkpt lat="34.888988494873" lon="117.78430938721">
        <ele>8869.68</ele>
        <time>2026-06-24T07:29:42</time>
      </trkpt>
      <trkpt lat="34.857738494873" lon="117.79322052002">
        <ele>8869.68</ele>
        <time>2026-06-24T07:29:57</time>
      </trkpt>
      <trkpt lat="34.827171325684" lon="117.80216217041">
        <ele>8869.68</ele>
        <time>2026-06-24T07:30:12</time>
      </trkpt>
      <trkpt lat="34.796447753906" lon="117.81274414062">
        <ele>8877.3</ele>
        <time>2026-06-24T07:30:27</time>
      </trkpt>
      <trkpt lat="34.764980316162" lon="117.82413482666">
        <ele>8877.3</ele>
        <time>2026-06-24T07:30:42</time>
      </trkpt>
      <trkpt lat="34.734237670898" lon="117.83520507812">
        <ele>8884.92</ele>
        <time>2026-06-24T07:30:57</time>
      </trkpt>
      <trkpt lat="34.702133178711" lon="117.84674072266">
        <ele>8884.92</ele>
        <time>2026-06-24T07:31:12</time>
      </trkpt>
      <trkpt lat="34.66828918457" lon="117.85887145996">
        <ele>8884.92</ele>
        <time>2026-06-24T07:31:31</time>
      </trkpt>
      <trkpt lat="34.627975463867" lon="117.87334442139">
        <ele>8877.3</ele>
        <time>2026-06-24T07:31:48</time>
      </trkpt>
      <trkpt lat="34.607585906982" lon="117.88066864014">
        <ele>8877.3</ele>
        <time>2026-06-24T07:31:59</time>
      </trkpt>
      <trkpt lat="34.575325012207" lon="117.89222717285">
        <ele>8869.68</ele>
        <time>2026-06-24T07:32:17</time>
      </trkpt>
      <trkpt lat="34.54460144043" lon="117.90332794189">
        <ele>8869.68</ele>
        <time>2026-06-24T07:32:32</time>
      </trkpt>
      <trkpt lat="34.512851715088" lon="117.91493988037">
        <ele>8869.68</ele>
        <time>2026-06-24T07:32:46</time>
      </trkpt>
      <trkpt lat="34.484210968018" lon="117.92926025391">
        <ele>8869.68</ele>
        <time>2026-06-24T07:33:01</time>
      </trkpt>
      <trkpt lat="34.456104278564" lon="117.9501953125">
        <ele>8869.68</ele>
        <time>2026-06-24T07:33:16</time>
      </trkpt>
      <trkpt lat="34.431243896484" lon="117.97663116455">
        <ele>8869.68</ele>
        <time>2026-06-24T07:33:31</time>
      </trkpt>
      <trkpt lat="34.407852172852" lon="118.00549316406">
        <ele>8869.68</ele>
        <time>2026-06-24T07:33:46</time>
      </trkpt>
      <trkpt lat="34.383316040039" lon="118.03173065186">
        <ele>8869.68</ele>
        <time>2026-06-24T07:34:01</time>
      </trkpt>
      <trkpt lat="34.35652923584" lon="118.05553436279">
        <ele>8869.68</ele>
        <time>2026-06-24T07:34:16</time>
      </trkpt>
      <trkpt lat="34.328269958496" lon="118.07613372803">
        <ele>8869.68</ele>
        <time>2026-06-24T07:34:31</time>
      </trkpt>
      <trkpt lat="34.299591064453" lon="118.0930480957">
        <ele>8869.68</ele>
        <time>2026-06-24T07:34:45</time>
      </trkpt>
      <trkpt lat="34.26985168457" lon="118.10691833496">
        <ele>8862.06</ele>
        <time>2026-06-24T07:35:00</time>
      </trkpt>
      <trkpt lat="34.239681243896" lon="118.11785125732">
        <ele>8862.06</ele>
        <time>2026-06-24T07:35:15</time>
      </trkpt>
      <trkpt lat="34.209053039551" lon="118.12837219238">
        <ele>8862.06</ele>
        <time>2026-06-24T07:35:30</time>
      </trkpt>
      <trkpt lat="34.178371429443" lon="118.13931274414">
        <ele>8854.44</ele>
        <time>2026-06-24T07:35:45</time>
      </trkpt>
      <trkpt lat="34.147369384766" lon="118.15069580078">
        <ele>8862.06</ele>
        <time>2026-06-24T07:35:59</time>
      </trkpt>
      <trkpt lat="34.115203857422" lon="118.16244506836">
        <ele>8930.64</ele>
        <time>2026-06-24T07:36:18</time>
      </trkpt>
      <trkpt lat="34.084659576416" lon="118.17328643799">
        <ele>9006.84</ele>
        <time>2026-06-24T07:36:33</time>
      </trkpt>
      <trkpt lat="34.053089141846" lon="118.18077087402">
        <ele>9075.42</ele>
        <time>2026-06-24T07:36:48</time>
      </trkpt>
      <trkpt lat="34.021171569824" lon="118.18496704102">
        <ele>9159.24</ele>
        <time>2026-06-24T07:37:03</time>
      </trkpt>
      <trkpt lat="33.989276885986" lon="118.18719482422">
        <ele>9235.44</ele>
        <time>2026-06-24T07:37:18</time>
      </trkpt>
      <trkpt lat="33.956832885742" lon="118.1883392334">
        <ele>9311.64</ele>
        <time>2026-06-24T07:37:33</time>
      </trkpt>
      <trkpt lat="33.924774169922" lon="118.18974304199">
        <ele>9387.84</ele>
        <time>2026-06-24T07:37:47</time>
      </trkpt>
      <trkpt lat="33.890308380127" lon="118.19314575195">
        <ele>9456.42</ele>
        <time>2026-06-24T07:38:01</time>
      </trkpt>
      <trkpt lat="33.85860824585" lon="118.19863891602">
        <ele>9479.28</ele>
        <time>2026-06-24T07:38:16</time>
      </trkpt>
      <trkpt lat="33.824432373047" lon="118.20700836182">
        <ele>9479.28</ele>
        <time>2026-06-24T07:38:35</time>
      </trkpt>
      <trkpt lat="33.793670654297" lon="118.21614837646">
        <ele>9479.28</ele>
        <time>2026-06-24T07:38:49</time>
      </trkpt>
      <trkpt lat="33.76159286499" lon="118.22696685791">
        <ele>9479.28</ele>
        <time>2026-06-24T07:39:04</time>
      </trkpt>
      <trkpt lat="33.731010437012" lon="118.23841094971">
        <ele>9479.28</ele>
        <time>2026-06-24T07:39:19</time>
      </trkpt>
      <trkpt lat="33.700378417969" lon="118.25">
        <ele>9479.28</ele>
        <time>2026-06-24T07:39:34</time>
      </trkpt>
      <trkpt lat="33.668857574463" lon="118.26170349121">
        <ele>9479.28</ele>
        <time>2026-06-24T07:39:49</time>
      </trkpt>
      <trkpt lat="33.637989044189" lon="118.27304077148">
        <ele>9479.28</ele>
        <time>2026-06-24T07:40:04</time>
      </trkpt>
      <trkpt lat="33.606853485107" lon="118.28436279297">
        <ele>9479.28</ele>
        <time>2026-06-24T07:40:19</time>
      </trkpt>
      <trkpt lat="33.57543182373" lon="118.295753479">
        <ele>9479.28</ele>
        <time>2026-06-24T07:40:34</time>
      </trkpt>
      <trkpt lat="33.544704437256" lon="118.30610656738">
        <ele>9479.28</ele>
        <time>2026-06-24T07:40:49</time>
      </trkpt>
      <trkpt lat="33.513095855713" lon="118.31462860107">
        <ele>9479.28</ele>
        <time>2026-06-24T07:41:03</time>
      </trkpt>
      <trkpt lat="33.481479644775" lon="118.32192993164">
        <ele>9486.9</ele>
        <time>2026-06-24T07:41:17</time>
      </trkpt>
      <trkpt lat="33.449981689453" lon="118.3292388916">
        <ele>9486.9</ele>
        <time>2026-06-24T07:41:32</time>
      </trkpt>
      <trkpt lat="33.419250488281" lon="118.33643341064">
        <ele>9486.9</ele>
        <time>2026-06-24T07:41:47</time>
      </trkpt>
      <trkpt lat="33.38786315918" lon="118.34379577637">
        <ele>9479.28</ele>
        <time>2026-06-24T07:42:02</time>
      </trkpt>
      <trkpt lat="33.356185913086" lon="118.35109710693">
        <ele>9479.28</ele>
        <time>2026-06-24T07:42:17</time>
      </trkpt>
      <trkpt lat="33.324188232422" lon="118.35840606689">
        <ele>9486.9</ele>
        <time>2026-06-24T07:42:32</time>
      </trkpt>
      <trkpt lat="33.291229248047" lon="118.36235809326">
        <ele>9479.28</ele>
        <time>2026-06-24T07:42:51</time>
      </trkpt>
      <trkpt lat="33.259643554688" lon="118.36010742188">
        <ele>9479.28</ele>
        <time>2026-06-24T07:43:06</time>
      </trkpt>
      <trkpt lat="33.229778289795" lon="118.352684021">
        <ele>9479.28</ele>
        <time>2026-06-24T07:43:21</time>
      </trkpt>
      <trkpt lat="33.200077056885" lon="118.3441696167">
        <ele>9479.28</ele>
        <time>2026-06-24T07:43:36</time>
      </trkpt>
      <trkpt lat="33.170097351074" lon="118.33648681641">
        <ele>9471.66</ele>
        <time>2026-06-24T07:43:51</time>
      </trkpt>
      <trkpt lat="33.139205932617" lon="118.33121490479">
        <ele>9471.66</ele>
        <time>2026-06-24T07:44:06</time>
      </trkpt>
      <trkpt lat="33.10795211792" lon="118.32836151123">
        <ele>9387.84</ele>
        <time>2026-06-24T07:44:21</time>
      </trkpt>
      <trkpt lat="33.075504302979" lon="118.32819366455">
        <ele>9235.44</ele>
        <time>2026-06-24T07:44:36</time>
      </trkpt>
      <trkpt lat="33.044780731201" lon="118.3307723999">
        <ele>9037.32</ele>
        <time>2026-06-24T07:44:51</time>
      </trkpt>
      <trkpt lat="33.013778686523" lon="118.33599090576">
        <ele>8831.58</ele>
        <time>2026-06-24T07:45:06</time>
      </trkpt>
      <trkpt lat="32.982727050781" lon="118.34405517578">
        <ele>8641.08</ele>
        <time>2026-06-24T07:45:21</time>
      </trkpt>
      <trkpt lat="32.95246887207" lon="118.35442352295">
        <ele>8442.96</ele>
        <time>2026-06-24T07:45:36</time>
      </trkpt>
      <trkpt lat="32.919834136963" lon="118.36619567871">
        <ele>8237.22</ele>
        <time>2026-06-24T07:45:51</time>
      </trkpt>
      <trkpt lat="32.889621734619" lon="118.37706756592">
        <ele>8054.34</ele>
        <time>2026-06-24T07:46:06</time>
      </trkpt>
      <trkpt lat="32.85969543457" lon="118.38774108887">
        <ele>7879.08</ele>
        <time>2026-06-24T07:46:21</time>
      </trkpt>
      <trkpt lat="32.829521179199" lon="118.39848327637">
        <ele>7780.02</ele>
        <time>2026-06-24T07:46:36</time>
      </trkpt>
      <trkpt lat="32.799728393555" lon="118.40918731689">
        <ele>7696.2</ele>
        <time>2026-06-24T07:46:51</time>
      </trkpt>
      <trkpt lat="32.769378662109" lon="118.42008972168">
        <ele>7620.0</ele>
        <time>2026-06-24T07:47:06</time>
      </trkpt>
      <trkpt lat="32.740081787109" lon="118.43058776855">
        <ele>7543.8</ele>
        <time>2026-06-24T07:47:21</time>
      </trkpt>
      <trkpt lat="32.710372924805" lon="118.44129943848">
        <ele>7505.7</ele>
        <time>2026-06-24T07:47:35</time>
      </trkpt>
      <trkpt lat="32.681209564209" lon="118.45178985596">
        <ele>7498.08</ele>
        <time>2026-06-24T07:47:50</time>
      </trkpt>
      <trkpt lat="32.652278900146" lon="118.462059021">
        <ele>7498.08</ele>
        <time>2026-06-24T07:48:05</time>
      </trkpt>
      <trkpt lat="32.622970581055" lon="118.47280883789">
        <ele>7498.08</ele>
        <time>2026-06-24T07:48:19</time>
      </trkpt>
      <trkpt lat="32.594062805176" lon="118.48614501953">
        <ele>7498.08</ele>
        <time>2026-06-24T07:48:34</time>
      </trkpt>
      <trkpt lat="32.566455841064" lon="118.50099945068">
        <ele>7498.08</ele>
        <time>2026-06-24T07:48:49</time>
      </trkpt>
      <trkpt lat="32.537593841553" lon="118.51652526855">
        <ele>7498.08</ele>
        <time>2026-06-24T07:49:04</time>
      </trkpt>
      <trkpt lat="32.509735107422" lon="118.53132629395">
        <ele>7498.08</ele>
        <time>2026-06-24T07:49:19</time>
      </trkpt>
      <trkpt lat="32.481628417969" lon="118.54637908936">
        <ele>7498.08</ele>
        <time>2026-06-24T07:49:34</time>
      </trkpt>
      <trkpt lat="32.453380584717" lon="118.56143188477">
        <ele>7498.08</ele>
        <time>2026-06-24T07:49:49</time>
      </trkpt>
      <trkpt lat="32.425361633301" lon="118.57649993896">
        <ele>7498.08</ele>
        <time>2026-06-24T07:50:04</time>
      </trkpt>
      <trkpt lat="32.397937774658" lon="118.59130096436">
        <ele>7498.08</ele>
        <time>2026-06-24T07:50:19</time>
      </trkpt>
      <trkpt lat="32.369911193848" lon="118.60637664795">
        <ele>7498.08</ele>
        <time>2026-06-24T07:50:34</time>
      </trkpt>
      <trkpt lat="32.341690063477" lon="118.62147521973">
        <ele>7498.08</ele>
        <time>2026-06-24T07:50:49</time>
      </trkpt>
      <trkpt lat="32.313079833984" lon="118.63679504395">
        <ele>7498.08</ele>
        <time>2026-06-24T07:51:04</time>
      </trkpt>
      <trkpt lat="32.284515380859" lon="118.65201568604">
        <ele>7498.08</ele>
        <time>2026-06-24T07:51:19</time>
      </trkpt>
      <trkpt lat="32.256317138672" lon="118.66706848145">
        <ele>7498.08</ele>
        <time>2026-06-24T07:51:34</time>
      </trkpt>
      <trkpt lat="32.228302001953" lon="118.68199920654">
        <ele>7498.08</ele>
        <time>2026-06-24T07:51:49</time>
      </trkpt>
      <trkpt lat="32.199829101562" lon="118.69721984863">
        <ele>7498.08</ele>
        <time>2026-06-24T07:52:04</time>
      </trkpt>
      <trkpt lat="32.171691894531" lon="118.71226501465">
        <ele>7498.08</ele>
        <time>2026-06-24T07:52:19</time>
      </trkpt>
      <trkpt lat="32.143901824951" lon="118.72700500488">
        <ele>7498.08</ele>
        <time>2026-06-24T07:52:34</time>
      </trkpt>
      <trkpt lat="32.115924835205" lon="118.74185943604">
        <ele>7498.08</ele>
        <time>2026-06-24T07:52:49</time>
      </trkpt>
      <trkpt lat="32.086921691895" lon="118.75727081299">
        <ele>7498.08</ele>
        <time>2026-06-24T07:53:04</time>
      </trkpt>
      <trkpt lat="32.058708190918" lon="118.77223968506">
        <ele>7498.08</ele>
        <time>2026-06-24T07:53:19</time>
      </trkpt>
      <trkpt lat="32.029632568359" lon="118.78758239746">
        <ele>7498.08</ele>
        <time>2026-06-24T07:53:34</time>
      </trkpt>
      <trkpt lat="31.999694824219" lon="118.80225372314">
        <ele>7498.08</ele>
        <time>2026-06-24T07:53:49</time>
      </trkpt>
      <trkpt lat="31.970306396484" lon="118.81428527832">
        <ele>7498.08</ele>
        <time>2026-06-24T07:54:04</time>
      </trkpt>
      <trkpt lat="31.940000534058" lon="118.82447814941">
        <ele>7498.08</ele>
        <time>2026-06-24T07:54:19</time>
      </trkpt>
      <trkpt lat="31.909610748291" lon="118.83416748047">
        <ele>7498.08</ele>
        <time>2026-06-24T07:54:34</time>
      </trkpt>
      <trkpt lat="31.878799438477" lon="118.84406280518">
        <ele>7498.08</ele>
        <time>2026-06-24T07:54:49</time>
      </trkpt>
      <trkpt lat="31.848403930664" lon="118.85388946533">
        <ele>7498.08</ele>
        <time>2026-06-24T07:55:04</time>
      </trkpt>
      <trkpt lat="31.818330764771" lon="118.86377716064">
        <ele>7498.08</ele>
        <time>2026-06-24T07:55:19</time>
      </trkpt>
      <trkpt lat="31.788475036621" lon="118.87498474121">
        <ele>7498.08</ele>
        <time>2026-06-24T07:55:34</time>
      </trkpt>
      <trkpt lat="31.759872436523" lon="118.8904876709">
        <ele>7498.08</ele>
        <time>2026-06-24T07:55:49</time>
      </trkpt>
      <trkpt lat="31.7327709198" lon="118.91207885742">
        <ele>7498.08</ele>
        <time>2026-06-24T07:56:04</time>
      </trkpt>
      <trkpt lat="31.709381103516" lon="118.93664550781">
        <ele>7498.08</ele>
        <time>2026-06-24T07:56:19</time>
      </trkpt>
      <trkpt lat="31.683650970459" lon="118.96324920654">
        <ele>7498.08</ele>
        <time>2026-06-24T07:56:38</time>
      </trkpt>
      <trkpt lat="31.658550262451" lon="118.9878692627">
        <ele>7498.08</ele>
        <time>2026-06-24T07:56:53</time>
      </trkpt>
      <trkpt lat="31.633071899414" lon="119.00982666016">
        <ele>7498.08</ele>
        <time>2026-06-24T07:57:08</time>
      </trkpt>
      <trkpt lat="31.607009887695" lon="119.03109741211">
        <ele>7498.08</ele>
        <time>2026-06-24T07:57:23</time>
      </trkpt>
      <trkpt lat="31.579055786133" lon="119.05485534668">
        <ele>7498.08</ele>
        <time>2026-06-24T07:57:38</time>
      </trkpt>
      <trkpt lat="31.553478240967" lon="119.07707214355">
        <ele>7498.08</ele>
        <time>2026-06-24T07:57:53</time>
      </trkpt>
      <trkpt lat="31.528106689453" lon="119.09928131104">
        <ele>7498.08</ele>
        <time>2026-06-24T07:58:08</time>
      </trkpt>
      <trkpt lat="31.502132415771" lon="119.12200927734">
        <ele>7498.08</ele>
        <time>2026-06-24T07:58:23</time>
      </trkpt>
      <trkpt lat="31.476020812988" lon="119.1448135376">
        <ele>7498.08</ele>
        <time>2026-06-24T07:58:38</time>
      </trkpt>
      <trkpt lat="31.450973510742" lon="119.16660308838">
        <ele>7444.74</ele>
        <time>2026-06-24T07:58:53</time>
      </trkpt>
      <trkpt lat="31.425088882446" lon="119.18891906738">
        <ele>7368.54</ele>
        <time>2026-06-24T07:59:08</time>
      </trkpt>
      <trkpt lat="31.39962387085" lon="119.2112197876">
        <ele>7299.96</ele>
        <time>2026-06-24T07:59:23</time>
      </trkpt>
      <trkpt lat="31.37434387207" lon="119.23332977295">
        <ele>7223.76</ele>
        <time>2026-06-24T07:59:38</time>
      </trkpt>
      <trkpt lat="31.348648071289" lon="119.25576782227">
        <ele>7147.56</ele>
        <time>2026-06-24T07:59:53</time>
      </trkpt>
      <trkpt lat="31.323278427124" lon="119.27796173096">
        <ele>7063.74</ele>
        <time>2026-06-24T08:00:08</time>
      </trkpt>
      <trkpt lat="31.298080444336" lon="119.29999542236">
        <ele>6987.54</ele>
        <time>2026-06-24T08:00:22</time>
      </trkpt>
      <trkpt lat="31.272443771362" lon="119.32228851318">
        <ele>6911.34</ele>
        <time>2026-06-24T08:00:37</time>
      </trkpt>
      <trkpt lat="31.247451782227" lon="119.34405517578">
        <ele>6842.76</ele>
        <time>2026-06-24T08:00:52</time>
      </trkpt>
      <trkpt lat="31.222026824951" lon="119.36623382568">
        <ele>6766.56</ele>
        <time>2026-06-24T08:01:07</time>
      </trkpt>
      <trkpt lat="31.197784423828" lon="119.38729858398">
        <ele>6697.98</ele>
        <time>2026-06-24T08:01:22</time>
      </trkpt>
      <trkpt lat="31.171783447266" lon="119.40985870361">
        <ele>6621.78</ele>
        <time>2026-06-24T08:01:37</time>
      </trkpt>
      <trkpt lat="31.146331787109" lon="119.43221282959">
        <ele>6537.96</ele>
        <time>2026-06-24T08:01:56</time>
      </trkpt>
      <trkpt lat="31.122451782227" lon="119.45314025879">
        <ele>6461.76</ele>
        <time>2026-06-24T08:02:11</time>
      </trkpt>
      <trkpt lat="31.098012924194" lon="119.47450256348">
        <ele>6370.32</ele>
        <time>2026-06-24T08:02:26</time>
      </trkpt>
      <trkpt lat="31.072967529297" lon="119.49631500244">
        <ele>6248.4</ele>
        <time>2026-06-24T08:02:41</time>
      </trkpt>
      <trkpt lat="31.048059463501" lon="119.51795959473">
        <ele>6126.48</ele>
        <time>2026-06-24T08:02:56</time>
      </trkpt>
      <trkpt lat="31.024509429932" lon="119.5384979248">
        <ele>5989.32</ele>
        <time>2026-06-24T08:03:11</time>
      </trkpt>
      <trkpt lat="31.000719070435" lon="119.55935668945">
        <ele>5836.92</ele>
        <time>2026-06-24T08:03:26</time>
      </trkpt>
      <trkpt lat="30.977230072021" lon="119.5799331665">
        <ele>5684.52</ele>
        <time>2026-06-24T08:03:41</time>
      </trkpt>
      <trkpt lat="30.953514099121" lon="119.60057067871">
        <ele>5539.74</ele>
        <time>2026-06-24T08:03:56</time>
      </trkpt>
      <trkpt lat="30.930940628052" lon="119.62017822266">
        <ele>5394.96</ele>
        <time>2026-06-24T08:04:11</time>
      </trkpt>
      <trkpt lat="30.905937194824" lon="119.64183044434">
        <ele>5227.32</ele>
        <time>2026-06-24T08:04:26</time>
      </trkpt>
      <trkpt lat="30.883449554443" lon="119.66133117676">
        <ele>5074.92</ele>
        <time>2026-06-24T08:04:41</time>
      </trkpt>
      <trkpt lat="30.861053466797" lon="119.6808013916">
        <ele>4930.14</ele>
        <time>2026-06-24T08:04:56</time>
      </trkpt>
      <trkpt lat="30.838762283325" lon="119.70021820068">
        <ele>4831.08</ele>
        <time>2026-06-24T08:05:11</time>
      </trkpt>
      <trkpt lat="30.816604614258" lon="119.7194442749">
        <ele>4747.26</ele>
        <time>2026-06-24T08:05:26</time>
      </trkpt>
      <trkpt lat="30.795469284058" lon="119.73779296875">
        <ele>4678.68</ele>
        <time>2026-06-24T08:05:41</time>
      </trkpt>
      <trkpt lat="30.774673461914" lon="119.7557144165">
        <ele>4610.1</ele>
        <time>2026-06-24T08:05:56</time>
      </trkpt>
      <trkpt lat="30.753845214844" lon="119.77370452881">
        <ele>4541.52</ele>
        <time>2026-06-24T08:06:11</time>
      </trkpt>
      <trkpt lat="30.733610153198" lon="119.79120635986">
        <ele>4472.94</ele>
        <time>2026-06-24T08:06:26</time>
      </trkpt>
      <trkpt lat="30.712829589844" lon="119.80918884277">
        <ele>4404.36</ele>
        <time>2026-06-24T08:06:41</time>
      </trkpt>
      <trkpt lat="30.693189620972" lon="119.82662200928">
        <ele>4335.78</ele>
        <time>2026-06-24T08:06:56</time>
      </trkpt>
      <trkpt lat="30.673740386963" lon="119.844581604">
        <ele>4259.58</ele>
        <time>2026-06-24T08:07:11</time>
      </trkpt>
      <trkpt lat="30.653961181641" lon="119.86283111572">
        <ele>4137.66</ele>
        <time>2026-06-24T08:07:26</time>
      </trkpt>
      <trkpt lat="30.633539199829" lon="119.87915039062">
        <ele>4000.5</ele>
        <time>2026-06-24T08:07:41</time>
      </trkpt>
      <trkpt lat="30.612239837646" lon="119.89292144775">
        <ele>3870.96</ele>
        <time>2026-06-24T08:07:56</time>
      </trkpt>
      <trkpt lat="30.591247558594" lon="119.90624237061">
        <ele>3733.8</ele>
        <time>2026-06-24T08:08:11</time>
      </trkpt>
      <trkpt lat="30.570329666138" lon="119.9196472168">
        <ele>3672.84</ele>
        <time>2026-06-24T08:08:26</time>
      </trkpt>
      <trkpt lat="30.550649642944" lon="119.93225097656">
        <ele>3619.5</ele>
        <time>2026-06-24T08:08:41</time>
      </trkpt>
      <trkpt lat="30.531372070312" lon="119.94441986084">
        <ele>3520.44</ele>
        <time>2026-06-24T08:08:56</time>
      </trkpt>
      <trkpt lat="30.511320114136" lon="119.95702362061">
        <ele>3390.9</ele>
        <time>2026-06-24T08:09:11</time>
      </trkpt>
      <trkpt lat="30.492692947388" lon="119.96883392334">
        <ele>3276.6</ele>
        <time>2026-06-24T08:09:26</time>
      </trkpt>
      <trkpt lat="30.473373413086" lon="119.9810333252">
        <ele>3169.92</ele>
        <time>2026-06-24T08:09:41</time>
      </trkpt>
      <trkpt lat="30.454742431641" lon="119.99283599854">
        <ele>3093.72</ele>
        <time>2026-06-24T08:09:56</time>
      </trkpt>
      <trkpt lat="30.436550140381" lon="120.00443267822">
        <ele>3048.0</ele>
        <time>2026-06-24T08:10:11</time>
      </trkpt>
      <trkpt lat="30.418674468994" lon="120.01574707031">
        <ele>3009.9</ele>
        <time>2026-06-24T08:10:26</time>
      </trkpt>
      <trkpt lat="30.401596069336" lon="120.02655029297">
        <ele>2971.8</ele>
        <time>2026-06-24T08:10:41</time>
      </trkpt>
      <trkpt lat="30.385339736938" lon="120.03690338135">
        <ele>2903.22</ele>
        <time>2026-06-24T08:10:56</time>
      </trkpt>
      <trkpt lat="30.368719100952" lon="120.04739379883">
        <ele>2819.4</ele>
        <time>2026-06-24T08:11:11</time>
      </trkpt>
      <trkpt lat="30.352519989014" lon="120.05767822266">
        <ele>2773.68</ele>
        <time>2026-06-24T08:11:26</time>
      </trkpt>
      <trkpt lat="30.336700439453" lon="120.06771087646">
        <ele>2720.34</ele>
        <time>2026-06-24T08:11:41</time>
      </trkpt>
      <trkpt lat="30.321350097656" lon="120.07739257812">
        <ele>2674.62</ele>
        <time>2026-06-24T08:11:56</time>
      </trkpt>
      <trkpt lat="30.306999206543" lon="120.08644104004">
        <ele>2628.9</ele>
        <time>2026-06-24T08:12:11</time>
      </trkpt>
      <trkpt lat="30.292419433594" lon="120.09564971924">
        <ele>2590.8</ele>
        <time>2026-06-24T08:12:26</time>
      </trkpt>
      <trkpt lat="30.278690338135" lon="120.10437011719">
        <ele>2545.08</ele>
        <time>2026-06-24T08:12:41</time>
      </trkpt>
      <trkpt lat="30.265689849854" lon="120.11266326904">
        <ele>2476.5</ele>
        <time>2026-06-24T08:12:56</time>
      </trkpt>
      <trkpt lat="30.25140953064" lon="120.1216583252">
        <ele>2400.3</ele>
        <time>2026-06-24T08:13:11</time>
      </trkpt>
      <trkpt lat="30.237716674805" lon="120.13021850586">
        <ele>2324.1</ele>
        <time>2026-06-24T08:13:26</time>
      </trkpt>
      <trkpt lat="30.223760604858" lon="120.13681793213">
        <ele>2240.28</ele>
        <time>2026-06-24T08:13:41</time>
      </trkpt>
      <trkpt lat="30.209659576416" lon="120.13646697998">
        <ele>2186.94</ele>
        <time>2026-06-24T08:13:56</time>
      </trkpt>
      <trkpt lat="30.196899414062" lon="120.12841033936">
        <ele>2125.98</ele>
        <time>2026-06-24T08:14:11</time>
      </trkpt>
      <trkpt lat="30.189498901367" lon="120.11627197266">
        <ele>2057.4</ele>
        <time>2026-06-24T08:14:26</time>
      </trkpt>
      <trkpt lat="30.183334350586" lon="120.10275268555">
        <ele>1996.44</ele>
        <time>2026-06-24T08:14:41</time>
      </trkpt>
      <trkpt lat="30.174741744995" lon="120.09160614014">
        <ele>1920.24</ele>
        <time>2026-06-24T08:14:56</time>
      </trkpt>
      <trkpt lat="30.163057327271" lon="120.08325958252">
        <ele>1851.66</ele>
        <time>2026-06-24T08:15:11</time>
      </trkpt>
      <trkpt lat="30.151290893555" lon="120.07523345947">
        <ele>1775.46</ele>
        <time>2026-06-24T08:15:26</time>
      </trkpt>
      <trkpt lat="30.139209747314" lon="120.0687713623">
        <ele>1699.26</ele>
        <time>2026-06-24T08:15:41</time>
      </trkpt>
      <trkpt lat="30.125427246094" lon="120.07049560547">
        <ele>1623.06</ele>
        <time>2026-06-24T08:15:56</time>
      </trkpt>
      <trkpt lat="30.114120483398" lon="120.08029937744">
        <ele>1569.72</ele>
        <time>2026-06-24T08:16:11</time>
      </trkpt>
      <trkpt lat="30.109010696411" lon="120.09545135498">
        <ele>1524.0</ele>
        <time>2026-06-24T08:16:26</time>
      </trkpt>
      <trkpt lat="30.10954284668" lon="120.112449646">
        <ele>1470.66</ele>
        <time>2026-06-24T08:16:46</time>
      </trkpt>
      <trkpt lat="30.114028930664" lon="120.12747192383">
        <ele>1417.32</ele>
        <time>2026-06-24T08:17:02</time>
      </trkpt>
      <trkpt lat="30.119430541992" lon="120.14105224609">
        <ele>1363.98</ele>
        <time>2026-06-24T08:17:16</time>
      </trkpt>
      <trkpt lat="30.125240325928" lon="120.15455627441">
        <ele>1310.64</ele>
        <time>2026-06-24T08:17:31</time>
      </trkpt>
      <trkpt lat="30.131261825562" lon="120.16796112061">
        <ele>1257.3</ele>
        <time>2026-06-24T08:17:46</time>
      </trkpt>
      <trkpt lat="30.137029647827" lon="120.18097686768">
        <ele>1211.58</ele>
        <time>2026-06-24T08:18:01</time>
      </trkpt>
      <trkpt lat="30.143133163452" lon="120.19471740723">
        <ele>1158.24</ele>
        <time>2026-06-24T08:18:16</time>
      </trkpt>
      <trkpt lat="30.149045944214" lon="120.20790100098">
        <ele>1104.9</ele>
        <time>2026-06-24T08:18:31</time>
      </trkpt>
      <trkpt lat="30.154998779297" lon="120.22129058838">
        <ele>1051.56</ele>
        <time>2026-06-24T08:18:46</time>
      </trkpt>
      <trkpt lat="30.161087036133" lon="120.23464202881">
        <ele>1005.84</ele>
        <time>2026-06-24T08:19:01</time>
      </trkpt>
      <trkpt lat="30.166900634766" lon="120.24773406982">
        <ele>982.98</ele>
        <time>2026-06-24T08:19:16</time>
      </trkpt>
      <trkpt lat="30.17232131958" lon="120.26002502441">
        <ele>914.4</ele>
        <time>2026-06-24T08:19:31</time>
      </trkpt>
      <trkpt lat="30.177337646484" lon="120.27142333984">
        <ele>853.44</ele>
        <time>2026-06-24T08:19:46</time>
      </trkpt>
      <trkpt lat="30.182420730591" lon="120.28267669678">
        <ele>792.48</ele>
        <time>2026-06-24T08:20:01</time>
      </trkpt>
      <trkpt lat="30.187088012695" lon="120.29312896729">
        <ele>723.9</ele>
        <time>2026-06-24T08:20:16</time>
      </trkpt>
      <trkpt lat="30.191665649414" lon="120.30346679688">
        <ele>670.56</ele>
        <time>2026-06-24T08:20:31</time>
      </trkpt>
      <trkpt lat="30.196294784546" lon="120.31397247314">
        <ele>609.6</ele>
        <time>2026-06-24T08:20:45</time>
      </trkpt>
      <trkpt lat="30.200820922852" lon="120.32409667969">
        <ele>556.26</ele>
        <time>2026-06-24T08:21:00</time>
      </trkpt>
      <trkpt lat="30.205139160156" lon="120.33380126953">
        <ele>502.92</ele>
        <time>2026-06-24T08:21:15</time>
      </trkpt>
      <trkpt lat="30.209609985352" lon="120.34380340576">
        <ele>441.96</ele>
        <time>2026-06-24T08:21:30</time>
      </trkpt>
      <trkpt lat="30.213912963867" lon="120.35355377197">
        <ele>388.62</ele>
        <time>2026-06-24T08:21:45</time>
      </trkpt>
      <trkpt lat="30.218454360962" lon="120.36368560791">
        <ele>335.28</ele>
        <time>2026-06-24T08:22:00</time>
      </trkpt>
      <trkpt lat="30.222930908203" lon="120.37380218506">
        <ele>281.94</ele>
        <time>2026-06-24T08:22:15</time>
      </trkpt>
      <trkpt lat="30.227718353271" lon="120.38466644287">
        <ele>220.98</ele>
        <time>2026-06-24T08:22:30</time>
      </trkpt>
      <trkpt lat="30.232223510742" lon="120.39475250244">
        <ele>167.64</ele>
        <time>2026-06-24T08:22:45</time>
      </trkpt>
      <trkpt lat="30.236618041992" lon="120.40460968018">
        <ele>114.3</ele>
        <time>2026-06-24T08:23:00</time>
      </trkpt>
      <trkpt lat="30.241031646729" lon="120.41460418701">
        <ele>76.2</ele>
        <time>2026-06-24T08:23:15</time>
      </trkpt>
      <trkpt lat="30.244487762451" lon="120.4224319458">
        <ele>0.0</ele>
        <time>2026-06-24T08:23:30</time>
      </trkpt>
      <trkpt lat="30.246440887451" lon="120.42681884766">
        <ele>0.0</ele>
        <time>2026-06-24T08:23:45</time>
      </trkpt>
      <trkpt lat="30.247230529785" lon="120.42932128906">
        <ele>0.0</ele>
        <time>2026-06-24T08:24:00</time>
      </trkpt>
      <trkpt lat="30.247259140015" lon="120.43132781982">
        <ele>0.0</ele>
        <time>2026-06-24T08:24:15</time>
      </trkpt>
      <trkpt lat="30.24730682373" lon="120.43299102783">
        <ele>0.0</ele>
        <time>2026-06-24T08:24:30</time>
      </trkpt>
      <trkpt lat="30.247537612915" lon="120.43362426758">
        <ele>0.0</ele>
        <time>2026-06-24T08:24:41</time>
      </trkpt>
      <trkpt lat="30.24768447876" lon="120.43422698975">
        <ele>0.0</ele>
        <time>2026-06-24T08:24:55</time>
      </trkpt>
      <trkpt lat="30.247165679932" lon="120.43460083008">
        <ele>0.0</ele>
        <time>2026-06-24T08:25:10</time>
      </trkpt>
      <trkpt lat="30.246574401855" lon="120.43494415283">
        <ele>0.0</ele>
        <time>2026-06-24T08:25:25</time>
      </trkpt>
      <trkpt lat="30.246110916138" lon="120.43475341797">
        <ele>0.0</ele>
        <time>2026-06-24T08:25:40</time>
      </trkpt>
      <trkpt lat="30.245840072632" lon="120.43411254883">
        <ele>0.0</ele>
        <time>2026-06-24T08:25:55</time>
      </trkpt>
      <trkpt lat="30.245500564575" lon="120.43334197998">
        <ele>0.0</ele>
        <time>2026-06-24T08:26:10</time>
      </trkpt>
      <trkpt lat="30.245079040527" lon="120.43237304688">
        <ele>0.0</ele>
        <time>2026-06-24T08:26:25</time>
      </trkpt>
      <trkpt lat="30.244791030884" lon="120.43173217773">
        <ele>0.0</ele>
        <time>2026-06-24T08:26:40</time>
      </trkpt>
      <trkpt lat="30.244400024414" lon="120.43167114258">
        <ele>0.0</ele>
        <time>2026-06-24T08:26:55</time>
      </trkpt>
      <trkpt lat="30.244089126587" lon="120.43186187744">
        <ele>0.0</ele>
        <time>2026-06-24T08:27:10</time>
      </trkpt>
      <trkpt lat="30.243907928467" lon="120.43196868896">
        <ele>0.0</ele>
        <time>2026-06-24T08:27:25</time>
      </trkpt>
      <trkpt lat="30.243890762329" lon="120.43197631836">
        <ele>0.0</ele>
        <time>2026-06-24T08:27:40</time>
      </trkpt>
      <trkpt lat="30.243879318237" lon="120.43197631836">
        <ele>0.0</ele>
        <time>2026-06-24T08:27:55</time>
      </trkpt>
    </trkseg>
  </trk>
</gpx>