<?xml version="1.0" encoding="UTF-8"?>
<gpx xmlns="http://www.topografix.com/GPX/1/1" xmlns:xsi="http://www.w3.org/2001/XMLSchema-instance" xsi:schemaLocation="http://www.topografix.com/GPX/1/1 http://www.topografix.com/GPX/1/1/gpx.xsd" version="1.1" creator="gpx.py -- https://github.com/tkrajina/gpxpy">
  <trk>
    <name>Variflight_FU6635_20260616.csv</name>
    <trkseg>
      <trkpt lat="45.620819091797" lon="126.24706268311">
        <ele>160.02</ele>
        <time>2026-06-16T01:04:02</time>
      </trkpt>
      <trkpt lat="45.613361358643" lon="126.23806762695">
        <ele>312.42</ele>
        <time>2026-06-16T01:04:17</time>
      </trkpt>
      <trkpt lat="45.605041503906" lon="126.22776031494">
        <ele>487.68</ele>
        <time>2026-06-16T01:04:32</time>
      </trkpt>
      <trkpt lat="45.597820281982" lon="126.21465301514">
        <ele>655.32</ele>
        <time>2026-06-16T01:04:47</time>
      </trkpt>
      <trkpt lat="45.592071533203" lon="126.1990814209">
        <ele>830.58</ele>
        <time>2026-06-16T01:05:02</time>
      </trkpt>
      <trkpt lat="45.585578918457" lon="126.18430328369">
        <ele>982.98</ele>
        <time>2026-06-16T01:05:17</time>
      </trkpt>
      <trkpt lat="45.578750610352" lon="126.17093658447">
        <ele>1165.86</ele>
        <time>2026-06-16T01:05:32</time>
      </trkpt>
      <trkpt lat="45.57160949707" lon="126.15673828125">
        <ele>1264.92</ele>
        <time>2026-06-16T01:05:47</time>
      </trkpt>
      <trkpt lat="45.563369750977" lon="126.14025878906">
        <ele>1341.12</ele>
        <time>2026-06-16T01:06:02</time>
      </trkpt>
      <trkpt lat="45.554759979248" lon="126.123046875">
        <ele>1409.7</ele>
        <time>2026-06-16T01:06:17</time>
      </trkpt>
      <trkpt lat="45.544971466064" lon="126.10395050049">
        <ele>1546.86</ele>
        <time>2026-06-16T01:06:32</time>
      </trkpt>
      <trkpt lat="45.534610748291" lon="126.08399200439">
        <ele>1645.92</ele>
        <time>2026-06-16T01:06:47</time>
      </trkpt>
      <trkpt lat="45.523708343506" lon="126.06288909912">
        <ele>1851.66</ele>
        <time>2026-06-16T01:07:02</time>
      </trkpt>
      <trkpt lat="45.512790679932" lon="126.04163360596">
        <ele>2019.3</ele>
        <time>2026-06-16T01:07:17</time>
      </trkpt>
      <trkpt lat="45.501850128174" lon="126.02011871338">
        <ele>2118.36</ele>
        <time>2026-06-16T01:07:32</time>
      </trkpt>
      <trkpt lat="45.490589141846" lon="125.99813842773">
        <ele>2209.8</ele>
        <time>2026-06-16T01:07:47</time>
      </trkpt>
      <trkpt lat="45.479442596436" lon="125.97627258301">
        <ele>2423.16</ele>
        <time>2026-06-16T01:08:02</time>
      </trkpt>
      <trkpt lat="45.468479156494" lon="125.9545211792">
        <ele>2674.62</ele>
        <time>2026-06-16T01:08:17</time>
      </trkpt>
      <trkpt lat="45.457809448242" lon="125.93327331543">
        <ele>2903.22</ele>
        <time>2026-06-16T01:08:32</time>
      </trkpt>
      <trkpt lat="45.446811676025" lon="125.91156005859">
        <ele>3101.34</ele>
        <time>2026-06-16T01:08:47</time>
      </trkpt>
      <trkpt lat="45.435871124268" lon="125.88999176025">
        <ele>3276.6</ele>
        <time>2026-06-16T01:09:02</time>
      </trkpt>
      <trkpt lat="45.424278259277" lon="125.86727905273">
        <ele>3421.38</ele>
        <time>2026-06-16T01:09:17</time>
      </trkpt>
      <trkpt lat="45.412265777588" lon="125.84450531006">
        <ele>3589.02</ele>
        <time>2026-06-16T01:09:32</time>
      </trkpt>
      <trkpt lat="45.398860931396" lon="125.82319641113">
        <ele>3802.38</ele>
        <time>2026-06-16T01:09:47</time>
      </trkpt>
      <trkpt lat="45.38525390625" lon="125.80176544189">
        <ele>4030.98</ele>
        <time>2026-06-16T01:10:02</time>
      </trkpt>
      <trkpt lat="45.371570587158" lon="125.78025054932">
        <ele>4259.58</ele>
        <time>2026-06-16T01:10:17</time>
      </trkpt>
      <trkpt lat="45.357650756836" lon="125.75846862793">
        <ele>4465.32</ele>
        <time>2026-06-16T01:10:32</time>
      </trkpt>
      <trkpt lat="45.344100952148" lon="125.73728179932">
        <ele>4678.68</ele>
        <time>2026-06-16T01:10:47</time>
      </trkpt>
      <trkpt lat="45.330146789551" lon="125.71534729004">
        <ele>4785.36</ele>
        <time>2026-06-16T01:11:02</time>
      </trkpt>
      <trkpt lat="45.315158843994" lon="125.69169616699">
        <ele>4808.22</ele>
        <time>2026-06-16T01:11:17</time>
      </trkpt>
      <trkpt lat="45.299377441406" lon="125.66698455811">
        <ele>4930.14</ele>
        <time>2026-06-16T01:11:32</time>
      </trkpt>
      <trkpt lat="45.283130645752" lon="125.64167785645">
        <ele>5059.68</ele>
        <time>2026-06-16T01:11:47</time>
      </trkpt>
      <trkpt lat="45.266918182373" lon="125.61637115479">
        <ele>5166.36</ele>
        <time>2026-06-16T01:12:02</time>
      </trkpt>
      <trkpt lat="45.250080108643" lon="125.59014129639">
        <ele>5250.18</ele>
        <time>2026-06-16T01:12:17</time>
      </trkpt>
      <trkpt lat="45.232341766357" lon="125.56240844727">
        <ele>5326.38</ele>
        <time>2026-06-16T01:12:32</time>
      </trkpt>
      <trkpt lat="45.2155418396" lon="125.53634643555">
        <ele>5394.96</ele>
        <time>2026-06-16T01:12:47</time>
      </trkpt>
      <trkpt lat="45.19803237915" lon="125.50921630859">
        <ele>5394.96</ele>
        <time>2026-06-16T01:13:02</time>
      </trkpt>
      <trkpt lat="45.180759429932" lon="125.482421875">
        <ele>5394.96</ele>
        <time>2026-06-16T01:13:17</time>
      </trkpt>
      <trkpt lat="45.163558959961" lon="125.45569610596">
        <ele>5394.96</ele>
        <time>2026-06-16T01:13:32</time>
      </trkpt>
      <trkpt lat="45.146034240723" lon="125.42835998535">
        <ele>5394.96</ele>
        <time>2026-06-16T01:13:47</time>
      </trkpt>
      <trkpt lat="45.128631591797" lon="125.40141296387">
        <ele>5394.96</ele>
        <time>2026-06-16T01:14:02</time>
      </trkpt>
      <trkpt lat="45.110870361328" lon="125.37394714355">
        <ele>5394.96</ele>
        <time>2026-06-16T01:14:17</time>
      </trkpt>
      <trkpt lat="45.093288421631" lon="125.34677124023">
        <ele>5394.96</ele>
        <time>2026-06-16T01:14:32</time>
      </trkpt>
      <trkpt lat="45.075901031494" lon="125.31999969482">
        <ele>5417.82</ele>
        <time>2026-06-16T01:14:47</time>
      </trkpt>
      <trkpt lat="45.057350158691" lon="125.2914352417">
        <ele>5547.36</ele>
        <time>2026-06-16T01:15:02</time>
      </trkpt>
      <trkpt lat="45.040920257568" lon="125.2659072876">
        <ele>5722.62</ele>
        <time>2026-06-16T01:15:17</time>
      </trkpt>
      <trkpt lat="45.024307250977" lon="125.23596954346">
        <ele>5905.5</ele>
        <time>2026-06-16T01:15:32</time>
      </trkpt>
      <trkpt lat="45.009449005127" lon="125.20596313477">
        <ele>6057.9</ele>
        <time>2026-06-16T01:15:47</time>
      </trkpt>
      <trkpt lat="44.993679046631" lon="125.17430114746">
        <ele>6225.54</ele>
        <time>2026-06-16T01:16:02</time>
      </trkpt>
      <trkpt lat="44.978031158447" lon="125.14279174805">
        <ele>6400.8</ele>
        <time>2026-06-16T01:16:17</time>
      </trkpt>
      <trkpt lat="44.96284866333" lon="125.11224365234">
        <ele>6560.82</ele>
        <time>2026-06-16T01:16:32</time>
      </trkpt>
      <trkpt lat="44.947208404541" lon="125.08074951172">
        <ele>6720.84</ele>
        <time>2026-06-16T01:16:47</time>
      </trkpt>
      <trkpt lat="44.931011199951" lon="125.0481262207">
        <ele>6873.24</ele>
        <time>2026-06-16T01:17:02</time>
      </trkpt>
      <trkpt lat="44.915729522705" lon="125.01741790771">
        <ele>7010.4</ele>
        <time>2026-06-16T01:17:17</time>
      </trkpt>
      <trkpt lat="44.899108886719" lon="124.98413085938">
        <ele>7155.18</ele>
        <time>2026-06-16T01:17:32</time>
      </trkpt>
      <trkpt lat="44.883010864258" lon="124.95207214355">
        <ele>7292.34</ele>
        <time>2026-06-16T01:17:47</time>
      </trkpt>
      <trkpt lat="44.866470336914" lon="124.91905975342">
        <ele>7421.88</ele>
        <time>2026-06-16T01:18:02</time>
      </trkpt>
      <trkpt lat="44.850009918213" lon="124.88620758057">
        <ele>7543.8</ele>
        <time>2026-06-16T01:18:17</time>
      </trkpt>
      <trkpt lat="44.833599090576" lon="124.85359954834">
        <ele>7658.1</ele>
        <time>2026-06-16T01:18:32</time>
      </trkpt>
      <trkpt lat="44.816909790039" lon="124.82055664062">
        <ele>7764.78</ele>
        <time>2026-06-16T01:18:47</time>
      </trkpt>
      <trkpt lat="44.799999237061" lon="124.78690338135">
        <ele>7871.46</ele>
        <time>2026-06-16T01:19:02</time>
      </trkpt>
      <trkpt lat="44.782829284668" lon="124.75283813477">
        <ele>7993.38</ele>
        <time>2026-06-16T01:19:17</time>
      </trkpt>
      <trkpt lat="44.765285491943" lon="124.71807098389">
        <ele>8138.16</ele>
        <time>2026-06-16T01:19:32</time>
      </trkpt>
      <trkpt lat="44.748481750488" lon="124.68477630615">
        <ele>8237.22</ele>
        <time>2026-06-16T01:19:47</time>
      </trkpt>
      <trkpt lat="44.731292724609" lon="124.65087890625">
        <ele>8305.8</ele>
        <time>2026-06-16T01:20:02</time>
      </trkpt>
      <trkpt lat="44.713981628418" lon="124.61671447754">
        <ele>8374.38</ele>
        <time>2026-06-16T01:20:17</time>
      </trkpt>
      <trkpt lat="44.696868896484" lon="124.58300018311">
        <ele>8412.48</ele>
        <time>2026-06-16T01:20:32</time>
      </trkpt>
      <trkpt lat="44.679840087891" lon="124.54945373535">
        <ele>8412.48</ele>
        <time>2026-06-16T01:20:47</time>
      </trkpt>
      <trkpt lat="44.662860870361" lon="124.51602935791">
        <ele>8412.48</ele>
        <time>2026-06-16T01:21:02</time>
      </trkpt>
      <trkpt lat="44.646240234375" lon="124.48326873779">
        <ele>8412.48</ele>
        <time>2026-06-16T01:21:17</time>
      </trkpt>
      <trkpt lat="44.628978729248" lon="124.44953155518">
        <ele>8412.48</ele>
        <time>2026-06-16T01:21:32</time>
      </trkpt>
      <trkpt lat="44.611679077148" lon="124.41558837891">
        <ele>8412.48</ele>
        <time>2026-06-16T01:21:47</time>
      </trkpt>
      <trkpt lat="44.595600128174" lon="124.38304901123">
        <ele>8412.48</ele>
        <time>2026-06-16T01:22:02</time>
      </trkpt>
      <trkpt lat="44.583160400391" lon="124.34666442871">
        <ele>8412.48</ele>
        <time>2026-06-16T01:22:17</time>
      </trkpt>
      <trkpt lat="44.575698852539" lon="124.3077545166">
        <ele>8412.48</ele>
        <time>2026-06-16T01:22:32</time>
      </trkpt>
      <trkpt lat="44.572277069092" lon="124.2671585083">
        <ele>8412.48</ele>
        <time>2026-06-16T01:22:47</time>
      </trkpt>
      <trkpt lat="44.569019317627" lon="124.22750091553">
        <ele>8412.48</ele>
        <time>2026-06-16T01:23:02</time>
      </trkpt>
      <trkpt lat="44.565769195557" lon="124.18782043457">
        <ele>8412.48</ele>
        <time>2026-06-16T01:23:17</time>
      </trkpt>
      <trkpt lat="44.561336517334" lon="124.14839172363">
        <ele>8412.48</ele>
        <time>2026-06-16T01:23:32</time>
      </trkpt>
      <trkpt lat="44.551700592041" lon="124.11033630371">
        <ele>8412.48</ele>
        <time>2026-06-16T01:23:47</time>
      </trkpt>
      <trkpt lat="44.537200927734" lon="124.075340271">
        <ele>8412.48</ele>
        <time>2026-06-16T01:24:02</time>
      </trkpt>
      <trkpt lat="44.520168304443" lon="124.04264068604">
        <ele>8412.48</ele>
        <time>2026-06-16T01:24:17</time>
      </trkpt>
      <trkpt lat="44.503566741943" lon="124.01045227051">
        <ele>8412.48</ele>
        <time>2026-06-16T01:24:32</time>
      </trkpt>
      <trkpt lat="44.486339569092" lon="123.97709655762">
        <ele>8412.48</ele>
        <time>2026-06-16T01:24:47</time>
      </trkpt>
      <trkpt lat="44.469722747803" lon="123.94493865967">
        <ele>8412.48</ele>
        <time>2026-06-16T01:25:02</time>
      </trkpt>
      <trkpt lat="44.452789306641" lon="123.91243743896">
        <ele>8442.96</ele>
        <time>2026-06-16T01:25:17</time>
      </trkpt>
      <trkpt lat="44.435485839844" lon="123.87902069092">
        <ele>8473.44</ele>
        <time>2026-06-16T01:25:32</time>
      </trkpt>
      <trkpt lat="44.417999267578" lon="123.84481811523">
        <ele>8587.74</ele>
        <time>2026-06-16T01:25:47</time>
      </trkpt>
      <trkpt lat="44.401016235352" lon="123.81172943115">
        <ele>8755.38</ele>
        <time>2026-06-16T01:26:02</time>
      </trkpt>
      <trkpt lat="44.383209228516" lon="123.77713775635">
        <ele>8915.4</ele>
        <time>2026-06-16T01:26:17</time>
      </trkpt>
      <trkpt lat="44.366703033447" lon="123.74510955811">
        <ele>9067.8</ele>
        <time>2026-06-16T01:26:32</time>
      </trkpt>
      <trkpt lat="44.349712371826" lon="123.71221923828">
        <ele>9212.58</ele>
        <time>2026-06-16T01:26:47</time>
      </trkpt>
      <trkpt lat="44.332580566406" lon="123.67904663086">
        <ele>9342.12</ele>
        <time>2026-06-16T01:27:02</time>
      </trkpt>
      <trkpt lat="44.31563949585" lon="123.64643096924">
        <ele>9464.04</ele>
        <time>2026-06-16T01:27:17</time>
      </trkpt>
      <trkpt lat="44.299110412598" lon="123.6146774292">
        <ele>9578.34</ele>
        <time>2026-06-16T01:27:32</time>
      </trkpt>
      <trkpt lat="44.281929016113" lon="123.58171844482">
        <ele>9707.88</ele>
        <time>2026-06-16T01:27:47</time>
      </trkpt>
      <trkpt lat="44.264831542969" lon="123.54891204834">
        <ele>9822.18</ele>
        <time>2026-06-16T01:28:02</time>
      </trkpt>
      <trkpt lat="44.248123168945" lon="123.51692962646">
        <ele>9936.48</ele>
        <time>2026-06-16T01:28:17</time>
      </trkpt>
      <trkpt lat="44.231048583984" lon="123.48411560059">
        <ele>10035.54</ele>
        <time>2026-06-16T01:28:32</time>
      </trkpt>
      <trkpt lat="44.214614868164" lon="123.45238494873">
        <ele>10104.12</ele>
        <time>2026-06-16T01:28:47</time>
      </trkpt>
      <trkpt lat="44.19841003418" lon="123.42119598389">
        <ele>10172.7</ele>
        <time>2026-06-16T01:29:02</time>
      </trkpt>
      <trkpt lat="44.182067871094" lon="123.38993835449">
        <ele>10248.9</ele>
        <time>2026-06-16T01:29:17</time>
      </trkpt>
      <trkpt lat="44.165782928467" lon="123.3588104248">
        <ele>10317.48</ele>
        <time>2026-06-16T01:29:32</time>
      </trkpt>
      <trkpt lat="44.149749755859" lon="123.32830047607">
        <ele>10386.06</ele>
        <time>2026-06-16T01:29:47</time>
      </trkpt>
      <trkpt lat="44.133056640625" lon="123.29635620117">
        <ele>10393.68</ele>
        <time>2026-06-16T01:30:02</time>
      </trkpt>
      <trkpt lat="44.116790771484" lon="123.26532745361">
        <ele>10393.68</ele>
        <time>2026-06-16T01:30:17</time>
      </trkpt>
      <trkpt lat="44.100357055664" lon="123.23389434814">
        <ele>10393.68</ele>
        <time>2026-06-16T01:30:32</time>
      </trkpt>
      <trkpt lat="44.084201812744" lon="123.20323944092">
        <ele>10393.68</ele>
        <time>2026-06-16T01:30:47</time>
      </trkpt>
      <trkpt lat="44.066986083984" lon="123.17066192627">
        <ele>10393.68</ele>
        <time>2026-06-16T01:31:02</time>
      </trkpt>
      <trkpt lat="44.050598144531" lon="123.13968658447">
        <ele>10393.68</ele>
        <time>2026-06-16T01:31:16</time>
      </trkpt>
      <trkpt lat="44.033843994141" lon="123.10806274414">
        <ele>10393.68</ele>
        <time>2026-06-16T01:31:31</time>
      </trkpt>
      <trkpt lat="44.01704788208" lon="123.07637023926">
        <ele>10393.68</ele>
        <time>2026-06-16T01:31:46</time>
      </trkpt>
      <trkpt lat="44.000102996826" lon="123.04432678223">
        <ele>10393.68</ele>
        <time>2026-06-16T01:32:01</time>
      </trkpt>
      <trkpt lat="43.983810424805" lon="123.01364898682">
        <ele>10393.68</ele>
        <time>2026-06-16T01:32:16</time>
      </trkpt>
      <trkpt lat="43.966735839844" lon="122.98133850098">
        <ele>10393.68</ele>
        <time>2026-06-16T01:32:31</time>
      </trkpt>
      <trkpt lat="43.950119018555" lon="122.94998168945">
        <ele>10393.68</ele>
        <time>2026-06-16T01:32:46</time>
      </trkpt>
      <trkpt lat="43.933162689209" lon="122.9181137085">
        <ele>10393.68</ele>
        <time>2026-06-16T01:33:01</time>
      </trkpt>
      <trkpt lat="43.916790008545" lon="122.88636016846">
        <ele>10393.68</ele>
        <time>2026-06-16T01:33:16</time>
      </trkpt>
      <trkpt lat="43.900726318359" lon="122.85480499268">
        <ele>10393.68</ele>
        <time>2026-06-16T01:33:31</time>
      </trkpt>
      <trkpt lat="43.884613037109" lon="122.82292938232">
        <ele>10393.68</ele>
        <time>2026-06-16T01:33:46</time>
      </trkpt>
      <trkpt lat="43.867904663086" lon="122.7900390625">
        <ele>10393.68</ele>
        <time>2026-06-16T01:34:01</time>
      </trkpt>
      <trkpt lat="43.851879119873" lon="122.75868225098">
        <ele>10393.68</ele>
        <time>2026-06-16T01:34:16</time>
      </trkpt>
      <trkpt lat="43.83544921875" lon="122.72657012939">
        <ele>10393.68</ele>
        <time>2026-06-16T01:34:31</time>
      </trkpt>
      <trkpt lat="43.81819152832" lon="122.69300842285">
        <ele>10393.68</ele>
        <time>2026-06-16T01:34:46</time>
      </trkpt>
      <trkpt lat="43.805515289307" lon="122.66843414307">
        <ele>10393.68</ele>
        <time>2026-06-16T01:35:00</time>
      </trkpt>
      <trkpt lat="43.789260864258" lon="122.63706207275">
        <ele>10393.68</ele>
        <time>2026-06-16T01:35:15</time>
      </trkpt>
      <trkpt lat="43.772930145264" lon="122.60546112061">
        <ele>10393.68</ele>
        <time>2026-06-16T01:35:30</time>
      </trkpt>
      <trkpt lat="43.756160736084" lon="122.57305908203">
        <ele>10393.68</ele>
        <time>2026-06-16T01:35:45</time>
      </trkpt>
      <trkpt lat="43.739738464355" lon="122.5414352417">
        <ele>10393.68</ele>
        <time>2026-06-16T01:36:00</time>
      </trkpt>
      <trkpt lat="43.722511291504" lon="122.50827789307">
        <ele>10393.68</ele>
        <time>2026-06-16T01:36:15</time>
      </trkpt>
      <trkpt lat="43.705307006836" lon="122.47507476807">
        <ele>10393.68</ele>
        <time>2026-06-16T01:36:30</time>
      </trkpt>
      <trkpt lat="43.688552856445" lon="122.4429473877">
        <ele>10393.68</ele>
        <time>2026-06-16T01:36:45</time>
      </trkpt>
      <trkpt lat="43.672283172607" lon="122.41162872314">
        <ele>10393.68</ele>
        <time>2026-06-16T01:37:00</time>
      </trkpt>
      <trkpt lat="43.654781341553" lon="122.37815093994">
        <ele>10393.68</ele>
        <time>2026-06-16T01:37:15</time>
      </trkpt>
      <trkpt lat="43.638534545898" lon="122.34702301025">
        <ele>10393.68</ele>
        <time>2026-06-16T01:37:30</time>
      </trkpt>
      <trkpt lat="43.622089385986" lon="122.31545257568">
        <ele>10393.68</ele>
        <time>2026-06-16T01:37:45</time>
      </trkpt>
      <trkpt lat="43.604362487793" lon="122.28169250488">
        <ele>10393.68</ele>
        <time>2026-06-16T01:38:00</time>
      </trkpt>
      <trkpt lat="43.588989257812" lon="122.25222015381">
        <ele>10393.68</ele>
        <time>2026-06-16T01:38:15</time>
      </trkpt>
      <trkpt lat="43.572692871094" lon="122.22104644775">
        <ele>10393.68</ele>
        <time>2026-06-16T01:38:30</time>
      </trkpt>
      <trkpt lat="43.550178527832" lon="122.17790985107">
        <ele>10393.68</ele>
        <time>2026-06-16T01:38:55</time>
      </trkpt>
      <trkpt lat="43.534740447998" lon="122.14810180664">
        <ele>10393.68</ele>
        <time>2026-06-16T01:39:10</time>
      </trkpt>
      <trkpt lat="43.516750335693" lon="122.11316680908">
        <ele>10393.68</ele>
        <time>2026-06-16T01:39:25</time>
      </trkpt>
      <trkpt lat="43.500370025635" lon="122.08139038086">
        <ele>10393.68</ele>
        <time>2026-06-16T01:39:39</time>
      </trkpt>
      <trkpt lat="43.484725952148" lon="122.05110931396">
        <ele>10393.68</ele>
        <time>2026-06-16T01:39:54</time>
      </trkpt>
      <trkpt lat="43.469150543213" lon="122.02098846436">
        <ele>10393.68</ele>
        <time>2026-06-16T01:40:09</time>
      </trkpt>
      <trkpt lat="43.452739715576" lon="121.98944091797">
        <ele>10393.68</ele>
        <time>2026-06-16T01:40:24</time>
      </trkpt>
      <trkpt lat="43.436641693115" lon="121.95844268799">
        <ele>10393.68</ele>
        <time>2026-06-16T01:40:39</time>
      </trkpt>
      <trkpt lat="43.421180725098" lon="121.92868804932">
        <ele>10393.68</ele>
        <time>2026-06-16T01:40:54</time>
      </trkpt>
      <trkpt lat="43.405563354492" lon="121.89874267578">
        <ele>10393.68</ele>
        <time>2026-06-16T01:41:09</time>
      </trkpt>
      <trkpt lat="43.389617919922" lon="121.86813354492">
        <ele>10393.68</ele>
        <time>2026-06-16T01:41:24</time>
      </trkpt>
      <trkpt lat="43.373565673828" lon="121.83741760254">
        <ele>10393.68</ele>
        <time>2026-06-16T01:41:39</time>
      </trkpt>
      <trkpt lat="43.357128143311" lon="121.80599212646">
        <ele>10393.68</ele>
        <time>2026-06-16T01:41:54</time>
      </trkpt>
      <trkpt lat="43.344635009766" lon="121.78210449219">
        <ele>10393.68</ele>
        <time>2026-06-16T01:42:08</time>
      </trkpt>
      <trkpt lat="43.329349517822" lon="121.75303649902">
        <ele>10393.68</ele>
        <time>2026-06-16T01:42:23</time>
      </trkpt>
      <trkpt lat="43.311721801758" lon="121.71951293945">
        <ele>10393.68</ele>
        <time>2026-06-16T01:42:37</time>
      </trkpt>
      <trkpt lat="43.295059204102" lon="121.6876373291">
        <ele>10393.68</ele>
        <time>2026-06-16T01:42:52</time>
      </trkpt>
      <trkpt lat="43.279399871826" lon="121.65773773193">
        <ele>10393.68</ele>
        <time>2026-06-16T01:43:07</time>
      </trkpt>
      <trkpt lat="43.263179779053" lon="121.62683105469">
        <ele>10393.68</ele>
        <time>2026-06-16T01:43:22</time>
      </trkpt>
      <trkpt lat="43.245998382568" lon="121.59426116943">
        <ele>10393.68</ele>
        <time>2026-06-16T01:43:42</time>
      </trkpt>
      <trkpt lat="43.229900360107" lon="121.56365966797">
        <ele>10393.68</ele>
        <time>2026-06-16T01:43:57</time>
      </trkpt>
      <trkpt lat="43.207458496094" lon="121.5212097168">
        <ele>10393.68</ele>
        <time>2026-06-16T01:44:17</time>
      </trkpt>
      <trkpt lat="43.191860198975" lon="121.49185180664">
        <ele>10393.68</ele>
        <time>2026-06-16T01:44:32</time>
      </trkpt>
      <trkpt lat="43.178508758545" lon="121.46662902832">
        <ele>10393.68</ele>
        <time>2026-06-16T01:44:43</time>
      </trkpt>
      <trkpt lat="43.161441802979" lon="121.43437957764">
        <ele>10393.68</ele>
        <time>2026-06-16T01:44:57</time>
      </trkpt>
      <trkpt lat="43.142028808594" lon="121.39771270752">
        <ele>10393.68</ele>
        <time>2026-06-16T01:45:16</time>
      </trkpt>
      <trkpt lat="43.125045776367" lon="121.36570739746">
        <ele>10393.68</ele>
        <time>2026-06-16T01:45:31</time>
      </trkpt>
      <trkpt lat="43.105930328369" lon="121.32967376709">
        <ele>10393.68</ele>
        <time>2026-06-16T01:45:50</time>
      </trkpt>
      <trkpt lat="43.090667724609" lon="121.30101013184">
        <ele>10393.68</ele>
        <time>2026-06-16T01:46:03</time>
      </trkpt>
      <trkpt lat="43.078460693359" lon="121.27800750732">
        <ele>10393.68</ele>
        <time>2026-06-16T01:46:14</time>
      </trkpt>
      <trkpt lat="43.06090927124" lon="121.2451171875">
        <ele>10393.68</ele>
        <time>2026-06-16T01:46:28</time>
      </trkpt>
      <trkpt lat="43.04322052002" lon="121.21195983887">
        <ele>10393.68</ele>
        <time>2026-06-16T01:46:48</time>
      </trkpt>
      <trkpt lat="43.0256690979" lon="121.17906951904">
        <ele>10393.68</ele>
        <time>2026-06-16T01:47:03</time>
      </trkpt>
      <trkpt lat="43.006031036377" lon="121.14228057861">
        <ele>10393.68</ele>
        <time>2026-06-16T01:47:18</time>
      </trkpt>
      <trkpt lat="42.990009307861" lon="121.11222839355">
        <ele>10393.68</ele>
        <time>2026-06-16T01:47:33</time>
      </trkpt>
      <trkpt lat="42.973754882812" lon="121.08191680908">
        <ele>10393.68</ele>
        <time>2026-06-16T01:47:48</time>
      </trkpt>
      <trkpt lat="42.957473754883" lon="121.05155181885">
        <ele>10393.68</ele>
        <time>2026-06-16T01:48:03</time>
      </trkpt>
      <trkpt lat="42.941761016846" lon="121.02213287354">
        <ele>10393.68</ele>
        <time>2026-06-16T01:48:18</time>
      </trkpt>
      <trkpt lat="42.925598144531" lon="120.9920501709">
        <ele>10393.68</ele>
        <time>2026-06-16T01:48:33</time>
      </trkpt>
      <trkpt lat="42.901840209961" lon="120.94777679443">
        <ele>10393.68</ele>
        <time>2026-06-16T01:48:58</time>
      </trkpt>
      <trkpt lat="42.88623046875" lon="120.91885375977">
        <ele>10393.68</ele>
        <time>2026-06-16T01:49:12</time>
      </trkpt>
      <trkpt lat="42.8610496521" lon="120.8723526001">
        <ele>10393.68</ele>
        <time>2026-06-16T01:49:32</time>
      </trkpt>
      <trkpt lat="42.844631195068" lon="120.84195709229">
        <ele>10393.68</ele>
        <time>2026-06-16T01:49:47</time>
      </trkpt>
      <trkpt lat="42.828941345215" lon="120.8129196167">
        <ele>10393.68</ele>
        <time>2026-06-16T01:50:02</time>
      </trkpt>
      <trkpt lat="42.806179046631" lon="120.77072143555">
        <ele>10393.68</ele>
        <time>2026-06-16T01:50:27</time>
      </trkpt>
      <trkpt lat="42.789920806885" lon="120.74080657959">
        <ele>10393.68</ele>
        <time>2026-06-16T01:50:42</time>
      </trkpt>
      <trkpt lat="42.773761749268" lon="120.71096801758">
        <ele>10393.68</ele>
        <time>2026-06-16T01:50:57</time>
      </trkpt>
      <trkpt lat="42.757690429688" lon="120.68138122559">
        <ele>10393.68</ele>
        <time>2026-06-16T01:51:12</time>
      </trkpt>
      <trkpt lat="42.741714477539" lon="120.65191650391">
        <ele>10393.68</ele>
        <time>2026-06-16T01:51:27</time>
      </trkpt>
      <trkpt lat="42.725051879883" lon="120.62133026123">
        <ele>10393.68</ele>
        <time>2026-06-16T01:51:42</time>
      </trkpt>
      <trkpt lat="42.708301544189" lon="120.59049224854">
        <ele>10393.68</ele>
        <time>2026-06-16T01:51:57</time>
      </trkpt>
      <trkpt lat="42.693061828613" lon="120.56262207031">
        <ele>10393.68</ele>
        <time>2026-06-16T01:52:12</time>
      </trkpt>
      <trkpt lat="42.675689697266" lon="120.53080749512">
        <ele>10393.68</ele>
        <time>2026-06-16T01:52:26</time>
      </trkpt>
      <trkpt lat="42.659271240234" lon="120.50067138672">
        <ele>10393.68</ele>
        <time>2026-06-16T01:52:41</time>
      </trkpt>
      <trkpt lat="42.642929077148" lon="120.47077178955">
        <ele>10393.68</ele>
        <time>2026-06-16T01:52:56</time>
      </trkpt>
      <trkpt lat="42.625415802002" lon="120.43883514404">
        <ele>10393.68</ele>
        <time>2026-06-16T01:53:10</time>
      </trkpt>
      <trkpt lat="42.609279632568" lon="120.40946960449">
        <ele>10393.68</ele>
        <time>2026-06-16T01:53:25</time>
      </trkpt>
      <trkpt lat="42.592739105225" lon="120.37931060791">
        <ele>10393.68</ele>
        <time>2026-06-16T01:53:40</time>
      </trkpt>
      <trkpt lat="42.576095581055" lon="120.34898376465">
        <ele>10393.68</ele>
        <time>2026-06-16T01:53:55</time>
      </trkpt>
      <trkpt lat="42.553207397461" lon="120.30722045898">
        <ele>10393.68</ele>
        <time>2026-06-16T01:54:20</time>
      </trkpt>
      <trkpt lat="42.536918640137" lon="120.27767944336">
        <ele>10393.68</ele>
        <time>2026-06-16T01:54:35</time>
      </trkpt>
      <trkpt lat="42.519790649414" lon="120.24663543701">
        <ele>10393.68</ele>
        <time>2026-06-16T01:54:50</time>
      </trkpt>
      <trkpt lat="42.502426147461" lon="120.21508789062">
        <ele>10393.68</ele>
        <time>2026-06-16T01:55:05</time>
      </trkpt>
      <trkpt lat="42.486087799072" lon="120.18557739258">
        <ele>10393.68</ele>
        <time>2026-06-16T01:55:20</time>
      </trkpt>
      <trkpt lat="42.469509124756" lon="120.15548706055">
        <ele>10393.68</ele>
        <time>2026-06-16T01:55:35</time>
      </trkpt>
      <trkpt lat="42.453601837158" lon="120.12676239014">
        <ele>10393.68</ele>
        <time>2026-06-16T01:55:50</time>
      </trkpt>
      <trkpt lat="42.437118530273" lon="120.09692382812">
        <ele>10393.68</ele>
        <time>2026-06-16T01:56:05</time>
      </trkpt>
      <trkpt lat="42.421005249023" lon="120.0677947998">
        <ele>10393.68</ele>
        <time>2026-06-16T01:56:20</time>
      </trkpt>
      <trkpt lat="42.404750823975" lon="120.03849029541">
        <ele>10393.68</ele>
        <time>2026-06-16T01:56:35</time>
      </trkpt>
      <trkpt lat="42.388000488281" lon="120.00821685791">
        <ele>10393.68</ele>
        <time>2026-06-16T01:56:50</time>
      </trkpt>
      <trkpt lat="42.371978759766" lon="119.97956848145">
        <ele>10393.68</ele>
        <time>2026-06-16T01:57:05</time>
      </trkpt>
      <trkpt lat="42.355506896973" lon="119.95000457764">
        <ele>10393.68</ele>
        <time>2026-06-16T01:57:20</time>
      </trkpt>
      <trkpt lat="42.338653564453" lon="119.91970062256">
        <ele>10393.68</ele>
        <time>2026-06-16T01:57:35</time>
      </trkpt>
      <trkpt lat="42.322410583496" lon="119.89060974121">
        <ele>10393.68</ele>
        <time>2026-06-16T01:57:50</time>
      </trkpt>
      <trkpt lat="42.306018829346" lon="119.86121368408">
        <ele>10393.68</ele>
        <time>2026-06-16T01:58:05</time>
      </trkpt>
      <trkpt lat="42.288757324219" lon="119.83031463623">
        <ele>10393.68</ele>
        <time>2026-06-16T01:58:20</time>
      </trkpt>
      <trkpt lat="42.272689819336" lon="119.80153656006">
        <ele>10393.68</ele>
        <time>2026-06-16T01:58:35</time>
      </trkpt>
      <trkpt lat="42.25606918335" lon="119.77179718018">
        <ele>10393.68</ele>
        <time>2026-06-16T01:58:50</time>
      </trkpt>
      <trkpt lat="42.239128112793" lon="119.74159240723">
        <ele>10393.68</ele>
        <time>2026-06-16T01:59:05</time>
      </trkpt>
      <trkpt lat="42.222366333008" lon="119.71169281006">
        <ele>10393.68</ele>
        <time>2026-06-16T01:59:20</time>
      </trkpt>
      <trkpt lat="42.20539855957" lon="119.6815032959">
        <ele>10393.68</ele>
        <time>2026-06-16T01:59:35</time>
      </trkpt>
      <trkpt lat="42.188991546631" lon="119.65229034424">
        <ele>10393.68</ele>
        <time>2026-06-16T01:59:50</time>
      </trkpt>
      <trkpt lat="42.171997070312" lon="119.6222076416">
        <ele>10393.68</ele>
        <time>2026-06-16T02:00:05</time>
      </trkpt>
      <trkpt lat="42.154815673828" lon="119.59173583984">
        <ele>10393.68</ele>
        <time>2026-06-16T02:00:20</time>
      </trkpt>
      <trkpt lat="42.138061523438" lon="119.56195831299">
        <ele>10393.68</ele>
        <time>2026-06-16T02:00:35</time>
      </trkpt>
      <trkpt lat="42.121440887451" lon="119.53246307373">
        <ele>10393.68</ele>
        <time>2026-06-16T02:00:50</time>
      </trkpt>
      <trkpt lat="42.104549407959" lon="119.50247192383">
        <ele>10393.68</ele>
        <time>2026-06-16T02:01:05</time>
      </trkpt>
      <trkpt lat="42.087387084961" lon="119.47200775146">
        <ele>10393.68</ele>
        <time>2026-06-16T02:01:20</time>
      </trkpt>
      <trkpt lat="42.070400238037" lon="119.44199371338">
        <ele>10393.68</ele>
        <time>2026-06-16T02:01:35</time>
      </trkpt>
      <trkpt lat="42.053508758545" lon="119.41220855713">
        <ele>10393.68</ele>
        <time>2026-06-16T02:01:50</time>
      </trkpt>
      <trkpt lat="42.03630065918" lon="119.38186645508">
        <ele>10393.68</ele>
        <time>2026-06-16T02:02:05</time>
      </trkpt>
      <trkpt lat="42.01936340332" lon="119.35209655762">
        <ele>10393.68</ele>
        <time>2026-06-16T02:02:20</time>
      </trkpt>
      <trkpt lat="42.002689361572" lon="119.32263946533">
        <ele>10393.68</ele>
        <time>2026-06-16T02:02:35</time>
      </trkpt>
      <trkpt lat="41.985488891602" lon="119.29241943359">
        <ele>10393.68</ele>
        <time>2026-06-16T02:02:50</time>
      </trkpt>
      <trkpt lat="41.968830108643" lon="119.26307678223">
        <ele>10393.68</ele>
        <time>2026-06-16T02:03:05</time>
      </trkpt>
      <trkpt lat="41.951759338379" lon="119.23308563232">
        <ele>10393.68</ele>
        <time>2026-06-16T02:03:20</time>
      </trkpt>
      <trkpt lat="41.934631347656" lon="119.20303344727">
        <ele>10393.68</ele>
        <time>2026-06-16T02:03:35</time>
      </trkpt>
      <trkpt lat="41.9176902771" lon="119.17331695557">
        <ele>10393.68</ele>
        <time>2026-06-16T02:03:50</time>
      </trkpt>
      <trkpt lat="41.900508880615" lon="119.14308929443">
        <ele>10393.68</ele>
        <time>2026-06-16T02:04:05</time>
      </trkpt>
      <trkpt lat="41.883911132812" lon="119.11408233643">
        <ele>10393.68</ele>
        <time>2026-06-16T02:04:20</time>
      </trkpt>
      <trkpt lat="41.867126464844" lon="119.08464050293">
        <ele>10393.68</ele>
        <time>2026-06-16T02:04:35</time>
      </trkpt>
      <trkpt lat="41.850276947021" lon="119.05513000488">
        <ele>10393.68</ele>
        <time>2026-06-16T02:04:50</time>
      </trkpt>
      <trkpt lat="41.833145141602" lon="119.02513122559">
        <ele>10393.68</ele>
        <time>2026-06-16T02:05:05</time>
      </trkpt>
      <trkpt lat="41.81615447998" lon="118.9955368042">
        <ele>10393.68</ele>
        <time>2026-06-16T02:05:20</time>
      </trkpt>
      <trkpt lat="41.798789978027" lon="118.96520233154">
        <ele>10393.68</ele>
        <time>2026-06-16T02:05:35</time>
      </trkpt>
      <trkpt lat="41.782028198242" lon="118.93588256836">
        <ele>10393.68</ele>
        <time>2026-06-16T02:05:50</time>
      </trkpt>
      <trkpt lat="41.764434814453" lon="118.90534210205">
        <ele>10393.68</ele>
        <time>2026-06-16T02:06:05</time>
      </trkpt>
      <trkpt lat="41.747817993164" lon="118.87637329102">
        <ele>10393.68</ele>
        <time>2026-06-16T02:06:20</time>
      </trkpt>
      <trkpt lat="41.730960845947" lon="118.84716033936">
        <ele>10393.68</ele>
        <time>2026-06-16T02:06:35</time>
      </trkpt>
      <trkpt lat="41.713550567627" lon="118.81694793701">
        <ele>10393.68</ele>
        <time>2026-06-16T02:06:50</time>
      </trkpt>
      <trkpt lat="41.696273803711" lon="118.78711700439">
        <ele>10393.68</ele>
        <time>2026-06-16T02:07:05</time>
      </trkpt>
      <trkpt lat="41.679378509521" lon="118.75789642334">
        <ele>10393.68</ele>
        <time>2026-06-16T02:07:20</time>
      </trkpt>
      <trkpt lat="41.661987304688" lon="118.7278137207">
        <ele>10393.68</ele>
        <time>2026-06-16T02:07:35</time>
      </trkpt>
      <trkpt lat="41.644729614258" lon="118.69791412354">
        <ele>10393.68</ele>
        <time>2026-06-16T02:07:50</time>
      </trkpt>
      <trkpt lat="41.627521514893" lon="118.66812133789">
        <ele>10393.68</ele>
        <time>2026-06-16T02:08:05</time>
      </trkpt>
      <trkpt lat="41.609985351562" lon="118.63773345947">
        <ele>10393.68</ele>
        <time>2026-06-16T02:08:20</time>
      </trkpt>
      <trkpt lat="41.593070983887" lon="118.60858917236">
        <ele>10393.68</ele>
        <time>2026-06-16T02:08:35</time>
      </trkpt>
      <trkpt lat="41.574737548828" lon="118.57706451416">
        <ele>10393.68</ele>
        <time>2026-06-16T02:08:50</time>
      </trkpt>
      <trkpt lat="41.557479858398" lon="118.54740905762">
        <ele>10393.68</ele>
        <time>2026-06-16T02:09:05</time>
      </trkpt>
      <trkpt lat="41.540542602539" lon="118.51832580566">
        <ele>10393.68</ele>
        <time>2026-06-16T02:09:20</time>
      </trkpt>
      <trkpt lat="41.522548675537" lon="118.48741912842">
        <ele>10393.68</ele>
        <time>2026-06-16T02:09:34</time>
      </trkpt>
      <trkpt lat="41.505554199219" lon="118.45816802979">
        <ele>10393.68</ele>
        <time>2026-06-16T02:09:48</time>
      </trkpt>
      <trkpt lat="41.489776611328" lon="118.42744445801">
        <ele>10393.68</ele>
        <time>2026-06-16T02:10:03</time>
      </trkpt>
      <trkpt lat="41.473709106445" lon="118.39228820801">
        <ele>10393.68</ele>
        <time>2026-06-16T02:10:23</time>
      </trkpt>
      <trkpt lat="41.4580078125" lon="118.35808563232">
        <ele>10393.68</ele>
        <time>2026-06-16T02:10:38</time>
      </trkpt>
      <trkpt lat="41.442428588867" lon="118.32415771484">
        <ele>10393.68</ele>
        <time>2026-06-16T02:10:53</time>
      </trkpt>
      <trkpt lat="41.426742553711" lon="118.29011535645">
        <ele>10393.68</ele>
        <time>2026-06-16T02:11:08</time>
      </trkpt>
      <trkpt lat="41.41194152832" lon="118.25798797607">
        <ele>10393.68</ele>
        <time>2026-06-16T02:11:23</time>
      </trkpt>
      <trkpt lat="41.397258758545" lon="118.22605895996">
        <ele>10393.68</ele>
        <time>2026-06-16T02:11:38</time>
      </trkpt>
      <trkpt lat="41.381839752197" lon="118.19262695312">
        <ele>10393.68</ele>
        <time>2026-06-16T02:11:53</time>
      </trkpt>
      <trkpt lat="41.36754989624" lon="118.16168212891">
        <ele>10393.68</ele>
        <time>2026-06-16T02:12:08</time>
      </trkpt>
      <trkpt lat="41.353240966797" lon="118.13062286377">
        <ele>10393.68</ele>
        <time>2026-06-16T02:12:23</time>
      </trkpt>
      <trkpt lat="41.33927154541" lon="118.10028076172">
        <ele>10393.68</ele>
        <time>2026-06-16T02:12:37</time>
      </trkpt>
      <trkpt lat="41.328369140625" lon="118.07672119141">
        <ele>10393.68</ele>
        <time>2026-06-16T02:12:50</time>
      </trkpt>
      <trkpt lat="41.315731048584" lon="118.04937744141">
        <ele>10393.68</ele>
        <time>2026-06-16T02:13:04</time>
      </trkpt>
      <trkpt lat="41.2998046875" lon="118.01501464844">
        <ele>10393.68</ele>
        <time>2026-06-16T02:13:19</time>
      </trkpt>
      <trkpt lat="41.285018920898" lon="117.98314666748">
        <ele>10393.68</ele>
        <time>2026-06-16T02:13:34</time>
      </trkpt>
      <trkpt lat="41.270141601562" lon="117.95111083984">
        <ele>10287.0</ele>
        <time>2026-06-16T02:13:49</time>
      </trkpt>
      <trkpt lat="41.251281738281" lon="117.91058349609">
        <ele>10081.26</ele>
        <time>2026-06-16T02:14:07</time>
      </trkpt>
      <trkpt lat="41.236904144287" lon="117.87967681885">
        <ele>9921.24</ele>
        <time>2026-06-16T02:14:22</time>
      </trkpt>
      <trkpt lat="41.22248840332" lon="117.84875488281">
        <ele>9768.84</ele>
        <time>2026-06-16T02:14:37</time>
      </trkpt>
      <trkpt lat="41.208087921143" lon="117.81781768799">
        <ele>9616.44</ele>
        <time>2026-06-16T02:14:52</time>
      </trkpt>
      <trkpt lat="41.193515777588" lon="117.78642272949">
        <ele>9464.04</ele>
        <time>2026-06-16T02:15:07</time>
      </trkpt>
      <trkpt lat="41.179550170898" lon="117.75646209717">
        <ele>9304.02</ele>
        <time>2026-06-16T02:15:21</time>
      </trkpt>
      <trkpt lat="41.164375305176" lon="117.72380828857">
        <ele>9144.0</ele>
        <time>2026-06-16T02:15:40</time>
      </trkpt>
      <trkpt lat="41.150161743164" lon="117.69342041016">
        <ele>8983.98</ele>
        <time>2026-06-16T02:15:55</time>
      </trkpt>
      <trkpt lat="41.136260986328" lon="117.66388702393">
        <ele>8831.58</ele>
        <time>2026-06-16T02:16:10</time>
      </trkpt>
      <trkpt lat="41.121967315674" lon="117.63361358643">
        <ele>8679.18</ele>
        <time>2026-06-16T02:16:25</time>
      </trkpt>
      <trkpt lat="41.10758972168" lon="117.60327148438">
        <ele>8526.78</ele>
        <time>2026-06-16T02:16:40</time>
      </trkpt>
      <trkpt lat="41.092987060547" lon="117.572265625">
        <ele>8374.38</ele>
        <time>2026-06-16T02:16:55</time>
      </trkpt>
      <trkpt lat="41.078475952148" lon="117.54150390625">
        <ele>8229.6</ele>
        <time>2026-06-16T02:17:10</time>
      </trkpt>
      <trkpt lat="41.063095092773" lon="117.50903320312">
        <ele>8069.58</ele>
        <time>2026-06-16T02:17:25</time>
      </trkpt>
      <trkpt lat="41.048458099365" lon="117.47873687744">
        <ele>7993.38</ele>
        <time>2026-06-16T02:17:40</time>
      </trkpt>
      <trkpt lat="41.029174804688" lon="117.45166015625">
        <ele>7917.18</ele>
        <time>2026-06-16T02:17:55</time>
      </trkpt>
      <trkpt lat="41.005397796631" lon="117.43142700195">
        <ele>7833.36</ele>
        <time>2026-06-16T02:18:10</time>
      </trkpt>
      <trkpt lat="40.979095458984" lon="117.41741943359">
        <ele>7795.26</ele>
        <time>2026-06-16T02:18:25</time>
      </trkpt>
      <trkpt lat="40.95288848877" lon="117.4040222168">
        <ele>7795.26</ele>
        <time>2026-06-16T02:18:40</time>
      </trkpt>
      <trkpt lat="40.926040649414" lon="117.39013671875">
        <ele>7802.88</ele>
        <time>2026-06-16T02:18:55</time>
      </trkpt>
      <trkpt lat="40.900188446045" lon="117.3766784668">
        <ele>7802.88</ele>
        <time>2026-06-16T02:19:10</time>
      </trkpt>
      <trkpt lat="40.878032684326" lon="117.36525726318">
        <ele>7802.88</ele>
        <time>2026-06-16T02:19:22</time>
      </trkpt>
      <trkpt lat="40.852844238281" lon="117.35235595703">
        <ele>7802.88</ele>
        <time>2026-06-16T02:19:37</time>
      </trkpt>
      <trkpt lat="40.826404571533" lon="117.33885192871">
        <ele>7802.88</ele>
        <time>2026-06-16T02:19:52</time>
      </trkpt>
      <trkpt lat="40.800849914551" lon="117.32586669922">
        <ele>7802.88</ele>
        <time>2026-06-16T02:20:07</time>
      </trkpt>
      <trkpt lat="40.775161743164" lon="117.31286621094">
        <ele>7802.88</ele>
        <time>2026-06-16T02:20:22</time>
      </trkpt>
      <trkpt lat="40.748710632324" lon="117.2995300293">
        <ele>7802.88</ele>
        <time>2026-06-16T02:20:37</time>
      </trkpt>
      <trkpt lat="40.722747802734" lon="117.28637695312">
        <ele>7802.88</ele>
        <time>2026-06-16T02:20:52</time>
      </trkpt>
      <trkpt lat="40.696426391602" lon="117.27313232422">
        <ele>7802.88</ele>
        <time>2026-06-16T02:21:07</time>
      </trkpt>
      <trkpt lat="40.668823242188" lon="117.26000976562">
        <ele>7802.88</ele>
        <time>2026-06-16T02:21:22</time>
      </trkpt>
      <trkpt lat="40.642059326172" lon="117.24758911133">
        <ele>7802.88</ele>
        <time>2026-06-16T02:21:37</time>
      </trkpt>
      <trkpt lat="40.615676879883" lon="117.2353515625">
        <ele>7802.88</ele>
        <time>2026-06-16T02:21:52</time>
      </trkpt>
      <trkpt lat="40.590480804443" lon="117.22362518311">
        <ele>7802.88</ele>
        <time>2026-06-16T02:22:07</time>
      </trkpt>
      <trkpt lat="40.5647315979" lon="117.21160888672">
        <ele>7802.88</ele>
        <time>2026-06-16T02:22:22</time>
      </trkpt>
      <trkpt lat="40.538681030273" lon="117.19940185547">
        <ele>7802.88</ele>
        <time>2026-06-16T02:22:37</time>
      </trkpt>
      <trkpt lat="40.513156890869" lon="117.18729400635">
        <ele>7802.88</ele>
        <time>2026-06-16T02:22:52</time>
      </trkpt>
      <trkpt lat="40.487598419189" lon="117.17517852783">
        <ele>7802.88</ele>
        <time>2026-06-16T02:23:07</time>
      </trkpt>
      <trkpt lat="40.461437225342" lon="117.16275787354">
        <ele>7802.88</ele>
        <time>2026-06-16T02:23:22</time>
      </trkpt>
      <trkpt lat="40.436782836914" lon="117.15118408203">
        <ele>7802.88</ele>
        <time>2026-06-16T02:23:37</time>
      </trkpt>
      <trkpt lat="40.412570953369" lon="117.13983154297">
        <ele>7802.88</ele>
        <time>2026-06-16T02:23:52</time>
      </trkpt>
      <trkpt lat="40.385974884033" lon="117.12730407715">
        <ele>7802.88</ele>
        <time>2026-06-16T02:24:07</time>
      </trkpt>
      <trkpt lat="40.360748291016" lon="117.11541748047">
        <ele>7802.88</ele>
        <time>2026-06-16T02:24:22</time>
      </trkpt>
      <trkpt lat="40.335620880127" lon="117.10363769531">
        <ele>7802.88</ele>
        <time>2026-06-16T02:24:37</time>
      </trkpt>
      <trkpt lat="40.310188293457" lon="117.09178924561">
        <ele>7802.88</ele>
        <time>2026-06-16T02:24:52</time>
      </trkpt>
      <trkpt lat="40.284862518311" lon="117.07992553711">
        <ele>7802.88</ele>
        <time>2026-06-16T02:25:07</time>
      </trkpt>
      <trkpt lat="40.259628295898" lon="117.06787109375">
        <ele>7802.88</ele>
        <time>2026-06-16T02:25:22</time>
      </trkpt>
      <trkpt lat="40.233810424805" lon="117.05572509766">
        <ele>7802.88</ele>
        <time>2026-06-16T02:25:37</time>
      </trkpt>
      <trkpt lat="40.208702087402" lon="117.04409790039">
        <ele>7802.88</ele>
        <time>2026-06-16T02:25:52</time>
      </trkpt>
      <trkpt lat="40.18327331543" lon="117.03228759766">
        <ele>7802.88</ele>
        <time>2026-06-16T02:26:07</time>
      </trkpt>
      <trkpt lat="40.158096313477" lon="117.02056884766">
        <ele>7802.88</ele>
        <time>2026-06-16T02:26:22</time>
      </trkpt>
      <trkpt lat="40.132553100586" lon="117.00866699219">
        <ele>7802.88</ele>
        <time>2026-06-16T02:26:37</time>
      </trkpt>
      <trkpt lat="40.10684967041" lon="116.99678039551">
        <ele>7802.88</ele>
        <time>2026-06-16T02:26:52</time>
      </trkpt>
      <trkpt lat="40.081466674805" lon="116.98504638672">
        <ele>7802.88</ele>
        <time>2026-06-16T02:27:07</time>
      </trkpt>
      <trkpt lat="40.055728912354" lon="116.97312164307">
        <ele>7802.88</ele>
        <time>2026-06-16T02:27:22</time>
      </trkpt>
      <trkpt lat="40.030521392822" lon="116.96143341064">
        <ele>7802.88</ele>
        <time>2026-06-16T02:27:37</time>
      </trkpt>
      <trkpt lat="40.004653930664" lon="116.94940185547">
        <ele>7802.88</ele>
        <time>2026-06-16T02:27:52</time>
      </trkpt>
      <trkpt lat="39.979339599609" lon="116.93768310547">
        <ele>7802.88</ele>
        <time>2026-06-16T02:28:07</time>
      </trkpt>
      <trkpt lat="39.952899932861" lon="116.9253692627">
        <ele>7802.88</ele>
        <time>2026-06-16T02:28:22</time>
      </trkpt>
      <trkpt lat="39.927337646484" lon="116.91351318359">
        <ele>7802.88</ele>
        <time>2026-06-16T02:28:37</time>
      </trkpt>
      <trkpt lat="39.901550292969" lon="116.90155029297">
        <ele>7802.88</ele>
        <time>2026-06-16T02:28:52</time>
      </trkpt>
      <trkpt lat="39.875343322754" lon="116.88940429688">
        <ele>7802.88</ele>
        <time>2026-06-16T02:29:07</time>
      </trkpt>
      <trkpt lat="39.849647521973" lon="116.87744140625">
        <ele>7802.88</ele>
        <time>2026-06-16T02:29:22</time>
      </trkpt>
      <trkpt lat="39.823879241943" lon="116.86557006836">
        <ele>7802.88</ele>
        <time>2026-06-16T02:29:37</time>
      </trkpt>
      <trkpt lat="39.797740936279" lon="116.85356903076">
        <ele>7802.88</ele>
        <time>2026-06-16T02:29:52</time>
      </trkpt>
      <trkpt lat="39.772136688232" lon="116.84167480469">
        <ele>7802.88</ele>
        <time>2026-06-16T02:30:07</time>
      </trkpt>
      <trkpt lat="39.74674987793" lon="116.82962799072">
        <ele>7802.88</ele>
        <time>2026-06-16T02:30:22</time>
      </trkpt>
      <trkpt lat="39.721580505371" lon="116.81768798828">
        <ele>7802.88</ele>
        <time>2026-06-16T02:30:37</time>
      </trkpt>
      <trkpt lat="39.695343017578" lon="116.80526733398">
        <ele>7802.88</ele>
        <time>2026-06-16T02:30:52</time>
      </trkpt>
      <trkpt lat="39.669338226318" lon="116.79309082031">
        <ele>7802.88</ele>
        <time>2026-06-16T02:31:07</time>
      </trkpt>
      <trkpt lat="39.644397735596" lon="116.78137207031">
        <ele>7802.88</ele>
        <time>2026-06-16T02:31:22</time>
      </trkpt>
      <trkpt lat="39.618576049805" lon="116.76926422119">
        <ele>7802.88</ele>
        <time>2026-06-16T02:31:37</time>
      </trkpt>
      <trkpt lat="39.592491149902" lon="116.75695800781">
        <ele>7802.88</ele>
        <time>2026-06-16T02:31:52</time>
      </trkpt>
      <trkpt lat="39.567489624023" lon="116.74530029297">
        <ele>7802.88</ele>
        <time>2026-06-16T02:32:07</time>
      </trkpt>
      <trkpt lat="39.540344238281" lon="116.73260498047">
        <ele>7802.88</ele>
        <time>2026-06-16T02:32:22</time>
      </trkpt>
      <trkpt lat="39.515670776367" lon="116.72096252441">
        <ele>7802.88</ele>
        <time>2026-06-16T02:32:37</time>
      </trkpt>
      <trkpt lat="39.48957824707" lon="116.70877838135">
        <ele>7802.88</ele>
        <time>2026-06-16T02:32:52</time>
      </trkpt>
      <trkpt lat="39.470058441162" lon="116.69965362549">
        <ele>7802.88</ele>
        <time>2026-06-16T02:33:06</time>
      </trkpt>
      <trkpt lat="39.444736480713" lon="116.68786621094">
        <ele>7802.88</ele>
        <time>2026-06-16T02:33:21</time>
      </trkpt>
      <trkpt lat="39.418949127197" lon="116.67581939697">
        <ele>7802.88</ele>
        <time>2026-06-16T02:33:36</time>
      </trkpt>
      <trkpt lat="39.393768310547" lon="116.6640625">
        <ele>7802.88</ele>
        <time>2026-06-16T02:33:51</time>
      </trkpt>
      <trkpt lat="39.367504119873" lon="116.65173339844">
        <ele>7802.88</ele>
        <time>2026-06-16T02:34:06</time>
      </trkpt>
      <trkpt lat="39.341480255127" lon="116.63958740234">
        <ele>7802.88</ele>
        <time>2026-06-16T02:34:21</time>
      </trkpt>
      <trkpt lat="39.315925598145" lon="116.62768554688">
        <ele>7802.88</ele>
        <time>2026-06-16T02:34:36</time>
      </trkpt>
      <trkpt lat="39.288646697998" lon="116.61505126953">
        <ele>7802.88</ele>
        <time>2026-06-16T02:34:51</time>
      </trkpt>
      <trkpt lat="39.263786315918" lon="116.60357666016">
        <ele>7802.88</ele>
        <time>2026-06-16T02:35:06</time>
      </trkpt>
      <trkpt lat="39.238040924072" lon="116.59156799316">
        <ele>7802.88</ele>
        <time>2026-06-16T02:35:21</time>
      </trkpt>
      <trkpt lat="39.212299346924" lon="116.57879638672">
        <ele>7802.88</ele>
        <time>2026-06-16T02:35:36</time>
      </trkpt>
      <trkpt lat="39.187675476074" lon="116.56292724609">
        <ele>7802.88</ele>
        <time>2026-06-16T02:35:51</time>
      </trkpt>
      <trkpt lat="39.164257049561" lon="116.54388427734">
        <ele>7802.88</ele>
        <time>2026-06-16T02:36:06</time>
      </trkpt>
      <trkpt lat="39.143169403076" lon="116.52501678467">
        <ele>7802.88</ele>
        <time>2026-06-16T02:36:21</time>
      </trkpt>
      <trkpt lat="39.120265960693" lon="116.50457763672">
        <ele>7802.88</ele>
        <time>2026-06-16T02:36:36</time>
      </trkpt>
      <trkpt lat="39.097969055176" lon="116.48461914062">
        <ele>7802.88</ele>
        <time>2026-06-16T02:36:51</time>
      </trkpt>
      <trkpt lat="39.075527191162" lon="116.46453857422">
        <ele>7802.88</ele>
        <time>2026-06-16T02:37:06</time>
      </trkpt>
      <trkpt lat="39.053276062012" lon="116.44458007812">
        <ele>7802.88</ele>
        <time>2026-06-16T02:37:21</time>
      </trkpt>
      <trkpt lat="39.03076171875" lon="116.42445373535">
        <ele>7802.88</ele>
        <time>2026-06-16T02:37:36</time>
      </trkpt>
      <trkpt lat="39.009098052979" lon="116.40509033203">
        <ele>7802.88</ele>
        <time>2026-06-16T02:37:51</time>
      </trkpt>
      <trkpt lat="38.985824584961" lon="116.38433837891">
        <ele>7802.88</ele>
        <time>2026-06-16T02:38:06</time>
      </trkpt>
      <trkpt lat="38.963973999023" lon="116.36486053467">
        <ele>7802.88</ele>
        <time>2026-06-16T02:38:21</time>
      </trkpt>
      <trkpt lat="38.94140625" lon="116.34479522705">
        <ele>7802.88</ele>
        <time>2026-06-16T02:38:36</time>
      </trkpt>
      <trkpt lat="38.919208526611" lon="116.32495117188">
        <ele>7802.88</ele>
        <time>2026-06-16T02:38:51</time>
      </trkpt>
      <trkpt lat="38.896179199219" lon="116.30442810059">
        <ele>7802.88</ele>
        <time>2026-06-16T02:39:06</time>
      </trkpt>
      <trkpt lat="38.874114990234" lon="116.28485107422">
        <ele>7802.88</ele>
        <time>2026-06-16T02:39:21</time>
      </trkpt>
      <trkpt lat="38.851707458496" lon="116.26495361328">
        <ele>7802.88</ele>
        <time>2026-06-16T02:39:36</time>
      </trkpt>
      <trkpt lat="38.828941345215" lon="116.24468994141">
        <ele>7802.88</ele>
        <time>2026-06-16T02:39:51</time>
      </trkpt>
      <trkpt lat="38.807155609131" lon="116.22546386719">
        <ele>7802.88</ele>
        <time>2026-06-16T02:40:06</time>
      </trkpt>
      <trkpt lat="38.784065246582" lon="116.20495605469">
        <ele>7802.88</ele>
        <time>2026-06-16T02:40:21</time>
      </trkpt>
      <trkpt lat="38.762046813965" lon="116.18542480469">
        <ele>7802.88</ele>
        <time>2026-06-16T02:40:36</time>
      </trkpt>
      <trkpt lat="38.739440917969" lon="116.16537475586">
        <ele>7802.88</ele>
        <time>2026-06-16T02:40:50</time>
      </trkpt>
      <trkpt lat="38.716461181641" lon="116.14507293701">
        <ele>7802.88</ele>
        <time>2026-06-16T02:41:05</time>
      </trkpt>
      <trkpt lat="38.694396972656" lon="116.12554931641">
        <ele>7802.88</ele>
        <time>2026-06-16T02:41:20</time>
      </trkpt>
      <trkpt lat="38.671691894531" lon="116.10601806641">
        <ele>7802.88</ele>
        <time>2026-06-16T02:41:35</time>
      </trkpt>
      <trkpt lat="38.645599365234" lon="116.08786773682">
        <ele>7802.88</ele>
        <time>2026-06-16T02:41:50</time>
      </trkpt>
      <trkpt lat="38.619827270508" lon="116.0740814209">
        <ele>7802.88</ele>
        <time>2026-06-16T02:42:05</time>
      </trkpt>
      <trkpt lat="38.593852996826" lon="116.0615234375">
        <ele>7802.88</ele>
        <time>2026-06-16T02:42:20</time>
      </trkpt>
      <trkpt lat="38.56819152832" lon="116.04917907715">
        <ele>7802.88</ele>
        <time>2026-06-16T02:42:35</time>
      </trkpt>
      <trkpt lat="38.541870117188" lon="116.03663635254">
        <ele>7802.88</ele>
        <time>2026-06-16T02:42:50</time>
      </trkpt>
      <trkpt lat="38.516021728516" lon="116.02429199219">
        <ele>7802.88</ele>
        <time>2026-06-16T02:43:05</time>
      </trkpt>
      <trkpt lat="38.490009307861" lon="116.01191711426">
        <ele>7741.92</ele>
        <time>2026-06-16T02:43:20</time>
      </trkpt>
      <trkpt lat="38.463500976562" lon="115.99938201904">
        <ele>7665.72</ele>
        <time>2026-06-16T02:43:35</time>
      </trkpt>
      <trkpt lat="38.437484741211" lon="115.98699951172">
        <ele>7581.9</ele>
        <time>2026-06-16T02:43:50</time>
      </trkpt>
      <trkpt lat="38.411182403564" lon="115.97448730469">
        <ele>7505.7</ele>
        <time>2026-06-16T02:44:05</time>
      </trkpt>
      <trkpt lat="38.385540008545" lon="115.96221160889">
        <ele>7421.88</ele>
        <time>2026-06-16T02:44:20</time>
      </trkpt>
      <trkpt lat="38.359790802002" lon="115.94995117188">
        <ele>7345.68</ele>
        <time>2026-06-16T02:44:35</time>
      </trkpt>
      <trkpt lat="38.333488464355" lon="115.93740844727">
        <ele>7269.48</ele>
        <time>2026-06-16T02:44:50</time>
      </trkpt>
      <trkpt lat="38.308300018311" lon="115.92552947998">
        <ele>7193.28</ele>
        <time>2026-06-16T02:45:05</time>
      </trkpt>
      <trkpt lat="38.281631469727" lon="115.91513824463">
        <ele>7117.08</ele>
        <time>2026-06-16T02:45:19</time>
      </trkpt>
      <trkpt lat="38.254211425781" lon="115.90879821777">
        <ele>7048.5</ele>
        <time>2026-06-16T02:45:34</time>
      </trkpt>
      <trkpt lat="38.226696014404" lon="115.90444946289">
        <ele>6964.68</ele>
        <time>2026-06-16T02:45:49</time>
      </trkpt>
      <trkpt lat="38.200061798096" lon="115.90026855469">
        <ele>6888.48</ele>
        <time>2026-06-16T02:46:04</time>
      </trkpt>
      <trkpt lat="38.173000335693" lon="115.89594268799">
        <ele>6812.28</ele>
        <time>2026-06-16T02:46:19</time>
      </trkpt>
      <trkpt lat="38.145927429199" lon="115.89173126221">
        <ele>6736.08</ele>
        <time>2026-06-16T02:46:34</time>
      </trkpt>
      <trkpt lat="38.118507385254" lon="115.88742828369">
        <ele>6659.88</ele>
        <time>2026-06-16T02:46:49</time>
      </trkpt>
      <trkpt lat="38.091415405273" lon="115.88313293457">
        <ele>6591.3</ele>
        <time>2026-06-16T02:47:04</time>
      </trkpt>
      <trkpt lat="38.064929962158" lon="115.87895202637">
        <ele>6515.1</ele>
        <time>2026-06-16T02:47:19</time>
      </trkpt>
      <trkpt lat="38.038345336914" lon="115.87477111816">
        <ele>6431.28</ele>
        <time>2026-06-16T02:47:34</time>
      </trkpt>
      <trkpt lat="38.0114402771" lon="115.87059020996">
        <ele>6362.7</ele>
        <time>2026-06-16T02:47:49</time>
      </trkpt>
      <trkpt lat="37.984680175781" lon="115.86643218994">
        <ele>6286.5</ele>
        <time>2026-06-16T02:48:04</time>
      </trkpt>
      <trkpt lat="37.958591461182" lon="115.86239624023">
        <ele>6210.3</ele>
        <time>2026-06-16T02:48:19</time>
      </trkpt>
      <trkpt lat="37.931488037109" lon="115.858253479">
        <ele>6134.1</ele>
        <time>2026-06-16T02:48:34</time>
      </trkpt>
      <trkpt lat="37.905391693115" lon="115.85417175293">
        <ele>6050.28</ele>
        <time>2026-06-16T02:48:49</time>
      </trkpt>
      <trkpt lat="37.879508972168" lon="115.85022735596">
        <ele>6004.56</ele>
        <time>2026-06-16T02:49:04</time>
      </trkpt>
      <trkpt lat="37.853988647461" lon="115.84615325928">
        <ele>5996.94</ele>
        <time>2026-06-16T02:49:19</time>
      </trkpt>
      <trkpt lat="37.827991485596" lon="115.84182739258">
        <ele>6004.56</ele>
        <time>2026-06-16T02:49:34</time>
      </trkpt>
      <trkpt lat="37.802280426025" lon="115.83751678467">
        <ele>6004.56</ele>
        <time>2026-06-16T02:49:49</time>
      </trkpt>
      <trkpt lat="37.777221679688" lon="115.83329772949">
        <ele>6004.56</ele>
        <time>2026-06-16T02:50:04</time>
      </trkpt>
      <trkpt lat="37.751159667969" lon="115.82891845703">
        <ele>6004.56</ele>
        <time>2026-06-16T02:50:19</time>
      </trkpt>
      <trkpt lat="37.725841522217" lon="115.8228302002">
        <ele>6004.56</ele>
        <time>2026-06-16T02:50:34</time>
      </trkpt>
      <trkpt lat="37.700588226318" lon="115.81272888184">
        <ele>6004.56</ele>
        <time>2026-06-16T02:50:49</time>
      </trkpt>
      <trkpt lat="37.677749633789" lon="115.8002166748">
        <ele>5974.08</ele>
        <time>2026-06-16T02:51:04</time>
      </trkpt>
      <trkpt lat="37.655082702637" lon="115.78736114502">
        <ele>5890.26</ele>
        <time>2026-06-16T02:51:19</time>
      </trkpt>
      <trkpt lat="37.631649017334" lon="115.77404022217">
        <ele>5814.06</ele>
        <time>2026-06-16T02:51:34</time>
      </trkpt>
      <trkpt lat="37.609268188477" lon="115.76132965088">
        <ele>5737.86</ele>
        <time>2026-06-16T02:51:49</time>
      </trkpt>
      <trkpt lat="37.586277008057" lon="115.74825286865">
        <ele>5654.04</ele>
        <time>2026-06-16T02:52:04</time>
      </trkpt>
      <trkpt lat="37.566699981689" lon="115.73710632324">
        <ele>5600.7</ele>
        <time>2026-06-16T02:52:19</time>
      </trkpt>
      <trkpt lat="37.544239044189" lon="115.72437286377">
        <ele>5516.88</ele>
        <time>2026-06-16T02:52:34</time>
      </trkpt>
      <trkpt lat="37.521381378174" lon="115.71141052246">
        <ele>5448.3</ele>
        <time>2026-06-16T02:52:49</time>
      </trkpt>
      <trkpt lat="37.499359130859" lon="115.69889068604">
        <ele>5364.48</ele>
        <time>2026-06-16T02:53:04</time>
      </trkpt>
      <trkpt lat="37.476104736328" lon="115.68556976318">
        <ele>5288.28</ele>
        <time>2026-06-16T02:53:19</time>
      </trkpt>
      <trkpt lat="37.453125" lon="115.67247772217">
        <ele>5212.08</ele>
        <time>2026-06-16T02:53:34</time>
      </trkpt>
      <trkpt lat="37.430511474609" lon="115.65957641602">
        <ele>5135.88</ele>
        <time>2026-06-16T02:53:49</time>
      </trkpt>
      <trkpt lat="37.407897949219" lon="115.64670562744">
        <ele>5059.68</ele>
        <time>2026-06-16T02:54:04</time>
      </trkpt>
      <trkpt lat="37.386100769043" lon="115.63355255127">
        <ele>4983.48</ele>
        <time>2026-06-16T02:54:19</time>
      </trkpt>
      <trkpt lat="37.363380432129" lon="115.61963653564">
        <ele>4907.28</ele>
        <time>2026-06-16T02:54:34</time>
      </trkpt>
      <trkpt lat="37.341644287109" lon="115.6064453125">
        <ele>4831.08</ele>
        <time>2026-06-16T02:54:49</time>
      </trkpt>
      <trkpt lat="37.319778442383" lon="115.59323883057">
        <ele>4754.88</ele>
        <time>2026-06-16T02:55:04</time>
      </trkpt>
      <trkpt lat="37.295516967773" lon="115.5786819458">
        <ele>4671.06</ele>
        <time>2026-06-16T02:55:19</time>
      </trkpt>
      <trkpt lat="37.273910522461" lon="115.56577301025">
        <ele>4602.48</ele>
        <time>2026-06-16T02:55:34</time>
      </trkpt>
      <trkpt lat="37.251300811768" lon="115.55226898193">
        <ele>4526.28</ele>
        <time>2026-06-16T02:55:49</time>
      </trkpt>
      <trkpt lat="37.227996826172" lon="115.53842163086">
        <ele>4511.04</ele>
        <time>2026-06-16T02:56:04</time>
      </trkpt>
      <trkpt lat="37.203060150146" lon="115.52350616455">
        <ele>4511.04</ele>
        <time>2026-06-16T02:56:24</time>
      </trkpt>
      <trkpt lat="37.179969787598" lon="115.50971984863">
        <ele>4511.04</ele>
        <time>2026-06-16T02:56:39</time>
      </trkpt>
      <trkpt lat="37.158599853516" lon="115.49698638916">
        <ele>4511.04</ele>
        <time>2026-06-16T02:56:54</time>
      </trkpt>
      <trkpt lat="37.13708114624" lon="115.48419189453">
        <ele>4511.04</ele>
        <time>2026-06-16T02:57:09</time>
      </trkpt>
      <trkpt lat="37.108249664307" lon="115.4670715332">
        <ele>4511.04</ele>
        <time>2026-06-16T02:57:29</time>
      </trkpt>
      <trkpt lat="37.08406829834" lon="115.45275115967">
        <ele>4511.04</ele>
        <time>2026-06-16T02:57:44</time>
      </trkpt>
      <trkpt lat="37.066799163818" lon="115.44248199463">
        <ele>4511.04</ele>
        <time>2026-06-16T02:57:59</time>
      </trkpt>
      <trkpt lat="37.044780731201" lon="115.42935180664">
        <ele>4511.04</ele>
        <time>2026-06-16T02:58:14</time>
      </trkpt>
      <trkpt lat="37.02364730835" lon="115.41663360596">
        <ele>4511.04</ele>
        <time>2026-06-16T02:58:29</time>
      </trkpt>
      <trkpt lat="36.986621856689" lon="115.39443206787">
        <ele>4511.04</ele>
        <time>2026-06-16T02:58:54</time>
      </trkpt>
      <trkpt lat="36.964939117432" lon="115.38163757324">
        <ele>4511.04</ele>
        <time>2026-06-16T02:59:09</time>
      </trkpt>
      <trkpt lat="36.942268371582" lon="115.36630249023">
        <ele>4511.04</ele>
        <time>2026-06-16T02:59:24</time>
      </trkpt>
      <trkpt lat="36.925598144531" lon="115.3427734375">
        <ele>4511.04</ele>
        <time>2026-06-16T02:59:39</time>
      </trkpt>
      <trkpt lat="36.917091369629" lon="115.31465148926">
        <ele>4511.04</ele>
        <time>2026-06-16T02:59:54</time>
      </trkpt>
      <trkpt lat="36.914840698242" lon="115.28574371338">
        <ele>4511.04</ele>
        <time>2026-06-16T03:00:09</time>
      </trkpt>
      <trkpt lat="36.912853240967" lon="115.25828552246">
        <ele>4511.04</ele>
        <time>2026-06-16T03:00:24</time>
      </trkpt>
      <trkpt lat="36.910720825195" lon="115.22882080078">
        <ele>4511.04</ele>
        <time>2026-06-16T03:00:39</time>
      </trkpt>
      <trkpt lat="36.908477783203" lon="115.1964263916">
        <ele>4511.04</ele>
        <time>2026-06-16T03:00:59</time>
      </trkpt>
      <trkpt lat="36.90645980835" lon="115.16680908203">
        <ele>4396.74</ele>
        <time>2026-06-16T03:01:14</time>
      </trkpt>
      <trkpt lat="36.904571533203" lon="115.1383895874">
        <ele>4259.58</ele>
        <time>2026-06-16T03:01:29</time>
      </trkpt>
      <trkpt lat="36.902286529541" lon="115.10471343994">
        <ele>4160.52</ele>
        <time>2026-06-16T03:01:49</time>
      </trkpt>
      <trkpt lat="36.900329589844" lon="115.07640838623">
        <ele>4114.8</ele>
        <time>2026-06-16T03:02:04</time>
      </trkpt>
      <trkpt lat="36.898540496826" lon="115.05046081543">
        <ele>4038.6</ele>
        <time>2026-06-16T03:02:19</time>
      </trkpt>
      <trkpt lat="36.896751403809" lon="115.02423095703">
        <ele>3947.16</ele>
        <time>2026-06-16T03:02:34</time>
      </trkpt>
      <trkpt lat="36.893810272217" lon="114.98194885254">
        <ele>3756.66</ele>
        <time>2026-06-16T03:02:58</time>
      </trkpt>
      <trkpt lat="36.891719818115" lon="114.95210266113">
        <ele>3627.12</ele>
        <time>2026-06-16T03:03:13</time>
      </trkpt>
      <trkpt lat="36.889938354492" lon="114.92727661133">
        <ele>3505.2</ele>
        <time>2026-06-16T03:03:28</time>
      </trkpt>
      <trkpt lat="36.888179779053" lon="114.90171051025">
        <ele>3398.52</ele>
        <time>2026-06-16T03:03:43</time>
      </trkpt>
      <trkpt lat="36.88655090332" lon="114.87663269043">
        <ele>3284.22</ele>
        <time>2026-06-16T03:03:58</time>
      </trkpt>
      <trkpt lat="36.884857177734" lon="114.85131072998">
        <ele>3177.54</ele>
        <time>2026-06-16T03:04:13</time>
      </trkpt>
      <trkpt lat="36.882965087891" lon="114.82331085205">
        <ele>3063.24</ele>
        <time>2026-06-16T03:04:33</time>
      </trkpt>
      <trkpt lat="36.881149291992" lon="114.79783630371">
        <ele>2956.56</ele>
        <time>2026-06-16T03:04:48</time>
      </trkpt>
      <trkpt lat="36.879360198975" lon="114.77242279053">
        <ele>2849.88</ele>
        <time>2026-06-16T03:05:03</time>
      </trkpt>
      <trkpt lat="36.877716064453" lon="114.7491607666">
        <ele>2819.4</ele>
        <time>2026-06-16T03:05:18</time>
      </trkpt>
      <trkpt lat="36.875560760498" lon="114.71865081787">
        <ele>2811.78</ele>
        <time>2026-06-16T03:05:38</time>
      </trkpt>
      <trkpt lat="36.873600006104" lon="114.68932342529">
        <ele>2766.06</ele>
        <time>2026-06-16T03:05:58</time>
      </trkpt>
      <trkpt lat="36.872310638428" lon="114.66854858398">
        <ele>2720.34</ele>
        <time>2026-06-16T03:06:13</time>
      </trkpt>
      <trkpt lat="36.870666503906" lon="114.64688873291">
        <ele>2667.0</ele>
        <time>2026-06-16T03:06:27</time>
      </trkpt>
      <trkpt lat="36.869293212891" lon="114.62842559814">
        <ele>2613.66</ele>
        <time>2026-06-16T03:06:42</time>
      </trkpt>
      <trkpt lat="36.867977142334" lon="114.61087036133">
        <ele>2552.7</ele>
        <time>2026-06-16T03:06:57</time>
      </trkpt>
      <trkpt lat="36.866905212402" lon="114.59677886963">
        <ele>2484.12</ele>
        <time>2026-06-16T03:07:12</time>
      </trkpt>
      <trkpt lat="36.865600585938" lon="114.57885742188">
        <ele>2392.68</ele>
        <time>2026-06-16T03:07:27</time>
      </trkpt>
      <trkpt lat="36.864440917969" lon="114.56192016602">
        <ele>2308.86</ele>
        <time>2026-06-16T03:07:42</time>
      </trkpt>
      <trkpt lat="36.863227844238" lon="114.54500579834">
        <ele>2232.66</ele>
        <time>2026-06-16T03:07:57</time>
      </trkpt>
      <trkpt lat="36.862251281738" lon="114.53056335449">
        <ele>2156.46</ele>
        <time>2026-06-16T03:08:12</time>
      </trkpt>
      <trkpt lat="36.86100769043" lon="114.51113891602">
        <ele>2065.02</ele>
        <time>2026-06-16T03:08:26</time>
      </trkpt>
      <trkpt lat="36.859920501709" lon="114.49311828613">
        <ele>1988.82</ele>
        <time>2026-06-16T03:08:41</time>
      </trkpt>
      <trkpt lat="36.859272003174" lon="114.48034667969">
        <ele>1935.48</ele>
        <time>2026-06-16T03:08:55</time>
      </trkpt>
      <trkpt lat="36.861511230469" lon="114.46105957031">
        <ele>1859.28</ele>
        <time>2026-06-16T03:09:10</time>
      </trkpt>
      <trkpt lat="36.87186050415" lon="114.44790649414">
        <ele>1775.46</ele>
        <time>2026-06-16T03:09:25</time>
      </trkpt>
      <trkpt lat="36.887100219727" lon="114.44381713867">
        <ele>1691.64</ele>
        <time>2026-06-16T03:09:41</time>
      </trkpt>
      <trkpt lat="36.899642944336" lon="114.44352722168">
        <ele>1630.68</ele>
        <time>2026-06-16T03:09:54</time>
      </trkpt>
      <trkpt lat="36.91117477417" lon="114.44326782227">
        <ele>1569.72</ele>
        <time>2026-06-16T03:10:09</time>
      </trkpt>
      <trkpt lat="36.933567047119" lon="114.44213104248">
        <ele>1447.8</ele>
        <time>2026-06-16T03:10:33</time>
      </trkpt>
      <trkpt lat="36.947860717773" lon="114.44153594971">
        <ele>1371.6</ele>
        <time>2026-06-16T03:10:48</time>
      </trkpt>
    </trkseg>
  </trk>
</gpx>