<?xml version="1.0" encoding="UTF-8"?>
<gpx xmlns="http://www.topografix.com/GPX/1/1" xmlns:xsi="http://www.w3.org/2001/XMLSchema-instance" xsi:schemaLocation="http://www.topografix.com/GPX/1/1 http://www.topografix.com/GPX/1/1/gpx.xsd" version="1.1" creator="gpx.py -- https://github.com/tkrajina/gpxpy">
  <trk>
    <name>Variflight_HU7605_20260713.csv</name>
    <trkseg>
      <trkpt lat="40.213031768799" lon="116.57555389404">
        <ele>1737.36</ele>
        <time>2026-07-13T07:56:32</time>
      </trkpt>
      <trkpt lat="40.226108551025" lon="116.57348632812">
        <ele>1889.76</ele>
        <time>2026-07-13T07:56:47</time>
      </trkpt>
      <trkpt lat="40.240451812744" lon="116.57068634033">
        <ele>1996.44</ele>
        <time>2026-07-13T07:57:02</time>
      </trkpt>
      <trkpt lat="40.2546043396" lon="116.5631942749">
        <ele>2087.88</ele>
        <time>2026-07-13T07:57:17</time>
      </trkpt>
      <trkpt lat="40.264568328857" lon="116.55341339111">
        <ele>2156.46</ele>
        <time>2026-07-13T07:57:32</time>
      </trkpt>
      <trkpt lat="40.276996612549" lon="116.53866577148">
        <ele>2308.86</ele>
        <time>2026-07-13T07:57:47</time>
      </trkpt>
      <trkpt lat="40.290496826172" lon="116.52305603027">
        <ele>2484.12</ele>
        <time>2026-07-13T07:58:02</time>
      </trkpt>
      <trkpt lat="40.303764343262" lon="116.50720214844">
        <ele>2674.62</ele>
        <time>2026-07-13T07:58:17</time>
      </trkpt>
      <trkpt lat="40.313228607178" lon="116.48760986328">
        <ele>2857.5</ele>
        <time>2026-07-13T07:58:32</time>
      </trkpt>
      <trkpt lat="40.316799163818" lon="116.46269226074">
        <ele>3002.28</ele>
        <time>2026-07-13T07:58:47</time>
      </trkpt>
      <trkpt lat="40.316757202148" lon="116.43768310547">
        <ele>3154.68</ele>
        <time>2026-07-13T07:59:02</time>
      </trkpt>
      <trkpt lat="40.316799163818" lon="116.41207122803">
        <ele>3329.94</ele>
        <time>2026-07-13T07:59:17</time>
      </trkpt>
      <trkpt lat="40.316711425781" lon="116.38598632812">
        <ele>3497.58</ele>
        <time>2026-07-13T07:59:32</time>
      </trkpt>
      <trkpt lat="40.316703796387" lon="116.35994720459">
        <ele>3649.98</ele>
        <time>2026-07-13T07:59:47</time>
      </trkpt>
      <trkpt lat="40.316570281982" lon="116.33367156982">
        <ele>3741.42</ele>
        <time>2026-07-13T08:00:02</time>
      </trkpt>
      <trkpt lat="40.316436767578" lon="116.30523681641">
        <ele>3916.68</ele>
        <time>2026-07-13T08:00:17</time>
      </trkpt>
      <trkpt lat="40.315612792969" lon="116.27612304688">
        <ele>4114.8</ele>
        <time>2026-07-13T08:00:32</time>
      </trkpt>
      <trkpt lat="40.309860229492" lon="116.2501449585">
        <ele>4312.92</ele>
        <time>2026-07-13T08:00:47</time>
      </trkpt>
      <trkpt lat="40.298446655273" lon="116.22521972656">
        <ele>4465.32</ele>
        <time>2026-07-13T08:01:02</time>
      </trkpt>
      <trkpt lat="40.281280517578" lon="116.2045135498">
        <ele>4572.0</ele>
        <time>2026-07-13T08:01:17</time>
      </trkpt>
      <trkpt lat="40.260517120361" lon="116.18965911865">
        <ele>4655.82</ele>
        <time>2026-07-13T08:01:32</time>
      </trkpt>
      <trkpt lat="40.238571166992" lon="116.17474365234">
        <ele>4739.64</ele>
        <time>2026-07-13T08:01:47</time>
      </trkpt>
      <trkpt lat="40.215827941895" lon="116.159324646">
        <ele>4815.84</ele>
        <time>2026-07-13T08:02:02</time>
      </trkpt>
      <trkpt lat="40.192317962646" lon="116.14340209961">
        <ele>4930.14</ele>
        <time>2026-07-13T08:02:17</time>
      </trkpt>
      <trkpt lat="40.168670654297" lon="116.12731933594">
        <ele>5082.54</ele>
        <time>2026-07-13T08:02:32</time>
      </trkpt>
      <trkpt lat="40.143810272217" lon="116.11050415039">
        <ele>5234.94</ele>
        <time>2026-07-13T08:02:47</time>
      </trkpt>
      <trkpt lat="40.120254516602" lon="116.09439849854">
        <ele>5394.96</ele>
        <time>2026-07-13T08:03:02</time>
      </trkpt>
      <trkpt lat="40.095302581787" lon="116.07736206055">
        <ele>5554.98</ele>
        <time>2026-07-13T08:03:17</time>
      </trkpt>
      <trkpt lat="40.070491790771" lon="116.06037902832">
        <ele>5715.0</ele>
        <time>2026-07-13T08:03:32</time>
      </trkpt>
      <trkpt lat="40.045715332031" lon="116.04547119141">
        <ele>5852.16</ele>
        <time>2026-07-13T08:03:47</time>
      </trkpt>
      <trkpt lat="40.01868057251" lon="116.03959655762">
        <ele>5966.46</ele>
        <time>2026-07-13T08:04:02</time>
      </trkpt>
      <trkpt lat="39.989044189453" lon="116.04455566406">
        <ele>6012.18</ele>
        <time>2026-07-13T08:04:17</time>
      </trkpt>
      <trkpt lat="39.961578369141" lon="116.05725097656">
        <ele>6004.56</ele>
        <time>2026-07-13T08:04:32</time>
      </trkpt>
      <trkpt lat="39.933837890625" lon="116.07080078125">
        <ele>5996.94</ele>
        <time>2026-07-13T08:04:47</time>
      </trkpt>
      <trkpt lat="39.905776977539" lon="116.08470916748">
        <ele>5996.94</ele>
        <time>2026-07-13T08:05:02</time>
      </trkpt>
      <trkpt lat="39.878082275391" lon="116.09844207764">
        <ele>6004.56</ele>
        <time>2026-07-13T08:05:17</time>
      </trkpt>
      <trkpt lat="39.850891113281" lon="116.11127471924">
        <ele>6118.86</ele>
        <time>2026-07-13T08:05:32</time>
      </trkpt>
      <trkpt lat="39.822555541992" lon="116.12459564209">
        <ele>6294.12</ele>
        <time>2026-07-13T08:05:47</time>
      </trkpt>
      <trkpt lat="39.794620513916" lon="116.13745117188">
        <ele>6431.28</ele>
        <time>2026-07-13T08:06:01</time>
      </trkpt>
      <trkpt lat="39.765380859375" lon="116.1508026123">
        <ele>6576.06</ele>
        <time>2026-07-13T08:06:16</time>
      </trkpt>
      <trkpt lat="39.736709594727" lon="116.16387939453">
        <ele>6713.22</ele>
        <time>2026-07-13T08:06:30</time>
      </trkpt>
      <trkpt lat="39.708984375" lon="116.17659759521">
        <ele>6812.28</ele>
        <time>2026-07-13T08:06:44</time>
      </trkpt>
      <trkpt lat="39.679779052734" lon="116.19006347656">
        <ele>6934.2</ele>
        <time>2026-07-13T08:06:59</time>
      </trkpt>
      <trkpt lat="39.64892578125" lon="116.20442199707">
        <ele>7071.36</ele>
        <time>2026-07-13T08:07:14</time>
      </trkpt>
      <trkpt lat="39.619819641113" lon="116.21789550781">
        <ele>7193.28</ele>
        <time>2026-07-13T08:07:29</time>
      </trkpt>
      <trkpt lat="39.590538024902" lon="116.2314453125">
        <ele>7345.68</ele>
        <time>2026-07-13T08:07:44</time>
      </trkpt>
      <trkpt lat="39.561069488525" lon="116.24505615234">
        <ele>7452.36</ele>
        <time>2026-07-13T08:07:59</time>
      </trkpt>
      <trkpt lat="39.529415130615" lon="116.25970458984">
        <ele>7574.28</ele>
        <time>2026-07-13T08:08:18</time>
      </trkpt>
      <trkpt lat="39.499526977539" lon="116.27355957031">
        <ele>7658.1</ele>
        <time>2026-07-13T08:08:33</time>
      </trkpt>
      <trkpt lat="39.468612670898" lon="116.28777313232">
        <ele>7741.92</ele>
        <time>2026-07-13T08:08:48</time>
      </trkpt>
      <trkpt lat="39.438446044922" lon="116.30168914795">
        <ele>7840.98</ele>
        <time>2026-07-13T08:09:03</time>
      </trkpt>
      <trkpt lat="39.403770446777" lon="116.31762695312">
        <ele>7970.52</ele>
        <time>2026-07-13T08:09:18</time>
      </trkpt>
      <trkpt lat="39.370296478271" lon="116.3330078125">
        <ele>8084.82</ele>
        <time>2026-07-13T08:09:33</time>
      </trkpt>
      <trkpt lat="39.339797973633" lon="116.34706878662">
        <ele>8199.12</ele>
        <time>2026-07-13T08:09:48</time>
      </trkpt>
      <trkpt lat="39.315879821777" lon="116.35809326172">
        <ele>8275.32</ele>
        <time>2026-07-13T08:10:02</time>
      </trkpt>
      <trkpt lat="39.284782409668" lon="116.37237548828">
        <ele>8351.52</ele>
        <time>2026-07-13T08:10:17</time>
      </trkpt>
      <trkpt lat="39.244514465332" lon="116.39074707031">
        <ele>8450.58</ele>
        <time>2026-07-13T08:10:33</time>
      </trkpt>
      <trkpt lat="39.210018157959" lon="116.40649414062">
        <ele>8534.4</ele>
        <time>2026-07-13T08:10:52</time>
      </trkpt>
      <trkpt lat="39.176467895508" lon="116.42182159424">
        <ele>8618.22</ele>
        <time>2026-07-13T08:11:06</time>
      </trkpt>
      <trkpt lat="39.144660949707" lon="116.43627929688">
        <ele>8694.42</ele>
        <time>2026-07-13T08:11:20</time>
      </trkpt>
      <trkpt lat="39.120986938477" lon="116.44713592529">
        <ele>8740.14</ele>
        <time>2026-07-13T08:11:33</time>
      </trkpt>
      <trkpt lat="39.085418701172" lon="116.46337890625">
        <ele>8808.72</ele>
        <time>2026-07-13T08:11:48</time>
      </trkpt>
      <trkpt lat="39.050216674805" lon="116.47943878174">
        <ele>8869.68</ele>
        <time>2026-07-13T08:12:08</time>
      </trkpt>
      <trkpt lat="38.999649047852" lon="116.50238037109">
        <ele>8869.68</ele>
        <time>2026-07-13T08:12:28</time>
      </trkpt>
      <trkpt lat="38.962646484375" lon="116.51920318604">
        <ele>8862.06</ele>
        <time>2026-07-13T08:12:47</time>
      </trkpt>
      <trkpt lat="38.914596557617" lon="116.541015625">
        <ele>8862.06</ele>
        <time>2026-07-13T08:13:06</time>
      </trkpt>
      <trkpt lat="38.880199432373" lon="116.55657958984">
        <ele>8862.06</ele>
        <time>2026-07-13T08:13:25</time>
      </trkpt>
      <trkpt lat="38.847190856934" lon="116.57147216797">
        <ele>8869.68</ele>
        <time>2026-07-13T08:13:39</time>
      </trkpt>
      <trkpt lat="38.813579559326" lon="116.58666992188">
        <ele>8862.06</ele>
        <time>2026-07-13T08:13:54</time>
      </trkpt>
      <trkpt lat="38.779769897461" lon="116.60189819336">
        <ele>8961.12</ele>
        <time>2026-07-13T08:14:08</time>
      </trkpt>
      <trkpt lat="38.754043579102" lon="116.61348724365">
        <ele>9037.32</ele>
        <time>2026-07-13T08:14:22</time>
      </trkpt>
      <trkpt lat="38.720718383789" lon="116.62847137451">
        <ele>9128.76</ele>
        <time>2026-07-13T08:14:37</time>
      </trkpt>
      <trkpt lat="38.686065673828" lon="116.64405822754">
        <ele>9281.16</ele>
        <time>2026-07-13T08:14:52</time>
      </trkpt>
      <trkpt lat="38.654838562012" lon="116.6572265625">
        <ele>9464.04</ele>
        <time>2026-07-13T08:15:06</time>
      </trkpt>
      <trkpt lat="38.621246337891" lon="116.67008972168">
        <ele>9593.58</ele>
        <time>2026-07-13T08:15:21</time>
      </trkpt>
      <trkpt lat="38.585151672363" lon="116.68218994141">
        <ele>9723.12</ele>
        <time>2026-07-13T08:15:36</time>
      </trkpt>
      <trkpt lat="38.549926757812" lon="116.6930770874">
        <ele>9883.14</ele>
        <time>2026-07-13T08:15:55</time>
      </trkpt>
      <trkpt lat="38.515785217285" lon="116.70373535156">
        <ele>10058.4</ele>
        <time>2026-07-13T08:16:10</time>
      </trkpt>
      <trkpt lat="38.481029510498" lon="116.7145690918">
        <ele>10226.04</ele>
        <time>2026-07-13T08:16:24</time>
      </trkpt>
      <trkpt lat="38.447570800781" lon="116.72483825684">
        <ele>10393.68</ele>
        <time>2026-07-13T08:16:39</time>
      </trkpt>
      <trkpt lat="38.413421630859" lon="116.73547363281">
        <ele>10576.56</ele>
        <time>2026-07-13T08:16:58</time>
      </trkpt>
      <trkpt lat="38.369518280029" lon="116.74907684326">
        <ele>10690.86</ele>
        <time>2026-07-13T08:17:20</time>
      </trkpt>
      <trkpt lat="38.335010528564" lon="116.75977325439">
        <ele>10698.48</ele>
        <time>2026-07-13T08:17:34</time>
      </trkpt>
      <trkpt lat="38.302959442139" lon="116.76965332031">
        <ele>10698.48</ele>
        <time>2026-07-13T08:17:49</time>
      </trkpt>
      <trkpt lat="38.262680053711" lon="116.78210449219">
        <ele>10698.48</ele>
        <time>2026-07-13T08:18:08</time>
      </trkpt>
      <trkpt lat="38.230606079102" lon="116.79201507568">
        <ele>10690.86</ele>
        <time>2026-07-13T08:18:23</time>
      </trkpt>
      <trkpt lat="38.198532104492" lon="116.80198669434">
        <ele>10690.86</ele>
        <time>2026-07-13T08:18:37</time>
      </trkpt>
      <trkpt lat="38.166877746582" lon="116.81177520752">
        <ele>10690.86</ele>
        <time>2026-07-13T08:18:52</time>
      </trkpt>
      <trkpt lat="38.134384155273" lon="116.82186889648">
        <ele>10690.86</ele>
        <time>2026-07-13T08:19:06</time>
      </trkpt>
      <trkpt lat="38.101425170898" lon="116.83201599121">
        <ele>10690.86</ele>
        <time>2026-07-13T08:19:20</time>
      </trkpt>
      <trkpt lat="38.07600402832" lon="116.83988952637">
        <ele>10690.86</ele>
        <time>2026-07-13T08:19:34</time>
      </trkpt>
      <trkpt lat="38.042720794678" lon="116.85010528564">
        <ele>10698.48</ele>
        <time>2026-07-13T08:19:49</time>
      </trkpt>
      <trkpt lat="38.010223388672" lon="116.85999298096">
        <ele>10698.48</ele>
        <time>2026-07-13T08:20:04</time>
      </trkpt>
      <trkpt lat="37.972473144531" lon="116.87160491943">
        <ele>10690.86</ele>
        <time>2026-07-13T08:20:21</time>
      </trkpt>
      <trkpt lat="37.945220947266" lon="116.87998199463">
        <ele>10690.86</ele>
        <time>2026-07-13T08:20:35</time>
      </trkpt>
      <trkpt lat="37.913772583008" lon="116.88962554932">
        <ele>10698.48</ele>
        <time>2026-07-13T08:20:50</time>
      </trkpt>
      <trkpt lat="37.880771636963" lon="116.89967346191">
        <ele>10690.86</ele>
        <time>2026-07-13T08:21:05</time>
      </trkpt>
      <trkpt lat="37.848129272461" lon="116.90966796875">
        <ele>10698.48</ele>
        <time>2026-07-13T08:21:20</time>
      </trkpt>
      <trkpt lat="37.814098358154" lon="116.92008972168">
        <ele>10698.48</ele>
        <time>2026-07-13T08:21:34</time>
      </trkpt>
      <trkpt lat="37.778583526611" lon="116.93089294434">
        <ele>10690.86</ele>
        <time>2026-07-13T08:21:49</time>
      </trkpt>
      <trkpt lat="37.743209838867" lon="116.9416885376">
        <ele>10698.48</ele>
        <time>2026-07-13T08:22:04</time>
      </trkpt>
      <trkpt lat="37.719696044922" lon="116.94886779785">
        <ele>10690.86</ele>
        <time>2026-07-13T08:22:16</time>
      </trkpt>
      <trkpt lat="37.686401367188" lon="116.95899200439">
        <ele>10690.86</ele>
        <time>2026-07-13T08:22:31</time>
      </trkpt>
      <trkpt lat="37.652614593506" lon="116.96928405762">
        <ele>10698.48</ele>
        <time>2026-07-13T08:22:46</time>
      </trkpt>
      <trkpt lat="37.617870330811" lon="116.97985076904">
        <ele>10698.48</ele>
        <time>2026-07-13T08:23:01</time>
      </trkpt>
      <trkpt lat="37.591117858887" lon="116.98797607422">
        <ele>10698.48</ele>
        <time>2026-07-13T08:23:14</time>
      </trkpt>
      <trkpt lat="37.555690765381" lon="116.99871826172">
        <ele>10698.48</ele>
        <time>2026-07-13T08:23:33</time>
      </trkpt>
      <trkpt lat="37.520050048828" lon="117.00953674316">
        <ele>10690.86</ele>
        <time>2026-07-13T08:23:48</time>
      </trkpt>
      <trkpt lat="37.486358642578" lon="117.01970672607">
        <ele>10698.48</ele>
        <time>2026-07-13T08:24:02</time>
      </trkpt>
      <trkpt lat="37.451202392578" lon="117.03034210205">
        <ele>10698.48</ele>
        <time>2026-07-13T08:24:16</time>
      </trkpt>
      <trkpt lat="37.426044464111" lon="117.0379486084">
        <ele>10698.48</ele>
        <time>2026-07-13T08:24:30</time>
      </trkpt>
      <trkpt lat="37.393085479736" lon="117.04792022705">
        <ele>10698.48</ele>
        <time>2026-07-13T08:24:43</time>
      </trkpt>
      <trkpt lat="37.359375" lon="117.05809783936">
        <ele>10698.48</ele>
        <time>2026-07-13T08:24:58</time>
      </trkpt>
      <trkpt lat="37.327239990234" lon="117.0678024292">
        <ele>10690.86</ele>
        <time>2026-07-13T08:25:13</time>
      </trkpt>
      <trkpt lat="37.292907714844" lon="117.07820129395">
        <ele>10698.48</ele>
        <time>2026-07-13T08:25:27</time>
      </trkpt>
      <trkpt lat="37.257526397705" lon="117.08882141113">
        <ele>10690.86</ele>
        <time>2026-07-13T08:25:46</time>
      </trkpt>
      <trkpt lat="37.2216796875" lon="117.09953308105">
        <ele>10698.48</ele>
        <time>2026-07-13T08:26:01</time>
      </trkpt>
      <trkpt lat="37.185928344727" lon="117.11026000977">
        <ele>10698.48</ele>
        <time>2026-07-13T08:26:16</time>
      </trkpt>
      <trkpt lat="37.153381347656" lon="117.12004089355">
        <ele>10690.86</ele>
        <time>2026-07-13T08:26:31</time>
      </trkpt>
      <trkpt lat="37.119735717773" lon="117.13009643555">
        <ele>10690.86</ele>
        <time>2026-07-13T08:26:45</time>
      </trkpt>
      <trkpt lat="37.086547851562" lon="117.14002990723">
        <ele>10690.86</ele>
        <time>2026-07-13T08:27:00</time>
      </trkpt>
      <trkpt lat="37.050750732422" lon="117.15077972412">
        <ele>10698.48</ele>
        <time>2026-07-13T08:27:18</time>
      </trkpt>
      <trkpt lat="37.018756866455" lon="117.16035461426">
        <ele>10698.48</ele>
        <time>2026-07-13T08:27:33</time>
      </trkpt>
      <trkpt lat="36.985473632812" lon="117.17030334473">
        <ele>10690.86</ele>
        <time>2026-07-13T08:27:48</time>
      </trkpt>
      <trkpt lat="36.952606201172" lon="117.18011474609">
        <ele>10690.86</ele>
        <time>2026-07-13T08:28:03</time>
      </trkpt>
      <trkpt lat="36.918670654297" lon="117.19020843506">
        <ele>10698.48</ele>
        <time>2026-07-13T08:28:18</time>
      </trkpt>
      <trkpt lat="36.885818481445" lon="117.20004272461">
        <ele>10698.48</ele>
        <time>2026-07-13T08:28:32</time>
      </trkpt>
      <trkpt lat="36.853126525879" lon="117.20829772949">
        <ele>10690.86</ele>
        <time>2026-07-13T08:28:47</time>
      </trkpt>
      <trkpt lat="36.818572998047" lon="117.21353149414">
        <ele>10698.48</ele>
        <time>2026-07-13T08:29:01</time>
      </trkpt>
      <trkpt lat="36.782501220703" lon="117.21571350098">
        <ele>10690.86</ele>
        <time>2026-07-13T08:29:20</time>
      </trkpt>
      <trkpt lat="36.748031616211" lon="117.21542358398">
        <ele>10698.48</ele>
        <time>2026-07-13T08:29:34</time>
      </trkpt>
      <trkpt lat="36.713520050049" lon="117.21514129639">
        <ele>10698.48</ele>
        <time>2026-07-13T08:29:49</time>
      </trkpt>
      <trkpt lat="36.683723449707" lon="117.21494293213">
        <ele>10698.48</ele>
        <time>2026-07-13T08:30:02</time>
      </trkpt>
      <trkpt lat="36.646041870117" lon="117.21467590332">
        <ele>10698.48</ele>
        <time>2026-07-13T08:30:17</time>
      </trkpt>
      <trkpt lat="36.607177734375" lon="117.21433258057">
        <ele>10690.86</ele>
        <time>2026-07-13T08:30:36</time>
      </trkpt>
      <trkpt lat="36.572113037109" lon="117.21411132812">
        <ele>10690.86</ele>
        <time>2026-07-13T08:30:50</time>
      </trkpt>
      <trkpt lat="36.538200378418" lon="117.21389770508">
        <ele>10690.86</ele>
        <time>2026-07-13T08:31:05</time>
      </trkpt>
      <trkpt lat="36.502899169922" lon="117.21365356445">
        <ele>10698.48</ele>
        <time>2026-07-13T08:31:20</time>
      </trkpt>
      <trkpt lat="36.468139648438" lon="117.21349334717">
        <ele>10698.48</ele>
        <time>2026-07-13T08:31:35</time>
      </trkpt>
      <trkpt lat="36.434371948242" lon="117.21594238281">
        <ele>10698.48</ele>
        <time>2026-07-13T08:31:49</time>
      </trkpt>
      <trkpt lat="36.39998626709" lon="117.22219085693">
        <ele>10690.86</ele>
        <time>2026-07-13T08:32:04</time>
      </trkpt>
      <trkpt lat="36.363723754883" lon="117.23306274414">
        <ele>10698.48</ele>
        <time>2026-07-13T08:32:19</time>
      </trkpt>
      <trkpt lat="36.330410003662" lon="117.24558258057">
        <ele>10698.48</ele>
        <time>2026-07-13T08:32:34</time>
      </trkpt>
      <trkpt lat="36.297359466553" lon="117.25588226318">
        <ele>10690.86</ele>
        <time>2026-07-13T08:32:49</time>
      </trkpt>
      <trkpt lat="36.263538360596" lon="117.2622833252">
        <ele>10690.86</ele>
        <time>2026-07-13T08:33:04</time>
      </trkpt>
      <trkpt lat="36.229190826416" lon="117.26444244385">
        <ele>10690.86</ele>
        <time>2026-07-13T08:33:19</time>
      </trkpt>
      <trkpt lat="36.20325088501" lon="117.2632598877">
        <ele>10698.48</ele>
        <time>2026-07-13T08:33:33</time>
      </trkpt>
      <trkpt lat="36.167587280273" lon="117.25793457031">
        <ele>10698.48</ele>
        <time>2026-07-13T08:33:48</time>
      </trkpt>
      <trkpt lat="36.131240844727" lon="117.25050354004">
        <ele>10698.48</ele>
        <time>2026-07-13T08:34:03</time>
      </trkpt>
      <trkpt lat="36.095119476318" lon="117.24282073975">
        <ele>10698.48</ele>
        <time>2026-07-13T08:34:18</time>
      </trkpt>
      <trkpt lat="36.059921264648" lon="117.23539733887">
        <ele>10690.86</ele>
        <time>2026-07-13T08:34:33</time>
      </trkpt>
      <trkpt lat="36.024444580078" lon="117.22789764404">
        <ele>10698.48</ele>
        <time>2026-07-13T08:34:52</time>
      </trkpt>
      <trkpt lat="35.990139007568" lon="117.22067260742">
        <ele>10698.48</ele>
        <time>2026-07-13T08:35:07</time>
      </trkpt>
      <trkpt lat="35.954086303711" lon="117.21296691895">
        <ele>10690.86</ele>
        <time>2026-07-13T08:35:22</time>
      </trkpt>
      <trkpt lat="35.917568206787" lon="117.20513153076">
        <ele>10698.48</ele>
        <time>2026-07-13T08:35:37</time>
      </trkpt>
      <trkpt lat="35.883178710938" lon="117.19831848145">
        <ele>10698.48</ele>
        <time>2026-07-13T08:35:51</time>
      </trkpt>
      <trkpt lat="35.848621368408" lon="117.1934967041">
        <ele>10698.48</ele>
        <time>2026-07-13T08:36:06</time>
      </trkpt>
      <trkpt lat="35.814590454102" lon="117.18981933594">
        <ele>10698.48</ele>
        <time>2026-07-13T08:36:21</time>
      </trkpt>
      <trkpt lat="35.7802734375" lon="117.18824768066">
        <ele>10698.48</ele>
        <time>2026-07-13T08:36:36</time>
      </trkpt>
      <trkpt lat="35.745666503906" lon="117.19013214111">
        <ele>10698.48</ele>
        <time>2026-07-13T08:36:51</time>
      </trkpt>
      <trkpt lat="35.71110534668" lon="117.19236755371">
        <ele>10698.48</ele>
        <time>2026-07-13T08:37:06</time>
      </trkpt>
      <trkpt lat="35.674163818359" lon="117.19264984131">
        <ele>10690.86</ele>
        <time>2026-07-13T08:37:25</time>
      </trkpt>
      <trkpt lat="35.638599395752" lon="117.19013214111">
        <ele>10698.48</ele>
        <time>2026-07-13T08:37:39</time>
      </trkpt>
      <trkpt lat="35.604591369629" lon="117.18678283691">
        <ele>10698.48</ele>
        <time>2026-07-13T08:37:54</time>
      </trkpt>
      <trkpt lat="35.570377349854" lon="117.18333435059">
        <ele>10698.48</ele>
        <time>2026-07-13T08:38:08</time>
      </trkpt>
      <trkpt lat="35.532619476318" lon="117.17971801758">
        <ele>10698.48</ele>
        <time>2026-07-13T08:38:23</time>
      </trkpt>
      <trkpt lat="35.506458282471" lon="117.17713928223">
        <ele>10690.86</ele>
        <time>2026-07-13T08:38:37</time>
      </trkpt>
      <trkpt lat="35.472381591797" lon="117.17371368408">
        <ele>10698.48</ele>
        <time>2026-07-13T08:38:52</time>
      </trkpt>
      <trkpt lat="35.437381744385" lon="117.17035675049">
        <ele>10690.86</ele>
        <time>2026-07-13T08:39:06</time>
      </trkpt>
      <trkpt lat="35.40087890625" lon="117.16667175293">
        <ele>10698.48</ele>
        <time>2026-07-13T08:39:21</time>
      </trkpt>
      <trkpt lat="35.365741729736" lon="117.16304779053">
        <ele>10698.48</ele>
        <time>2026-07-13T08:39:36</time>
      </trkpt>
      <trkpt lat="35.327819824219" lon="117.15911865234">
        <ele>10690.86</ele>
        <time>2026-07-13T08:39:51</time>
      </trkpt>
      <trkpt lat="35.293670654297" lon="117.15545654297">
        <ele>10698.48</ele>
        <time>2026-07-13T08:40:06</time>
      </trkpt>
      <trkpt lat="35.258560180664" lon="117.15174102783">
        <ele>10698.48</ele>
        <time>2026-07-13T08:40:21</time>
      </trkpt>
      <trkpt lat="35.223941802979" lon="117.14807891846">
        <ele>10698.48</ele>
        <time>2026-07-13T08:40:36</time>
      </trkpt>
      <trkpt lat="35.186740875244" lon="117.14435577393">
        <ele>10698.48</ele>
        <time>2026-07-13T08:40:54</time>
      </trkpt>
      <trkpt lat="35.151359558105" lon="117.1410369873">
        <ele>10698.48</ele>
        <time>2026-07-13T08:41:07</time>
      </trkpt>
      <trkpt lat="35.116451263428" lon="117.13777923584">
        <ele>10698.48</ele>
        <time>2026-07-13T08:41:22</time>
      </trkpt>
      <trkpt lat="35.081439971924" lon="117.13456726074">
        <ele>10698.48</ele>
        <time>2026-07-13T08:41:37</time>
      </trkpt>
      <trkpt lat="35.046199798584" lon="117.13134765625">
        <ele>10698.48</ele>
        <time>2026-07-13T08:41:52</time>
      </trkpt>
      <trkpt lat="35.010402679443" lon="117.12821960449">
        <ele>10698.48</ele>
        <time>2026-07-13T08:42:07</time>
      </trkpt>
      <trkpt lat="34.976699829102" lon="117.12535858154">
        <ele>10690.86</ele>
        <time>2026-07-13T08:42:22</time>
      </trkpt>
      <trkpt lat="34.949710845947" lon="117.12306213379">
        <ele>10698.48</ele>
        <time>2026-07-13T08:42:36</time>
      </trkpt>
      <trkpt lat="34.915668487549" lon="117.12008666992">
        <ele>10690.86</ele>
        <time>2026-07-13T08:42:49</time>
      </trkpt>
      <trkpt lat="34.886352539062" lon="117.11756134033">
        <ele>10690.86</ele>
        <time>2026-07-13T08:43:03</time>
      </trkpt>
      <trkpt lat="34.84977722168" lon="117.11431121826">
        <ele>10690.86</ele>
        <time>2026-07-13T08:43:17</time>
      </trkpt>
      <trkpt lat="34.814029693604" lon="117.11122894287">
        <ele>10698.48</ele>
        <time>2026-07-13T08:43:31</time>
      </trkpt>
      <trkpt lat="34.779651641846" lon="117.10820007324">
        <ele>10698.48</ele>
        <time>2026-07-13T08:43:46</time>
      </trkpt>
      <trkpt lat="34.743301391602" lon="117.10501098633">
        <ele>10698.48</ele>
        <time>2026-07-13T08:44:01</time>
      </trkpt>
      <trkpt lat="34.705760955811" lon="117.10166931152">
        <ele>10690.86</ele>
        <time>2026-07-13T08:44:20</time>
      </trkpt>
      <trkpt lat="34.667961120605" lon="117.09841156006">
        <ele>10690.86</ele>
        <time>2026-07-13T08:44:35</time>
      </trkpt>
      <trkpt lat="34.630680084229" lon="117.09532165527">
        <ele>10690.86</ele>
        <time>2026-07-13T08:44:50</time>
      </trkpt>
      <trkpt lat="34.595439910889" lon="117.09397125244">
        <ele>10690.86</ele>
        <time>2026-07-13T08:45:04</time>
      </trkpt>
      <trkpt lat="34.562808990479" lon="117.09587097168">
        <ele>10690.86</ele>
        <time>2026-07-13T08:45:19</time>
      </trkpt>
      <trkpt lat="34.529048919678" lon="117.09971618652">
        <ele>10698.48</ele>
        <time>2026-07-13T08:45:34</time>
      </trkpt>
      <trkpt lat="34.490413665771" lon="117.10464477539">
        <ele>10698.48</ele>
        <time>2026-07-13T08:45:49</time>
      </trkpt>
      <trkpt lat="34.454608917236" lon="117.10939025879">
        <ele>10698.48</ele>
        <time>2026-07-13T08:46:04</time>
      </trkpt>
      <trkpt lat="34.418151855469" lon="117.11419677734">
        <ele>10698.48</ele>
        <time>2026-07-13T08:46:19</time>
      </trkpt>
      <trkpt lat="34.382904052734" lon="117.11885070801">
        <ele>10698.48</ele>
        <time>2026-07-13T08:46:34</time>
      </trkpt>
      <trkpt lat="34.34545135498" lon="117.12375640869">
        <ele>10698.48</ele>
        <time>2026-07-13T08:46:53</time>
      </trkpt>
      <trkpt lat="34.309650421143" lon="117.12844848633">
        <ele>10698.48</ele>
        <time>2026-07-13T08:47:08</time>
      </trkpt>
      <trkpt lat="34.274688720703" lon="117.13297271729">
        <ele>10698.48</ele>
        <time>2026-07-13T08:47:22</time>
      </trkpt>
      <trkpt lat="34.238750457764" lon="117.13766479492">
        <ele>10690.86</ele>
        <time>2026-07-13T08:47:37</time>
      </trkpt>
      <trkpt lat="34.203090667725" lon="117.14240264893">
        <ele>10698.48</ele>
        <time>2026-07-13T08:47:52</time>
      </trkpt>
      <trkpt lat="34.166015625" lon="117.14766693115">
        <ele>10698.48</ele>
        <time>2026-07-13T08:48:06</time>
      </trkpt>
      <trkpt lat="34.128700256348" lon="117.15351104736">
        <ele>10690.86</ele>
        <time>2026-07-13T08:48:25</time>
      </trkpt>
      <trkpt lat="34.089889526367" lon="117.15977478027">
        <ele>10690.86</ele>
        <time>2026-07-13T08:48:42</time>
      </trkpt>
      <trkpt lat="34.055519104004" lon="117.1678237915">
        <ele>10698.48</ele>
        <time>2026-07-13T08:48:57</time>
      </trkpt>
      <trkpt lat="34.021591186523" lon="117.1798324585">
        <ele>10698.48</ele>
        <time>2026-07-13T08:49:11</time>
      </trkpt>
      <trkpt lat="33.989639282227" lon="117.19513702393">
        <ele>10698.48</ele>
        <time>2026-07-13T08:49:26</time>
      </trkpt>
      <trkpt lat="33.957920074463" lon="117.21482086182">
        <ele>10698.48</ele>
        <time>2026-07-13T08:49:41</time>
      </trkpt>
      <trkpt lat="33.928848266602" lon="117.23712158203">
        <ele>10698.48</ele>
        <time>2026-07-13T08:49:55</time>
      </trkpt>
      <trkpt lat="33.898040771484" lon="117.26412200928">
        <ele>10698.48</ele>
        <time>2026-07-13T08:50:10</time>
      </trkpt>
      <trkpt lat="33.869930267334" lon="117.28952789307">
        <ele>10690.86</ele>
        <time>2026-07-13T08:50:25</time>
      </trkpt>
      <trkpt lat="33.830520629883" lon="117.32534790039">
        <ele>10690.86</ele>
        <time>2026-07-13T08:50:50</time>
      </trkpt>
      <trkpt lat="33.799949645996" lon="117.3531036377">
        <ele>10690.86</ele>
        <time>2026-07-13T08:51:04</time>
      </trkpt>
      <trkpt lat="33.77033996582" lon="117.37982177734">
        <ele>10698.48</ele>
        <time>2026-07-13T08:51:19</time>
      </trkpt>
      <trkpt lat="33.740520477295" lon="117.40673828125">
        <ele>10698.48</ele>
        <time>2026-07-13T08:51:38</time>
      </trkpt>
      <trkpt lat="33.709400177002" lon="117.4347076416">
        <ele>10698.48</ele>
        <time>2026-07-13T08:51:53</time>
      </trkpt>
      <trkpt lat="33.677810668945" lon="117.46302032471">
        <ele>10698.48</ele>
        <time>2026-07-13T08:52:11</time>
      </trkpt>
      <trkpt lat="33.647689819336" lon="117.49004364014">
        <ele>10698.48</ele>
        <time>2026-07-13T08:52:26</time>
      </trkpt>
      <trkpt lat="33.617568969727" lon="117.51705169678">
        <ele>10690.86</ele>
        <time>2026-07-13T08:52:41</time>
      </trkpt>
      <trkpt lat="33.589740753174" lon="117.54216003418">
        <ele>10698.48</ele>
        <time>2026-07-13T08:52:56</time>
      </trkpt>
      <trkpt lat="33.556060791016" lon="117.57247924805">
        <ele>10683.24</ele>
        <time>2026-07-13T08:53:16</time>
      </trkpt>
      <trkpt lat="33.527248382568" lon="117.59848022461">
        <ele>10607.04</ele>
        <time>2026-07-13T08:53:31</time>
      </trkpt>
      <trkpt lat="33.497550964355" lon="117.62512207031">
        <ele>10492.74</ele>
        <time>2026-07-13T08:53:45</time>
      </trkpt>
      <trkpt lat="33.463939666748" lon="117.65528106689">
        <ele>10378.44</ele>
        <time>2026-07-13T08:54:00</time>
      </trkpt>
      <trkpt lat="33.442058563232" lon="117.67484283447">
        <ele>10302.24</ele>
        <time>2026-07-13T08:54:14</time>
      </trkpt>
      <trkpt lat="33.412029266357" lon="117.70169067383">
        <ele>10233.66</ele>
        <time>2026-07-13T08:54:29</time>
      </trkpt>
      <trkpt lat="33.386291503906" lon="117.72467041016">
        <ele>10180.32</ele>
        <time>2026-07-13T08:54:44</time>
      </trkpt>
      <trkpt lat="33.358768463135" lon="117.74932861328">
        <ele>10096.5</ele>
        <time>2026-07-13T08:54:59</time>
      </trkpt>
      <trkpt lat="33.327346801758" lon="117.77745056152">
        <ele>10073.64</ele>
        <time>2026-07-13T08:55:14</time>
      </trkpt>
      <trkpt lat="33.29700088501" lon="117.8045501709">
        <ele>10088.88</ele>
        <time>2026-07-13T08:55:29</time>
      </trkpt>
      <trkpt lat="33.267910003662" lon="117.83043670654">
        <ele>10088.88</ele>
        <time>2026-07-13T08:55:44</time>
      </trkpt>
      <trkpt lat="33.237133026123" lon="117.85768127441">
        <ele>10088.88</ele>
        <time>2026-07-13T08:56:04</time>
      </trkpt>
      <trkpt lat="33.206687927246" lon="117.88464355469">
        <ele>10088.88</ele>
        <time>2026-07-13T08:56:18</time>
      </trkpt>
      <trkpt lat="33.17903137207" lon="117.90905761719">
        <ele>10088.88</ele>
        <time>2026-07-13T08:56:31</time>
      </trkpt>
      <trkpt lat="33.139114379883" lon="117.94432830811">
        <ele>10088.88</ele>
        <time>2026-07-13T08:56:56</time>
      </trkpt>
      <trkpt lat="33.11014175415" lon="117.9700088501">
        <ele>10081.26</ele>
        <time>2026-07-13T08:57:11</time>
      </trkpt>
      <trkpt lat="33.070629119873" lon="118.00524902344">
        <ele>10088.88</ele>
        <time>2026-07-13T08:57:29</time>
      </trkpt>
      <trkpt lat="33.040832519531" lon="118.03205871582">
        <ele>10088.88</ele>
        <time>2026-07-13T08:57:44</time>
      </trkpt>
      <trkpt lat="33.019500732422" lon="118.05123138428">
        <ele>10088.88</ele>
        <time>2026-07-13T08:57:58</time>
      </trkpt>
      <trkpt lat="32.985946655273" lon="118.08122253418">
        <ele>10088.88</ele>
        <time>2026-07-13T08:58:13</time>
      </trkpt>
      <trkpt lat="32.953025817871" lon="118.11048126221">
        <ele>10088.88</ele>
        <time>2026-07-13T08:58:33</time>
      </trkpt>
      <trkpt lat="32.922866821289" lon="118.13746643066">
        <ele>10088.88</ele>
        <time>2026-07-13T08:58:48</time>
      </trkpt>
      <trkpt lat="32.894180297852" lon="118.16300201416">
        <ele>10081.26</ele>
        <time>2026-07-13T08:59:03</time>
      </trkpt>
      <trkpt lat="32.864688873291" lon="118.18904876709">
        <ele>10088.88</ele>
        <time>2026-07-13T08:59:17</time>
      </trkpt>
      <trkpt lat="32.842510223389" lon="118.20880126953">
        <ele>10081.26</ele>
        <time>2026-07-13T08:59:31</time>
      </trkpt>
      <trkpt lat="32.816070556641" lon="118.2356338501">
        <ele>10088.88</ele>
        <time>2026-07-13T08:59:46</time>
      </trkpt>
      <trkpt lat="32.791442871094" lon="118.26872253418">
        <ele>10088.88</ele>
        <time>2026-07-13T09:00:01</time>
      </trkpt>
      <trkpt lat="32.772960662842" lon="118.30476379395">
        <ele>10081.26</ele>
        <time>2026-07-13T09:00:16</time>
      </trkpt>
      <trkpt lat="32.761604309082" lon="118.34030151367">
        <ele>10088.88</ele>
        <time>2026-07-13T09:00:31</time>
      </trkpt>
      <trkpt lat="32.754589080811" lon="118.3871307373">
        <ele>10088.88</ele>
        <time>2026-07-13T09:00:46</time>
      </trkpt>
      <trkpt lat="32.750061035156" lon="118.43065643311">
        <ele>10081.26</ele>
        <time>2026-07-13T09:00:59</time>
      </trkpt>
      <trkpt lat="32.739398956299" lon="118.47985839844">
        <ele>10088.88</ele>
        <time>2026-07-13T09:01:18</time>
      </trkpt>
      <trkpt lat="32.724838256836" lon="118.52006530762">
        <ele>10088.88</ele>
        <time>2026-07-13T09:01:32</time>
      </trkpt>
      <trkpt lat="32.695404052734" lon="118.57269287109">
        <ele>10081.26</ele>
        <time>2026-07-13T09:01:57</time>
      </trkpt>
      <trkpt lat="32.670780181885" lon="118.60636901855">
        <ele>10081.26</ele>
        <time>2026-07-13T09:02:11</time>
      </trkpt>
      <trkpt lat="32.648941040039" lon="118.6411895752">
        <ele>10081.26</ele>
        <time>2026-07-13T09:02:25</time>
      </trkpt>
      <trkpt lat="32.635070800781" lon="118.66997528076">
        <ele>10088.88</ele>
        <time>2026-07-13T09:02:39</time>
      </trkpt>
      <trkpt lat="32.615196228027" lon="118.72106170654">
        <ele>10088.88</ele>
        <time>2026-07-13T09:02:56</time>
      </trkpt>
      <trkpt lat="32.601379394531" lon="118.75896453857">
        <ele>10081.26</ele>
        <time>2026-07-13T09:03:11</time>
      </trkpt>
      <trkpt lat="32.586193084717" lon="118.80049133301">
        <ele>10081.26</ele>
        <time>2026-07-13T09:03:30</time>
      </trkpt>
      <trkpt lat="32.571575164795" lon="118.84073638916">
        <ele>10088.88</ele>
        <time>2026-07-13T09:03:45</time>
      </trkpt>
      <trkpt lat="32.557800292969" lon="118.87926483154">
        <ele>10088.88</ele>
        <time>2026-07-13T09:04:00</time>
      </trkpt>
      <trkpt lat="32.541820526123" lon="118.92491149902">
        <ele>10088.88</ele>
        <time>2026-07-13T09:04:15</time>
      </trkpt>
      <trkpt lat="32.527309417725" lon="118.96662902832">
        <ele>10088.88</ele>
        <time>2026-07-13T09:04:30</time>
      </trkpt>
      <trkpt lat="32.51399230957" lon="119.00517272949">
        <ele>10088.88</ele>
        <time>2026-07-13T09:04:45</time>
      </trkpt>
      <trkpt lat="32.500400543213" lon="119.04538726807">
        <ele>10088.88</ele>
        <time>2026-07-13T09:05:00</time>
      </trkpt>
      <trkpt lat="32.486713409424" lon="119.08826446533">
        <ele>10088.88</ele>
        <time>2026-07-13T09:05:19</time>
      </trkpt>
      <trkpt lat="32.472049713135" lon="119.130027771">
        <ele>10088.88</ele>
        <time>2026-07-13T09:05:34</time>
      </trkpt>
      <trkpt lat="32.456920623779" lon="119.17015838623">
        <ele>10073.64</ele>
        <time>2026-07-13T09:05:49</time>
      </trkpt>
      <trkpt lat="32.438854217529" lon="119.21006774902">
        <ele>10020.3</ele>
        <time>2026-07-13T09:06:04</time>
      </trkpt>
      <trkpt lat="32.416744232178" lon="119.25289154053">
        <ele>9913.62</ele>
        <time>2026-07-13T09:06:25</time>
      </trkpt>
      <trkpt lat="32.390258789062" lon="119.30130767822">
        <ele>9814.56</ele>
        <time>2026-07-13T09:06:43</time>
      </trkpt>
      <trkpt lat="32.374660491943" lon="119.32682800293">
        <ele>9738.36</ele>
        <time>2026-07-13T09:06:57</time>
      </trkpt>
      <trkpt lat="32.351150512695" lon="119.35697937012">
        <ele>9631.68</ele>
        <time>2026-07-13T09:07:12</time>
      </trkpt>
      <trkpt lat="32.322708129883" lon="119.38573455811">
        <ele>9509.76</ele>
        <time>2026-07-13T09:07:27</time>
      </trkpt>
      <trkpt lat="32.294361114502" lon="119.40881347656">
        <ele>9387.84</ele>
        <time>2026-07-13T09:07:40</time>
      </trkpt>
      <trkpt lat="32.263259887695" lon="119.42884063721">
        <ele>9265.92</ele>
        <time>2026-07-13T09:07:59</time>
      </trkpt>
      <trkpt lat="32.232257843018" lon="119.44414520264">
        <ele>9151.62</ele>
        <time>2026-07-13T09:08:13</time>
      </trkpt>
      <trkpt lat="32.198589324951" lon="119.45774841309">
        <ele>9029.7</ele>
        <time>2026-07-13T09:08:28</time>
      </trkpt>
      <trkpt lat="32.166477203369" lon="119.47015380859">
        <ele>8892.54</ele>
        <time>2026-07-13T09:08:42</time>
      </trkpt>
      <trkpt lat="32.132637023926" lon="119.48304748535">
        <ele>8740.14</ele>
        <time>2026-07-13T09:09:01</time>
      </trkpt>
      <trkpt lat="32.101318359375" lon="119.49565124512">
        <ele>8610.6</ele>
        <time>2026-07-13T09:09:16</time>
      </trkpt>
      <trkpt lat="32.071975708008" lon="119.51081848145">
        <ele>8465.82</ele>
        <time>2026-07-13T09:09:31</time>
      </trkpt>
      <trkpt lat="32.041580200195" lon="119.53125">
        <ele>8298.18</ele>
        <time>2026-07-13T09:09:46</time>
      </trkpt>
      <trkpt lat="32.016448974609" lon="119.55327606201">
        <ele>8130.54</ele>
        <time>2026-07-13T09:10:01</time>
      </trkpt>
      <trkpt lat="31.99427986145" lon="119.57984924316">
        <ele>7970.52</ele>
        <time>2026-07-13T09:10:16</time>
      </trkpt>
      <trkpt lat="31.97654914856" lon="119.60949707031">
        <ele>7795.26</ele>
        <time>2026-07-13T09:10:31</time>
      </trkpt>
      <trkpt lat="31.962799072266" lon="119.64286804199">
        <ele>7589.52</ele>
        <time>2026-07-13T09:10:46</time>
      </trkpt>
      <trkpt lat="31.954246520996" lon="119.67737579346">
        <ele>7368.54</ele>
        <time>2026-07-13T09:11:01</time>
      </trkpt>
      <trkpt lat="31.950710296631" lon="119.71318054199">
        <ele>7139.94</ele>
        <time>2026-07-13T09:11:16</time>
      </trkpt>
      <trkpt lat="31.95224571228" lon="119.7498550415">
        <ele>6911.34</ele>
        <time>2026-07-13T09:11:31</time>
      </trkpt>
      <trkpt lat="31.9573097229" lon="119.78520202637">
        <ele>6682.74</ele>
        <time>2026-07-13T09:11:44</time>
      </trkpt>
      <trkpt lat="31.963369369507" lon="119.82176971436">
        <ele>6507.48</ele>
        <time>2026-07-13T09:11:59</time>
      </trkpt>
      <trkpt lat="31.965509414673" lon="119.86122894287">
        <ele>6347.46</ele>
        <time>2026-07-13T09:12:18</time>
      </trkpt>
      <trkpt lat="31.959789276123" lon="119.89324188232">
        <ele>6294.12</ele>
        <time>2026-07-13T09:12:33</time>
      </trkpt>
      <trkpt lat="31.94792175293" lon="119.92219543457">
        <ele>6294.12</ele>
        <time>2026-07-13T09:12:48</time>
      </trkpt>
      <trkpt lat="31.932088851929" lon="119.94508361816">
        <ele>6240.78</ele>
        <time>2026-07-13T09:13:02</time>
      </trkpt>
      <trkpt lat="31.913930892944" lon="119.96537780762">
        <ele>6149.34</ele>
        <time>2026-07-13T09:13:17</time>
      </trkpt>
      <trkpt lat="31.896509170532" lon="119.98477172852">
        <ele>6057.9</ele>
        <time>2026-07-13T09:13:32</time>
      </trkpt>
      <trkpt lat="31.878940582275" lon="120.00409698486">
        <ele>5996.94</ele>
        <time>2026-07-13T09:13:47</time>
      </trkpt>
      <trkpt lat="31.861469268799" lon="120.02306365967">
        <ele>5928.36</ele>
        <time>2026-07-13T09:14:02</time>
      </trkpt>
      <trkpt lat="31.843872070312" lon="120.04216766357">
        <ele>5844.54</ele>
        <time>2026-07-13T09:14:17</time>
      </trkpt>
      <trkpt lat="31.827209472656" lon="120.06030273438">
        <ele>5760.72</ele>
        <time>2026-07-13T09:14:32</time>
      </trkpt>
      <trkpt lat="31.808990478516" lon="120.08007049561">
        <ele>5669.28</ele>
        <time>2026-07-13T09:14:47</time>
      </trkpt>
      <trkpt lat="31.792510986328" lon="120.09803771973">
        <ele>5585.46</ele>
        <time>2026-07-13T09:15:02</time>
      </trkpt>
      <trkpt lat="31.776210784912" lon="120.11589050293">
        <ele>5501.64</ele>
        <time>2026-07-13T09:15:17</time>
      </trkpt>
      <trkpt lat="31.759706497192" lon="120.13390350342">
        <ele>5417.82</ele>
        <time>2026-07-13T09:15:32</time>
      </trkpt>
      <trkpt lat="31.743301391602" lon="120.15171051025">
        <ele>5334.0</ele>
        <time>2026-07-13T09:15:46</time>
      </trkpt>
      <trkpt lat="31.727304458618" lon="120.16917419434">
        <ele>5250.18</ele>
        <time>2026-07-13T09:16:01</time>
      </trkpt>
      <trkpt lat="31.711349487305" lon="120.18654632568">
        <ele>5166.36</ele>
        <time>2026-07-13T09:16:16</time>
      </trkpt>
      <trkpt lat="31.69514465332" lon="120.20432281494">
        <ele>5082.54</ele>
        <time>2026-07-13T09:16:31</time>
      </trkpt>
      <trkpt lat="31.679170608521" lon="120.22168731689">
        <ele>4998.72</ele>
        <time>2026-07-13T09:16:46</time>
      </trkpt>
      <trkpt lat="31.66291809082" lon="120.23949432373">
        <ele>4914.9</ele>
        <time>2026-07-13T09:17:01</time>
      </trkpt>
      <trkpt lat="31.647125244141" lon="120.25666809082">
        <ele>4831.08</ele>
        <time>2026-07-13T09:17:16</time>
      </trkpt>
      <trkpt lat="31.631149291992" lon="120.27400970459">
        <ele>4747.26</ele>
        <time>2026-07-13T09:17:31</time>
      </trkpt>
      <trkpt lat="31.615114212036" lon="120.29167175293">
        <ele>4663.44</ele>
        <time>2026-07-13T09:17:46</time>
      </trkpt>
      <trkpt lat="31.604314804077" lon="120.30578613281">
        <ele>4610.1</ele>
        <time>2026-07-13T09:18:00</time>
      </trkpt>
      <trkpt lat="31.591419219971" lon="120.32710266113">
        <ele>4526.28</ele>
        <time>2026-07-13T09:18:15</time>
      </trkpt>
      <trkpt lat="31.58056640625" lon="120.35102081299">
        <ele>4442.46</ele>
        <time>2026-07-13T09:18:30</time>
      </trkpt>
      <trkpt lat="31.572425842285" lon="120.37642669678">
        <ele>4358.64</ele>
        <time>2026-07-13T09:18:45</time>
      </trkpt>
      <trkpt lat="31.564910888672" lon="120.40207672119">
        <ele>4274.82</ele>
        <time>2026-07-13T09:19:00</time>
      </trkpt>
      <trkpt lat="31.557203292847" lon="120.42795562744">
        <ele>4183.38</ele>
        <time>2026-07-13T09:19:15</time>
      </trkpt>
      <trkpt lat="31.549530029297" lon="120.45388793945">
        <ele>4091.94</ele>
        <time>2026-07-13T09:19:30</time>
      </trkpt>
      <trkpt lat="31.541748046875" lon="120.47994995117">
        <ele>4000.5</ele>
        <time>2026-07-13T09:19:45</time>
      </trkpt>
      <trkpt lat="31.534290313721" lon="120.50489044189">
        <ele>3909.06</ele>
        <time>2026-07-13T09:20:00</time>
      </trkpt>
      <trkpt lat="31.526569366455" lon="120.53079223633">
        <ele>3817.62</ele>
        <time>2026-07-13T09:20:15</time>
      </trkpt>
      <trkpt lat="31.51904296875" lon="120.55599212646">
        <ele>3741.42</ele>
        <time>2026-07-13T09:20:30</time>
      </trkpt>
      <trkpt lat="31.51171875" lon="120.58028411865">
        <ele>3688.08</ele>
        <time>2026-07-13T09:20:45</time>
      </trkpt>
      <trkpt lat="31.504739761353" lon="120.60384368896">
        <ele>3649.98</ele>
        <time>2026-07-13T09:21:00</time>
      </trkpt>
      <trkpt lat="31.497619628906" lon="120.62757873535">
        <ele>3619.5</ele>
        <time>2026-07-13T09:21:15</time>
      </trkpt>
      <trkpt lat="31.49068069458" lon="120.65070343018">
        <ele>3558.54</ele>
        <time>2026-07-13T09:21:30</time>
      </trkpt>
      <trkpt lat="31.483795166016" lon="120.67339324951">
        <ele>3489.96</ele>
        <time>2026-07-13T09:21:45</time>
      </trkpt>
      <trkpt lat="31.476993560791" lon="120.69590759277">
        <ele>3413.76</ele>
        <time>2026-07-13T09:22:00</time>
      </trkpt>
      <trkpt lat="31.47047996521" lon="120.7174987793">
        <ele>3352.8</ele>
        <time>2026-07-13T09:22:15</time>
      </trkpt>
      <trkpt lat="31.463562011719" lon="120.74050140381">
        <ele>3276.6</ele>
        <time>2026-07-13T09:22:30</time>
      </trkpt>
      <trkpt lat="31.457670211792" lon="120.76023864746">
        <ele>3208.02</ele>
        <time>2026-07-13T09:22:45</time>
      </trkpt>
      <trkpt lat="31.451570510864" lon="120.78057098389">
        <ele>3139.44</ele>
        <time>2026-07-13T09:23:00</time>
      </trkpt>
      <trkpt lat="31.445709228516" lon="120.80006408691">
        <ele>3070.86</ele>
        <time>2026-07-13T09:23:15</time>
      </trkpt>
      <trkpt lat="31.440263748169" lon="120.81819152832">
        <ele>3002.28</ele>
        <time>2026-07-13T09:23:30</time>
      </trkpt>
      <trkpt lat="31.434770584106" lon="120.83609771729">
        <ele>2910.84</ele>
        <time>2026-07-13T09:23:45</time>
      </trkpt>
      <trkpt lat="31.429510116577" lon="120.85328674316">
        <ele>2827.02</ele>
        <time>2026-07-13T09:24:00</time>
      </trkpt>
      <trkpt lat="31.424297332764" lon="120.87065124512">
        <ele>2758.44</ele>
        <time>2026-07-13T09:24:15</time>
      </trkpt>
      <trkpt lat="31.419130325317" lon="120.88768005371">
        <ele>2682.24</ele>
        <time>2026-07-13T09:24:30</time>
      </trkpt>
      <trkpt lat="31.413711547852" lon="120.90550994873">
        <ele>2606.04</ele>
        <time>2026-07-13T09:24:45</time>
      </trkpt>
      <trkpt lat="31.408702850342" lon="120.92211914062">
        <ele>2529.84</ele>
        <time>2026-07-13T09:25:00</time>
      </trkpt>
      <trkpt lat="31.403959274292" lon="120.93933105469">
        <ele>2453.64</ele>
        <time>2026-07-13T09:25:15</time>
      </trkpt>
      <trkpt lat="31.400569915771" lon="120.95709991455">
        <ele>2377.44</ele>
        <time>2026-07-13T09:25:30</time>
      </trkpt>
      <trkpt lat="31.398559570312" lon="120.9753112793">
        <ele>2301.24</ele>
        <time>2026-07-13T09:25:45</time>
      </trkpt>
      <trkpt lat="31.397390365601" lon="120.99369812012">
        <ele>2225.04</ele>
        <time>2026-07-13T09:26:00</time>
      </trkpt>
      <trkpt lat="31.396133422852" lon="121.01187896729">
        <ele>2148.84</ele>
        <time>2026-07-13T09:26:15</time>
      </trkpt>
      <trkpt lat="31.394939422607" lon="121.03002166748">
        <ele>2072.64</ele>
        <time>2026-07-13T09:26:30</time>
      </trkpt>
      <trkpt lat="31.393711090088" lon="121.04785919189">
        <ele>1996.44</ele>
        <time>2026-07-13T09:26:45</time>
      </trkpt>
      <trkpt lat="31.393760681152" lon="121.06587982178">
        <ele>1927.86</ele>
        <time>2026-07-13T09:27:00</time>
      </trkpt>
      <trkpt lat="31.399251937866" lon="121.08262634277">
        <ele>1897.38</ele>
        <time>2026-07-13T09:27:15</time>
      </trkpt>
      <trkpt lat="31.406513214111" lon="121.09839630127">
        <ele>1866.9</ele>
        <time>2026-07-13T09:27:30</time>
      </trkpt>
      <trkpt lat="31.413961410522" lon="121.11366271973">
        <ele>1798.32</ele>
        <time>2026-07-13T09:27:45</time>
      </trkpt>
      <trkpt lat="31.421722412109" lon="121.12889862061">
        <ele>1714.5</ele>
        <time>2026-07-13T09:28:00</time>
      </trkpt>
      <trkpt lat="31.429458618164" lon="121.14386749268">
        <ele>1638.3</ele>
        <time>2026-07-13T09:28:15</time>
      </trkpt>
      <trkpt lat="31.437656402588" lon="121.15953063965">
        <ele>1569.72</ele>
        <time>2026-07-13T09:28:30</time>
      </trkpt>
      <trkpt lat="31.445617675781" lon="121.17456817627">
        <ele>1501.14</ele>
        <time>2026-07-13T09:28:45</time>
      </trkpt>
      <trkpt lat="31.453578948975" lon="121.18968963623">
        <ele>1424.94</ele>
        <time>2026-07-13T09:29:00</time>
      </trkpt>
      <trkpt lat="31.461589813232" lon="121.20507049561">
        <ele>1371.6</ele>
        <time>2026-07-13T09:29:15</time>
      </trkpt>
      <trkpt lat="31.469284057617" lon="121.21990966797">
        <ele>1318.26</ele>
        <time>2026-07-13T09:29:30</time>
      </trkpt>
      <trkpt lat="31.476745605469" lon="121.23477935791">
        <ele>1264.92</ele>
        <time>2026-07-13T09:29:45</time>
      </trkpt>
      <trkpt lat="31.482055664062" lon="121.25034332275">
        <ele>1196.34</ele>
        <time>2026-07-13T09:30:00</time>
      </trkpt>
      <trkpt lat="31.479549407959" lon="121.26550292969">
        <ele>1112.52</ele>
        <time>2026-07-13T09:30:15</time>
      </trkpt>
      <trkpt lat="31.471733093262" lon="121.27637481689">
        <ele>1051.56</ele>
        <time>2026-07-13T09:30:30</time>
      </trkpt>
      <trkpt lat="31.463289260864" lon="121.28562164307">
        <ele>1021.08</ele>
        <time>2026-07-13T09:30:45</time>
      </trkpt>
      <trkpt lat="31.45426940918" lon="121.29515075684">
        <ele>1021.08</ele>
        <time>2026-07-13T09:31:00</time>
      </trkpt>
      <trkpt lat="31.444869995117" lon="121.3045501709">
        <ele>1021.08</ele>
        <time>2026-07-13T09:31:15</time>
      </trkpt>
      <trkpt lat="31.435050964355" lon="121.31367492676">
        <ele>1021.08</ele>
        <time>2026-07-13T09:31:30</time>
      </trkpt>
      <trkpt lat="31.424468994141" lon="121.32196807861">
        <ele>1021.08</ele>
        <time>2026-07-13T09:31:45</time>
      </trkpt>
      <trkpt lat="31.412887573242" lon="121.32482147217">
        <ele>1021.08</ele>
        <time>2026-07-13T09:32:00</time>
      </trkpt>
      <trkpt lat="31.400939941406" lon="121.3254699707">
        <ele>1021.08</ele>
        <time>2026-07-13T09:32:15</time>
      </trkpt>
      <trkpt lat="31.389289855957" lon="121.32597351074">
        <ele>1021.08</ele>
        <time>2026-07-13T09:32:30</time>
      </trkpt>
      <trkpt lat="31.377689361572" lon="121.32659912109">
        <ele>1021.08</ele>
        <time>2026-07-13T09:32:45</time>
      </trkpt>
      <trkpt lat="31.36555480957" lon="121.32724761963">
        <ele>975.36</ele>
        <time>2026-07-13T09:33:00</time>
      </trkpt>
      <trkpt lat="31.353879928589" lon="121.3278427124">
        <ele>906.78</ele>
        <time>2026-07-13T09:33:15</time>
      </trkpt>
      <trkpt lat="31.342208862305" lon="121.32848358154">
        <ele>830.58</ele>
        <time>2026-07-13T09:33:30</time>
      </trkpt>
      <trkpt lat="31.331085205078" lon="121.32907867432">
        <ele>769.62</ele>
        <time>2026-07-13T09:33:45</time>
      </trkpt>
      <trkpt lat="31.320053100586" lon="121.32971954346">
        <ele>708.66</ele>
        <time>2026-07-13T09:34:00</time>
      </trkpt>
      <trkpt lat="31.309917449951" lon="121.33026123047">
        <ele>655.32</ele>
        <time>2026-07-13T09:34:15</time>
      </trkpt>
      <trkpt lat="31.299955368042" lon="121.33081054688">
        <ele>601.98</ele>
        <time>2026-07-13T09:34:30</time>
      </trkpt>
      <trkpt lat="31.290618896484" lon="121.33128356934">
        <ele>548.64</ele>
        <time>2026-07-13T09:34:45</time>
      </trkpt>
      <trkpt lat="31.280960083008" lon="121.33187866211">
        <ele>495.3</ele>
        <time>2026-07-13T09:35:00</time>
      </trkpt>
      <trkpt lat="31.271884918213" lon="121.33229064941">
        <ele>449.58</ele>
        <time>2026-07-13T09:35:15</time>
      </trkpt>
      <trkpt lat="31.262670516968" lon="121.33283996582">
        <ele>396.24</ele>
        <time>2026-07-13T09:35:30</time>
      </trkpt>
      <trkpt lat="31.253631591797" lon="121.33332824707">
        <ele>342.9</ele>
        <time>2026-07-13T09:35:45</time>
      </trkpt>
      <trkpt lat="31.244092941284" lon="121.33383178711">
        <ele>289.56</ele>
        <time>2026-07-13T09:36:00</time>
      </trkpt>
      <trkpt lat="31.234497070312" lon="121.33435058594">
        <ele>236.22</ele>
        <time>2026-07-13T09:36:15</time>
      </trkpt>
      <trkpt lat="31.225250244141" lon="121.33483886719">
        <ele>190.5</ele>
        <time>2026-07-13T09:36:30</time>
      </trkpt>
      <trkpt lat="31.216089248657" lon="121.33531951904">
        <ele>137.16</ele>
        <time>2026-07-13T09:36:45</time>
      </trkpt>
      <trkpt lat="31.207084655762" lon="121.33580780029">
        <ele>99.06</ele>
        <time>2026-07-13T09:37:00</time>
      </trkpt>
      <trkpt lat="31.19947052002" lon="121.3362197876">
        <ele>0.0</ele>
        <time>2026-07-13T09:37:15</time>
      </trkpt>
      <trkpt lat="31.193664550781" lon="121.33652496338">
        <ele>0.0</ele>
        <time>2026-07-13T09:37:34</time>
      </trkpt>
      <trkpt lat="31.190395355225" lon="121.33616638184">
        <ele>0.0</ele>
        <time>2026-07-13T09:37:55</time>
      </trkpt>
      <trkpt lat="31.188800811768" lon="121.33530426025">
        <ele>0.0</ele>
        <time>2026-07-13T09:38:09</time>
      </trkpt>
      <trkpt lat="31.187828063965" lon="121.33497619629">
        <ele>0.0</ele>
        <time>2026-07-13T09:38:24</time>
      </trkpt>
      <trkpt lat="31.186485290527" lon="121.33501434326">
        <ele>0.0</ele>
        <time>2026-07-13T09:38:43</time>
      </trkpt>
      <trkpt lat="31.185356140137" lon="121.33506774902">
        <ele>0.0</ele>
        <time>2026-07-13T09:38:59</time>
      </trkpt>
      <trkpt lat="31.184843063354" lon="121.33460235596">
        <ele>0.0</ele>
        <time>2026-07-13T09:39:42</time>
      </trkpt>
      <trkpt lat="31.184831619263" lon="121.33386993408">
        <ele>0.0</ele>
        <time>2026-07-13T09:40:22</time>
      </trkpt>
      <trkpt lat="31.18480682373" lon="121.33327484131">
        <ele>0.0</ele>
        <time>2026-07-13T09:40:33</time>
      </trkpt>
      <trkpt lat="31.184759140015" lon="121.3316192627">
        <ele>0.0</ele>
        <time>2026-07-13T09:40:54</time>
      </trkpt>
      <trkpt lat="31.185356140137" lon="121.33125305176">
        <ele>0.0</ele>
        <time>2026-07-13T09:41:08</time>
      </trkpt>
      <trkpt lat="31.185930252075" lon="121.33122253418">
        <ele>0.0</ele>
        <time>2026-07-13T09:41:20</time>
      </trkpt>
      <trkpt lat="31.187160491943" lon="121.33115386963">
        <ele>0.0</ele>
        <time>2026-07-13T09:41:36</time>
      </trkpt>
      <trkpt lat="31.188066482544" lon="121.33110046387">
        <ele>0.0</ele>
        <time>2026-07-13T09:41:50</time>
      </trkpt>
      <trkpt lat="31.189876556396" lon="121.33100128174">
        <ele>0.0</ele>
        <time>2026-07-13T09:42:06</time>
      </trkpt>
      <trkpt lat="31.191501617432" lon="121.3309173584">
        <ele>0.0</ele>
        <time>2026-07-13T09:42:20</time>
      </trkpt>
      <trkpt lat="31.192852020264" lon="121.33084106445">
        <ele>0.0</ele>
        <time>2026-07-13T09:42:40</time>
      </trkpt>
      <trkpt lat="31.193910598755" lon="121.3307800293">
        <ele>0.0</ele>
        <time>2026-07-13T09:42:55</time>
      </trkpt>
      <trkpt lat="31.194477081299" lon="121.33075714111">
        <ele>0.0</ele>
        <time>2026-07-13T09:43:15</time>
      </trkpt>
      <trkpt lat="31.194805145264" lon="121.33074188232">
        <ele>0.0</ele>
        <time>2026-07-13T09:43:36</time>
      </trkpt>
      <trkpt lat="31.194980621338" lon="121.33072662354">
        <ele>0.0</ele>
        <time>2026-07-13T09:43:50</time>
      </trkpt>
      <trkpt lat="31.195083618164" lon="121.33071899414">
        <ele>0.0</ele>
        <time>2026-07-13T09:44:02</time>
      </trkpt>
      <trkpt lat="31.195129394531" lon="121.33071899414">
        <ele>0.0</ele>
        <time>2026-07-13T09:44:13</time>
      </trkpt>
      <trkpt lat="31.195209503174" lon="121.33071899414">
        <ele>0.0</ele>
        <time>2026-07-13T09:44:29</time>
      </trkpt>
      <trkpt lat="31.195213317871" lon="121.33071136475">
        <ele>0.0</ele>
        <time>2026-07-13T09:44:44</time>
      </trkpt>
      <trkpt lat="31.195295333862" lon="121.33070373535">
        <ele>0.0</ele>
        <time>2026-07-13T09:45:12</time>
      </trkpt>
      <trkpt lat="31.195749282837" lon="121.33068847656">
        <ele>0.0</ele>
        <time>2026-07-13T09:45:33</time>
      </trkpt>
      <trkpt lat="31.196481704712" lon="121.33046722412">
        <ele>0.0</ele>
        <time>2026-07-13T09:46:00</time>
      </trkpt>
      <trkpt lat="31.196559906006" lon="121.32946777344">
        <ele>0.0</ele>
        <time>2026-07-13T09:46:20</time>
      </trkpt>
      <trkpt lat="31.196537017822" lon="121.32872772217">
        <ele>0.0</ele>
        <time>2026-07-13T09:46:36</time>
      </trkpt>
      <trkpt lat="31.196514129639" lon="121.32813262939">
        <ele>0.0</ele>
        <time>2026-07-13T09:46:50</time>
      </trkpt>
      <trkpt lat="31.196493148804" lon="121.32761383057">
        <ele>0.0</ele>
        <time>2026-07-13T09:47:05</time>
      </trkpt>
      <trkpt lat="31.196760177612" lon="121.32693481445">
        <ele>0.0</ele>
        <time>2026-07-13T09:47:20</time>
      </trkpt>
      <trkpt lat="31.197750091553" lon="121.32684326172">
        <ele>0.0</ele>
        <time>2026-07-13T09:47:44</time>
      </trkpt>
    </trkseg>
  </trk>
</gpx>