<?xml version="1.0" encoding="UTF-8"?>
<gpx xmlns="http://www.topografix.com/GPX/1/1" xmlns:xsi="http://www.w3.org/2001/XMLSchema-instance" xsi:schemaLocation="http://www.topografix.com/GPX/1/1 http://www.topografix.com/GPX/1/1/gpx.xsd" version="1.1" creator="gpx.py -- https://github.com/tkrajina/gpxpy">
  <trk>
    <name>Variflight_G52881_20260617.csv</name>
    <trkseg>
      <trkpt lat="29.123685836792" lon="119.03950500488">
        <ele>2537.46</ele>
        <time>2026-06-17T10:29:40</time>
      </trkpt>
      <trkpt lat="29.131620407104" lon="119.02155303955">
        <ele>2766.06</ele>
        <time>2026-06-17T10:29:55</time>
      </trkpt>
      <trkpt lat="29.133550643921" lon="119.0008392334">
        <ele>2887.98</ele>
        <time>2026-06-17T10:30:09</time>
      </trkpt>
      <trkpt lat="29.127410888672" lon="118.98072052002">
        <ele>3040.38</ele>
        <time>2026-06-17T10:30:24</time>
      </trkpt>
      <trkpt lat="29.116189956665" lon="118.9633026123">
        <ele>3230.88</ele>
        <time>2026-06-17T10:30:39</time>
      </trkpt>
      <trkpt lat="29.10357093811" lon="118.94509887695">
        <ele>3398.52</ele>
        <time>2026-06-17T10:30:54</time>
      </trkpt>
      <trkpt lat="29.09156036377" lon="118.92781066895">
        <ele>3535.68</ele>
        <time>2026-06-17T10:31:09</time>
      </trkpt>
      <trkpt lat="29.077880859375" lon="118.90809631348">
        <ele>3589.02</ele>
        <time>2026-06-17T10:31:24</time>
      </trkpt>
      <trkpt lat="29.063230514526" lon="118.88697052002">
        <ele>3604.26</ele>
        <time>2026-06-17T10:31:44</time>
      </trkpt>
      <trkpt lat="29.048719406128" lon="118.86614990234">
        <ele>3596.64</ele>
        <time>2026-06-17T10:31:59</time>
      </trkpt>
      <trkpt lat="29.03516960144" lon="118.84661102295">
        <ele>3604.26</ele>
        <time>2026-06-17T10:32:14</time>
      </trkpt>
      <trkpt lat="29.019130706787" lon="118.82360076904">
        <ele>3672.84</ele>
        <time>2026-06-17T10:32:29</time>
      </trkpt>
      <trkpt lat="29.004959106445" lon="118.80325317383">
        <ele>3855.72</ele>
        <time>2026-06-17T10:32:44</time>
      </trkpt>
      <trkpt lat="28.990169525146" lon="118.78217315674">
        <ele>4069.08</ele>
        <time>2026-06-17T10:32:59</time>
      </trkpt>
      <trkpt lat="28.978120803833" lon="118.76484680176">
        <ele>4137.66</ele>
        <time>2026-06-17T10:33:14</time>
      </trkpt>
      <trkpt lat="28.963300704956" lon="118.74360656738">
        <ele>4152.9</ele>
        <time>2026-06-17T10:33:29</time>
      </trkpt>
      <trkpt lat="28.949159622192" lon="118.72338104248">
        <ele>4221.48</ele>
        <time>2026-06-17T10:33:45</time>
      </trkpt>
      <trkpt lat="28.935150146484" lon="118.7033996582">
        <ele>4290.06</ele>
        <time>2026-06-17T10:33:59</time>
      </trkpt>
      <trkpt lat="28.9205493927" lon="118.68250274658">
        <ele>4434.84</ele>
        <time>2026-06-17T10:34:19</time>
      </trkpt>
      <trkpt lat="28.907499313354" lon="118.66396331787">
        <ele>4488.18</ele>
        <time>2026-06-17T10:34:34</time>
      </trkpt>
      <trkpt lat="28.893489837646" lon="118.64399719238">
        <ele>4556.76</ele>
        <time>2026-06-17T10:34:49</time>
      </trkpt>
      <trkpt lat="28.880449295044" lon="118.6254196167">
        <ele>4617.72</ele>
        <time>2026-06-17T10:35:04</time>
      </trkpt>
      <trkpt lat="28.863279342651" lon="118.60803222656">
        <ele>4663.44</ele>
        <time>2026-06-17T10:35:19</time>
      </trkpt>
      <trkpt lat="28.841390609741" lon="118.59810638428">
        <ele>4762.5</ele>
        <time>2026-06-17T10:35:34</time>
      </trkpt>
      <trkpt lat="28.817459106445" lon="118.58583068848">
        <ele>4785.36</ele>
        <time>2026-06-17T10:35:49</time>
      </trkpt>
      <trkpt lat="28.79866027832" lon="118.57350158691">
        <ele>4792.98</ele>
        <time>2026-06-17T10:36:04</time>
      </trkpt>
      <trkpt lat="28.780059814453" lon="118.55870056152">
        <ele>4792.98</ele>
        <time>2026-06-17T10:36:19</time>
      </trkpt>
      <trkpt lat="28.760440826416" lon="118.53984069824">
        <ele>4785.36</ele>
        <time>2026-06-17T10:36:39</time>
      </trkpt>
      <trkpt lat="28.743589401245" lon="118.52024078369">
        <ele>4785.36</ele>
        <time>2026-06-17T10:36:54</time>
      </trkpt>
      <trkpt lat="28.726039886475" lon="118.49626922607">
        <ele>4792.98</ele>
        <time>2026-06-17T10:37:09</time>
      </trkpt>
      <trkpt lat="28.709560394287" lon="118.47322845459">
        <ele>4785.36</ele>
        <time>2026-06-17T10:37:24</time>
      </trkpt>
      <trkpt lat="28.691070556641" lon="118.44709014893">
        <ele>4785.36</ele>
        <time>2026-06-17T10:37:44</time>
      </trkpt>
      <trkpt lat="28.674739837646" lon="118.42400360107">
        <ele>4785.36</ele>
        <time>2026-06-17T10:37:59</time>
      </trkpt>
      <trkpt lat="28.658199310303" lon="118.40065765381">
        <ele>4785.36</ele>
        <time>2026-06-17T10:38:14</time>
      </trkpt>
      <trkpt lat="28.641780853271" lon="118.37747192383">
        <ele>4808.22</ele>
        <time>2026-06-17T10:38:29</time>
      </trkpt>
      <trkpt lat="28.625200271606" lon="118.35397338867">
        <ele>4945.38</ele>
        <time>2026-06-17T10:38:44</time>
      </trkpt>
      <trkpt lat="28.609840393066" lon="118.33229064941">
        <ele>5082.54</ele>
        <time>2026-06-17T10:38:59</time>
      </trkpt>
      <trkpt lat="28.593660354614" lon="118.30944061279">
        <ele>5196.84</ele>
        <time>2026-06-17T10:39:19</time>
      </trkpt>
      <trkpt lat="28.576030731201" lon="118.28450775146">
        <ele>5295.9</ele>
        <time>2026-06-17T10:39:34</time>
      </trkpt>
      <trkpt lat="28.559280395508" lon="118.26090240479">
        <ele>5372.1</ele>
        <time>2026-06-17T10:39:49</time>
      </trkpt>
      <trkpt lat="28.542890548706" lon="118.2377166748">
        <ele>5448.3</ele>
        <time>2026-06-17T10:40:04</time>
      </trkpt>
      <trkpt lat="28.526180267334" lon="118.21421051025">
        <ele>5516.88</ele>
        <time>2026-06-17T10:40:19</time>
      </trkpt>
      <trkpt lat="28.509519577026" lon="118.19075775146">
        <ele>5608.32</ele>
        <time>2026-06-17T10:40:34</time>
      </trkpt>
      <trkpt lat="28.493360519409" lon="118.16799163818">
        <ele>5722.62</ele>
        <time>2026-06-17T10:40:49</time>
      </trkpt>
      <trkpt lat="28.472080230713" lon="118.13804626465">
        <ele>5905.5</ele>
        <time>2026-06-17T10:41:09</time>
      </trkpt>
      <trkpt lat="28.456270217896" lon="118.11573791504">
        <ele>5996.94</ele>
        <time>2026-06-17T10:41:23</time>
      </trkpt>
      <trkpt lat="28.439599990845" lon="118.0923614502">
        <ele>6004.56</ele>
        <time>2026-06-17T10:41:38</time>
      </trkpt>
      <trkpt lat="28.422870635986" lon="118.06884765625">
        <ele>6004.56</ele>
        <time>2026-06-17T10:41:53</time>
      </trkpt>
      <trkpt lat="28.405149459839" lon="118.04398345947">
        <ele>6004.56</ele>
        <time>2026-06-17T10:42:08</time>
      </trkpt>
      <trkpt lat="28.384870529175" lon="118.01544952393">
        <ele>6012.18</ele>
        <time>2026-06-17T10:42:28</time>
      </trkpt>
      <trkpt lat="28.36408996582" lon="117.98821258545">
        <ele>6004.56</ele>
        <time>2026-06-17T10:42:47</time>
      </trkpt>
      <trkpt lat="28.337400436401" lon="117.95639801025">
        <ele>6004.56</ele>
        <time>2026-06-17T10:43:10</time>
      </trkpt>
      <trkpt lat="28.308700561523" lon="117.92294311523">
        <ele>6004.56</ele>
        <time>2026-06-17T10:43:34</time>
      </trkpt>
      <trkpt lat="28.284160614014" lon="117.89434051514">
        <ele>6004.56</ele>
        <time>2026-06-17T10:43:54</time>
      </trkpt>
      <trkpt lat="28.268800735474" lon="117.87635040283">
        <ele>6004.56</ele>
        <time>2026-06-17T10:44:09</time>
      </trkpt>
      <trkpt lat="28.237100601196" lon="117.83924865723">
        <ele>6004.56</ele>
        <time>2026-06-17T10:44:34</time>
      </trkpt>
      <trkpt lat="28.215450286865" lon="117.81390380859">
        <ele>6012.18</ele>
        <time>2026-06-17T10:44:49</time>
      </trkpt>
      <trkpt lat="28.114330291748" lon="117.60119628906">
        <ele>6614.16</ele>
        <time>2026-06-17T10:46:52</time>
      </trkpt>
      <trkpt lat="28.101072311401" lon="117.56867980957">
        <ele>6614.16</ele>
        <time>2026-06-17T10:47:12</time>
      </trkpt>
      <trkpt lat="28.057529449463" lon="117.46228027344">
        <ele>6629.4</ele>
        <time>2026-06-17T10:48:12</time>
      </trkpt>
      <trkpt lat="28.032989501953" lon="117.40460205078">
        <ele>6903.72</ele>
        <time>2026-06-17T10:48:43</time>
      </trkpt>
      <trkpt lat="28.020257949829" lon="117.38062286377">
        <ele>7048.5</ele>
        <time>2026-06-17T10:48:58</time>
      </trkpt>
      <trkpt lat="28.007537841797" lon="117.3596572876">
        <ele>7193.28</ele>
        <time>2026-06-17T10:49:10</time>
      </trkpt>
      <trkpt lat="27.988880157471" lon="117.33333587646">
        <ele>7322.82</ele>
        <time>2026-06-17T10:49:30</time>
      </trkpt>
      <trkpt lat="27.973339080811" lon="117.3141784668">
        <ele>7437.12</ele>
        <time>2026-06-17T10:49:41</time>
      </trkpt>
      <trkpt lat="27.957780838013" lon="117.29569244385">
        <ele>7536.18</ele>
        <time>2026-06-17T10:49:55</time>
      </trkpt>
      <trkpt lat="27.908672332764" lon="117.23790740967">
        <ele>7802.88</ele>
        <time>2026-06-17T10:50:38</time>
      </trkpt>
      <trkpt lat="27.863794326782" lon="117.18550872803">
        <ele>7810.5</ele>
        <time>2026-06-17T10:51:10</time>
      </trkpt>
      <trkpt lat="27.845174789429" lon="117.16348266602">
        <ele>7810.5</ele>
        <time>2026-06-17T10:51:24</time>
      </trkpt>
      <trkpt lat="27.830429077148" lon="117.13980865479">
        <ele>7802.88</ele>
        <time>2026-06-17T10:51:38</time>
      </trkpt>
      <trkpt lat="27.820966720581" lon="117.11790466309">
        <ele>7810.5</ele>
        <time>2026-06-17T10:51:52</time>
      </trkpt>
      <trkpt lat="27.803602218628" lon="117.07369232178">
        <ele>7802.88</ele>
        <time>2026-06-17T10:52:11</time>
      </trkpt>
      <trkpt lat="27.792251586914" lon="117.04367828369">
        <ele>7802.88</ele>
        <time>2026-06-17T10:52:26</time>
      </trkpt>
      <trkpt lat="27.776416778564" lon="117.00212097168">
        <ele>7802.88</ele>
        <time>2026-06-17T10:52:51</time>
      </trkpt>
      <trkpt lat="27.759700775146" lon="116.95816802979">
        <ele>7802.88</ele>
        <time>2026-06-17T10:53:10</time>
      </trkpt>
      <trkpt lat="27.747833251953" lon="116.92691040039">
        <ele>7802.88</ele>
        <time>2026-06-17T10:53:25</time>
      </trkpt>
      <trkpt lat="27.736427307129" lon="116.89664459229">
        <ele>7802.88</ele>
        <time>2026-06-17T10:53:40</time>
      </trkpt>
      <trkpt lat="27.723579406738" lon="116.86283874512">
        <ele>7802.88</ele>
        <time>2026-06-17T10:54:00</time>
      </trkpt>
      <trkpt lat="27.71208190918" lon="116.83267974854">
        <ele>7802.88</ele>
        <time>2026-06-17T10:54:15</time>
      </trkpt>
      <trkpt lat="27.700536727905" lon="116.80252075195">
        <ele>7802.88</ele>
        <time>2026-06-17T10:54:30</time>
      </trkpt>
      <trkpt lat="27.68955039978" lon="116.77257537842">
        <ele>7802.88</ele>
        <time>2026-06-17T10:54:45</time>
      </trkpt>
      <trkpt lat="27.677673339844" lon="116.73994445801">
        <ele>7802.88</ele>
        <time>2026-06-17T10:54:59</time>
      </trkpt>
      <trkpt lat="27.665948867798" lon="116.70771026611">
        <ele>7802.88</ele>
        <time>2026-06-17T10:55:19</time>
      </trkpt>
      <trkpt lat="27.65478515625" lon="116.67708587646">
        <ele>7802.88</ele>
        <time>2026-06-17T10:55:34</time>
      </trkpt>
      <trkpt lat="27.643157958984" lon="116.64505767822">
        <ele>7802.88</ele>
        <time>2026-06-17T10:55:49</time>
      </trkpt>
      <trkpt lat="27.632383346558" lon="116.61559295654">
        <ele>7802.88</ele>
        <time>2026-06-17T10:56:03</time>
      </trkpt>
      <trkpt lat="27.621826171875" lon="116.58463287354">
        <ele>7802.88</ele>
        <time>2026-06-17T10:56:18</time>
      </trkpt>
      <trkpt lat="27.610969543457" lon="116.55004882812">
        <ele>7802.88</ele>
        <time>2026-06-17T10:56:33</time>
      </trkpt>
      <trkpt lat="27.599807739258" lon="116.51425933838">
        <ele>7802.88</ele>
        <time>2026-06-17T10:56:53</time>
      </trkpt>
      <trkpt lat="27.59065246582" lon="116.48477172852">
        <ele>7802.88</ele>
        <time>2026-06-17T10:57:08</time>
      </trkpt>
      <trkpt lat="27.577964782715" lon="116.44403839111">
        <ele>7802.88</ele>
        <time>2026-06-17T10:57:28</time>
      </trkpt>
      <trkpt lat="27.566509246826" lon="116.40727996826">
        <ele>7802.88</ele>
        <time>2026-06-17T10:57:43</time>
      </trkpt>
      <trkpt lat="27.555587768555" lon="116.37231445312">
        <ele>7802.88</ele>
        <time>2026-06-17T10:58:03</time>
      </trkpt>
      <trkpt lat="27.545928955078" lon="116.34163665771">
        <ele>7802.88</ele>
        <time>2026-06-17T10:58:18</time>
      </trkpt>
      <trkpt lat="27.535720825195" lon="116.30935668945">
        <ele>7802.88</ele>
        <time>2026-06-17T10:58:33</time>
      </trkpt>
      <trkpt lat="27.526107788086" lon="116.27867126465">
        <ele>7802.88</ele>
        <time>2026-06-17T10:58:48</time>
      </trkpt>
      <trkpt lat="27.515724182129" lon="116.24565124512">
        <ele>7802.88</ele>
        <time>2026-06-17T10:59:03</time>
      </trkpt>
      <trkpt lat="27.504133224487" lon="116.21290588379">
        <ele>7802.88</ele>
        <time>2026-06-17T10:59:18</time>
      </trkpt>
      <trkpt lat="27.49193572998" lon="116.18269348145">
        <ele>7810.5</ele>
        <time>2026-06-17T10:59:33</time>
      </trkpt>
      <trkpt lat="27.478820800781" lon="116.15036010742">
        <ele>7802.88</ele>
        <time>2026-06-17T10:59:52</time>
      </trkpt>
      <trkpt lat="27.467262268066" lon="116.12200164795">
        <ele>7802.88</ele>
        <time>2026-06-17T11:00:07</time>
      </trkpt>
      <trkpt lat="27.453506469727" lon="116.08848571777">
        <ele>7802.88</ele>
        <time>2026-06-17T11:00:22</time>
      </trkpt>
      <trkpt lat="27.441009521484" lon="116.05801391602">
        <ele>7810.5</ele>
        <time>2026-06-17T11:00:37</time>
      </trkpt>
      <trkpt lat="27.427551269531" lon="116.0251083374">
        <ele>7802.88</ele>
        <time>2026-06-17T11:00:57</time>
      </trkpt>
      <trkpt lat="27.415191650391" lon="115.99494934082">
        <ele>7802.88</ele>
        <time>2026-06-17T11:01:12</time>
      </trkpt>
      <trkpt lat="27.401275634766" lon="115.96069335938">
        <ele>7802.88</ele>
        <time>2026-06-17T11:01:27</time>
      </trkpt>
      <trkpt lat="27.388589859009" lon="115.92937469482">
        <ele>7802.88</ele>
        <time>2026-06-17T11:01:42</time>
      </trkpt>
      <trkpt lat="27.373180389404" lon="115.89102172852">
        <ele>7802.88</ele>
        <time>2026-06-17T11:02:02</time>
      </trkpt>
      <trkpt lat="27.360763549805" lon="115.86046600342">
        <ele>7802.88</ele>
        <time>2026-06-17T11:02:17</time>
      </trkpt>
      <trkpt lat="27.349159240723" lon="115.83197021484">
        <ele>7802.88</ele>
        <time>2026-06-17T11:02:32</time>
      </trkpt>
      <trkpt lat="27.336776733398" lon="115.80144500732">
        <ele>7802.88</ele>
        <time>2026-06-17T11:02:47</time>
      </trkpt>
      <trkpt lat="27.323318481445" lon="115.7682800293">
        <ele>7802.88</ele>
        <time>2026-06-17T11:03:02</time>
      </trkpt>
      <trkpt lat="27.309768676758" lon="115.73464202881">
        <ele>7802.88</ele>
        <time>2026-06-17T11:03:22</time>
      </trkpt>
      <trkpt lat="27.29320526123" lon="115.69358825684">
        <ele>7802.88</ele>
        <time>2026-06-17T11:03:42</time>
      </trkpt>
      <trkpt lat="27.27467918396" lon="115.64790344238">
        <ele>7810.5</ele>
        <time>2026-06-17T11:04:05</time>
      </trkpt>
      <trkpt lat="27.257129669189" lon="115.6092300415">
        <ele>7802.88</ele>
        <time>2026-06-17T11:04:25</time>
      </trkpt>
      <trkpt lat="27.239669799805" lon="115.58229827881">
        <ele>7802.88</ele>
        <time>2026-06-17T11:04:40</time>
      </trkpt>
      <trkpt lat="27.171569824219" lon="115.5231628418">
        <ele>7810.5</ele>
        <time>2026-06-17T11:05:24</time>
      </trkpt>
      <trkpt lat="27.136459350586" lon="115.49501800537">
        <ele>7802.88</ele>
        <time>2026-06-17T11:05:44</time>
      </trkpt>
      <trkpt lat="27.111700057983" lon="115.4754486084">
        <ele>7802.88</ele>
        <time>2026-06-17T11:05:59</time>
      </trkpt>
      <trkpt lat="27.090179443359" lon="115.45832824707">
        <ele>7802.88</ele>
        <time>2026-06-17T11:06:14</time>
      </trkpt>
      <trkpt lat="27.060287475586" lon="115.42588806152">
        <ele>7810.5</ele>
        <time>2026-06-17T11:06:32</time>
      </trkpt>
      <trkpt lat="27.046646118164" lon="115.39961242676">
        <ele>7802.88</ele>
        <time>2026-06-17T11:06:48</time>
      </trkpt>
      <trkpt lat="26.853050231934" lon="115.2389831543">
        <ele>8412.48</ele>
        <time>2026-06-17T11:08:48</time>
      </trkpt>
      <trkpt lat="26.825729370117" lon="115.23114013672">
        <ele>8420.1</ele>
        <time>2026-06-17T11:09:03</time>
      </trkpt>
      <trkpt lat="26.801149368286" lon="115.22794342041">
        <ele>8412.48</ele>
        <time>2026-06-17T11:09:17</time>
      </trkpt>
      <trkpt lat="26.741779327393" lon="115.22123718262">
        <ele>8412.48</ele>
        <time>2026-06-17T11:09:43</time>
      </trkpt>
      <trkpt lat="26.667530059814" lon="115.21309661865">
        <ele>8580.12</ele>
        <time>2026-06-17T11:10:21</time>
      </trkpt>
      <trkpt lat="26.637840270996" lon="115.20986938477">
        <ele>8671.56</ele>
        <time>2026-06-17T11:10:35</time>
      </trkpt>
      <trkpt lat="26.601480484009" lon="115.20585632324">
        <ele>8793.48</ele>
        <time>2026-06-17T11:10:52</time>
      </trkpt>
      <trkpt lat="26.573909759521" lon="115.20294952393">
        <ele>8877.3</ele>
        <time>2026-06-17T11:11:05</time>
      </trkpt>
      <trkpt lat="26.53729057312" lon="115.19925689697">
        <ele>8968.74</ele>
        <time>2026-06-17T11:11:23</time>
      </trkpt>
      <trkpt lat="26.487989425659" lon="115.19445037842">
        <ele>9098.28</ele>
        <time>2026-06-17T11:11:47</time>
      </trkpt>
      <trkpt lat="26.452789306641" lon="115.19097900391">
        <ele>9174.48</ele>
        <time>2026-06-17T11:12:05</time>
      </trkpt>
      <trkpt lat="26.427520751953" lon="115.18605041504">
        <ele>9174.48</ele>
        <time>2026-06-17T11:12:20</time>
      </trkpt>
      <trkpt lat="26.376779556274" lon="115.16165161133">
        <ele>9174.48</ele>
        <time>2026-06-17T11:12:47</time>
      </trkpt>
      <trkpt lat="26.351779937744" lon="115.13877868652">
        <ele>9174.48</ele>
        <time>2026-06-17T11:13:02</time>
      </trkpt>
      <trkpt lat="26.330089569092" lon="115.10983276367">
        <ele>9204.96</ele>
        <time>2026-06-17T11:13:16</time>
      </trkpt>
      <trkpt lat="26.311199188232" lon="115.07981872559">
        <ele>9281.16</ele>
        <time>2026-06-17T11:13:31</time>
      </trkpt>
      <trkpt lat="26.287260055542" lon="115.0414276123">
        <ele>9387.84</ele>
        <time>2026-06-17T11:13:56</time>
      </trkpt>
      <trkpt lat="26.268539428711" lon="115.01167297363">
        <ele>9464.04</ele>
        <time>2026-06-17T11:14:11</time>
      </trkpt>
      <trkpt lat="26.251550674438" lon="114.98448944092">
        <ele>9540.24</ele>
        <time>2026-06-17T11:14:25</time>
      </trkpt>
      <trkpt lat="26.232830047607" lon="114.954246521">
        <ele>9624.06</ele>
        <time>2026-06-17T11:14:40</time>
      </trkpt>
      <trkpt lat="26.212629318237" lon="114.92175292969">
        <ele>9707.88</ele>
        <time>2026-06-17T11:14:55</time>
      </trkpt>
      <trkpt lat="26.194709777832" lon="114.89497375488">
        <ele>9776.46</ele>
        <time>2026-06-17T11:15:10</time>
      </trkpt>
      <trkpt lat="26.174150466919" lon="114.86428833008">
        <ele>9784.08</ele>
        <time>2026-06-17T11:15:30</time>
      </trkpt>
      <trkpt lat="26.155429840088" lon="114.83619689941">
        <ele>9784.08</ele>
        <time>2026-06-17T11:15:45</time>
      </trkpt>
      <trkpt lat="26.133819580078" lon="114.81069946289">
        <ele>9791.7</ele>
        <time>2026-06-17T11:15:59</time>
      </trkpt>
      <trkpt lat="26.112920761108" lon="114.79260253906">
        <ele>9784.08</ele>
        <time>2026-06-17T11:16:14</time>
      </trkpt>
      <trkpt lat="26.072069168091" lon="114.76960754395">
        <ele>9784.08</ele>
        <time>2026-06-17T11:16:33</time>
      </trkpt>
      <trkpt lat="26.041259765625" lon="114.76007080078">
        <ele>9784.08</ele>
        <time>2026-06-17T11:16:48</time>
      </trkpt>
      <trkpt lat="26.006359100342" lon="114.75509643555">
        <ele>9791.7</ele>
        <time>2026-06-17T11:17:08</time>
      </trkpt>
      <trkpt lat="25.974380493164" lon="114.75556945801">
        <ele>9784.08</ele>
        <time>2026-06-17T11:17:21</time>
      </trkpt>
      <trkpt lat="25.939050674438" lon="114.75868988037">
        <ele>9791.7</ele>
        <time>2026-06-17T11:17:36</time>
      </trkpt>
      <trkpt lat="25.908229827881" lon="114.76069641113">
        <ele>9784.08</ele>
        <time>2026-06-17T11:17:51</time>
      </trkpt>
      <trkpt lat="25.876279830933" lon="114.76146697998">
        <ele>9791.7</ele>
        <time>2026-06-17T11:18:06</time>
      </trkpt>
      <trkpt lat="25.842399597168" lon="114.76139068604">
        <ele>9784.08</ele>
        <time>2026-06-17T11:18:21</time>
      </trkpt>
      <trkpt lat="25.802370071411" lon="114.76058959961">
        <ele>9784.08</ele>
        <time>2026-06-17T11:18:41</time>
      </trkpt>
      <trkpt lat="25.766370773315" lon="114.75982666016">
        <ele>9784.08</ele>
        <time>2026-06-17T11:19:01</time>
      </trkpt>
      <trkpt lat="25.734010696411" lon="114.75926971436">
        <ele>9784.08</ele>
        <time>2026-06-17T11:19:16</time>
      </trkpt>
      <trkpt lat="25.701639175415" lon="114.75875854492">
        <ele>9791.7</ele>
        <time>2026-06-17T11:19:31</time>
      </trkpt>
      <trkpt lat="25.670150756836" lon="114.75834655762">
        <ele>9784.08</ele>
        <time>2026-06-17T11:19:46</time>
      </trkpt>
      <trkpt lat="25.637832641602" lon="114.75748443604">
        <ele>9784.08</ele>
        <time>2026-06-17T11:20:01</time>
      </trkpt>
      <trkpt lat="25.606796264648" lon="114.755859375">
        <ele>9784.08</ele>
        <time>2026-06-17T11:20:15</time>
      </trkpt>
      <trkpt lat="25.574890136719" lon="114.75412750244">
        <ele>9784.08</ele>
        <time>2026-06-17T11:20:30</time>
      </trkpt>
      <trkpt lat="25.542570114136" lon="114.75234985352">
        <ele>9784.08</ele>
        <time>2026-06-17T11:20:45</time>
      </trkpt>
      <trkpt lat="25.510858535767" lon="114.75017547607">
        <ele>9784.08</ele>
        <time>2026-06-17T11:20:59</time>
      </trkpt>
      <trkpt lat="25.476409912109" lon="114.74768829346">
        <ele>9784.08</ele>
        <time>2026-06-17T11:21:14</time>
      </trkpt>
      <trkpt lat="25.444702148438" lon="114.74538421631">
        <ele>9784.08</ele>
        <time>2026-06-17T11:21:29</time>
      </trkpt>
      <trkpt lat="25.412380218506" lon="114.74304199219">
        <ele>9784.08</ele>
        <time>2026-06-17T11:21:43</time>
      </trkpt>
      <trkpt lat="25.378980636597" lon="114.74053955078">
        <ele>9784.08</ele>
        <time>2026-06-17T11:22:02</time>
      </trkpt>
      <trkpt lat="25.346250534058" lon="114.73779296875">
        <ele>9784.08</ele>
        <time>2026-06-17T11:22:17</time>
      </trkpt>
      <trkpt lat="25.31510925293" lon="114.73444366455">
        <ele>9784.08</ele>
        <time>2026-06-17T11:22:32</time>
      </trkpt>
      <trkpt lat="25.282800674438" lon="114.73007202148">
        <ele>9784.08</ele>
        <time>2026-06-17T11:22:47</time>
      </trkpt>
      <trkpt lat="25.251434326172" lon="114.72498321533">
        <ele>9784.08</ele>
        <time>2026-06-17T11:23:02</time>
      </trkpt>
      <trkpt lat="25.220119476318" lon="114.71913909912">
        <ele>9784.08</ele>
        <time>2026-06-17T11:23:17</time>
      </trkpt>
      <trkpt lat="25.189361572266" lon="114.71298217773">
        <ele>9784.08</ele>
        <time>2026-06-17T11:23:32</time>
      </trkpt>
      <trkpt lat="25.157913208008" lon="114.7064743042">
        <ele>9784.08</ele>
        <time>2026-06-17T11:23:46</time>
      </trkpt>
      <trkpt lat="25.12414932251" lon="114.69922637939">
        <ele>9784.08</ele>
        <time>2026-06-17T11:24:00</time>
      </trkpt>
      <trkpt lat="25.090438842773" lon="114.69192504883">
        <ele>9784.08</ele>
        <time>2026-06-17T11:24:19</time>
      </trkpt>
      <trkpt lat="25.057210922241" lon="114.68451690674">
        <ele>9784.08</ele>
        <time>2026-06-17T11:24:34</time>
      </trkpt>
      <trkpt lat="25.020849227905" lon="114.67633056641">
        <ele>9791.7</ele>
        <time>2026-06-17T11:24:49</time>
      </trkpt>
      <trkpt lat="24.986022949219" lon="114.66832733154">
        <ele>9784.08</ele>
        <time>2026-06-17T11:25:09</time>
      </trkpt>
      <trkpt lat="24.953475952148" lon="114.66079711914">
        <ele>9791.7</ele>
        <time>2026-06-17T11:25:23</time>
      </trkpt>
      <trkpt lat="24.922210693359" lon="114.65352630615">
        <ele>9784.08</ele>
        <time>2026-06-17T11:25:38</time>
      </trkpt>
      <trkpt lat="24.890737533569" lon="114.64611816406">
        <ele>9784.08</ele>
        <time>2026-06-17T11:25:53</time>
      </trkpt>
      <trkpt lat="24.858615875244" lon="114.63849639893">
        <ele>9791.7</ele>
        <time>2026-06-17T11:26:08</time>
      </trkpt>
      <trkpt lat="24.827590942383" lon="114.6311416626">
        <ele>9784.08</ele>
        <time>2026-06-17T11:26:23</time>
      </trkpt>
      <trkpt lat="24.796325683594" lon="114.62366485596">
        <ele>9784.08</ele>
        <time>2026-06-17T11:26:38</time>
      </trkpt>
      <trkpt lat="24.765518188477" lon="114.61629486084">
        <ele>9784.08</ele>
        <time>2026-06-17T11:26:53</time>
      </trkpt>
      <trkpt lat="24.739488601685" lon="114.61000061035">
        <ele>9784.08</ele>
        <time>2026-06-17T11:27:07</time>
      </trkpt>
      <trkpt lat="24.709043502808" lon="114.6007232666">
        <ele>9784.08</ele>
        <time>2026-06-17T11:27:21</time>
      </trkpt>
      <trkpt lat="24.679733276367" lon="114.58715057373">
        <ele>9784.08</ele>
        <time>2026-06-17T11:27:36</time>
      </trkpt>
      <trkpt lat="24.651924133301" lon="114.57025146484">
        <ele>9784.08</ele>
        <time>2026-06-17T11:27:51</time>
      </trkpt>
      <trkpt lat="24.623712539673" lon="114.55252838135">
        <ele>9784.08</ele>
        <time>2026-06-17T11:28:06</time>
      </trkpt>
      <trkpt lat="24.592758178711" lon="114.53298187256">
        <ele>9784.08</ele>
        <time>2026-06-17T11:28:21</time>
      </trkpt>
      <trkpt lat="24.563613891602" lon="114.51459503174">
        <ele>9784.08</ele>
        <time>2026-06-17T11:28:36</time>
      </trkpt>
      <trkpt lat="24.539129257202" lon="114.49915313721">
        <ele>9791.7</ele>
        <time>2026-06-17T11:28:51</time>
      </trkpt>
      <trkpt lat="24.513977050781" lon="114.48333740234">
        <ele>9784.08</ele>
        <time>2026-06-17T11:29:06</time>
      </trkpt>
      <trkpt lat="24.484220504761" lon="114.4645690918">
        <ele>9791.7</ele>
        <time>2026-06-17T11:29:21</time>
      </trkpt>
      <trkpt lat="24.455200195312" lon="114.44631195068">
        <ele>9784.08</ele>
        <time>2026-06-17T11:29:36</time>
      </trkpt>
      <trkpt lat="24.425170898438" lon="114.42742919922">
        <ele>9784.08</ele>
        <time>2026-06-17T11:29:51</time>
      </trkpt>
      <trkpt lat="24.397239685059" lon="114.40985870361">
        <ele>9784.08</ele>
        <time>2026-06-17T11:30:06</time>
      </trkpt>
      <trkpt lat="24.373540878296" lon="114.39504241943">
        <ele>9791.7</ele>
        <time>2026-06-17T11:30:21</time>
      </trkpt>
      <trkpt lat="24.349960327148" lon="114.38028717041">
        <ele>9791.7</ele>
        <time>2026-06-17T11:30:34</time>
      </trkpt>
      <trkpt lat="24.320150375366" lon="114.36166381836">
        <ele>9784.08</ele>
        <time>2026-06-17T11:30:49</time>
      </trkpt>
      <trkpt lat="24.289260864258" lon="114.34230041504">
        <ele>9784.08</ele>
        <time>2026-06-17T11:31:04</time>
      </trkpt>
      <trkpt lat="24.268100738525" lon="114.32907104492">
        <ele>9784.08</ele>
        <time>2026-06-17T11:31:17</time>
      </trkpt>
      <trkpt lat="24.236019134521" lon="114.30898284912">
        <ele>9784.08</ele>
        <time>2026-06-17T11:31:36</time>
      </trkpt>
      <trkpt lat="24.203210830688" lon="114.28843688965">
        <ele>9784.08</ele>
        <time>2026-06-17T11:31:51</time>
      </trkpt>
      <trkpt lat="24.174299240112" lon="114.27034759521">
        <ele>9784.08</ele>
        <time>2026-06-17T11:32:06</time>
      </trkpt>
      <trkpt lat="24.144229888916" lon="114.2515411377">
        <ele>9784.08</ele>
        <time>2026-06-17T11:32:25</time>
      </trkpt>
      <trkpt lat="24.106191635132" lon="114.22780609131">
        <ele>9784.08</ele>
        <time>2026-06-17T11:32:45</time>
      </trkpt>
      <trkpt lat="24.074069976807" lon="114.20771026611">
        <ele>9791.7</ele>
        <time>2026-06-17T11:33:00</time>
      </trkpt>
      <trkpt lat="24.044679641724" lon="114.18939971924">
        <ele>9784.08</ele>
        <time>2026-06-17T11:33:15</time>
      </trkpt>
      <trkpt lat="24.013820648193" lon="114.17018127441">
        <ele>9784.08</ele>
        <time>2026-06-17T11:33:34</time>
      </trkpt>
      <trkpt lat="23.98517036438" lon="114.15232086182">
        <ele>9791.7</ele>
        <time>2026-06-17T11:33:49</time>
      </trkpt>
      <trkpt lat="23.955410003662" lon="114.13381195068">
        <ele>9784.08</ele>
        <time>2026-06-17T11:34:04</time>
      </trkpt>
      <trkpt lat="23.927169799805" lon="114.11615753174">
        <ele>9784.08</ele>
        <time>2026-06-17T11:34:19</time>
      </trkpt>
      <trkpt lat="23.899290084839" lon="114.0987701416">
        <ele>9784.08</ele>
        <time>2026-06-17T11:34:34</time>
      </trkpt>
      <trkpt lat="23.870639801025" lon="114.08100891113">
        <ele>9784.08</ele>
        <time>2026-06-17T11:34:49</time>
      </trkpt>
      <trkpt lat="23.840520858765" lon="114.06224822998">
        <ele>9784.08</ele>
        <time>2026-06-17T11:35:04</time>
      </trkpt>
      <trkpt lat="23.810710906982" lon="114.04373168945">
        <ele>9784.08</ele>
        <time>2026-06-17T11:35:19</time>
      </trkpt>
      <trkpt lat="23.782230377197" lon="114.02606201172">
        <ele>9784.08</ele>
        <time>2026-06-17T11:35:34</time>
      </trkpt>
      <trkpt lat="23.753402709961" lon="114.00812530518">
        <ele>9784.08</ele>
        <time>2026-06-17T11:35:49</time>
      </trkpt>
      <trkpt lat="23.725719451904" lon="113.9909286499">
        <ele>9784.08</ele>
        <time>2026-06-17T11:36:04</time>
      </trkpt>
      <trkpt lat="23.696140289307" lon="113.97257232666">
        <ele>9784.08</ele>
        <time>2026-06-17T11:36:19</time>
      </trkpt>
      <trkpt lat="23.667434692383" lon="113.95482635498">
        <ele>9784.08</ele>
        <time>2026-06-17T11:36:34</time>
      </trkpt>
      <trkpt lat="23.63689994812" lon="113.93589782715">
        <ele>9784.08</ele>
        <time>2026-06-17T11:36:53</time>
      </trkpt>
      <trkpt lat="23.608083724976" lon="113.91801452637">
        <ele>9784.08</ele>
        <time>2026-06-17T11:37:08</time>
      </trkpt>
      <trkpt lat="23.580520629883" lon="113.90096282959">
        <ele>9784.08</ele>
        <time>2026-06-17T11:37:23</time>
      </trkpt>
      <trkpt lat="23.552640914917" lon="113.88371276855">
        <ele>9784.08</ele>
        <time>2026-06-17T11:37:38</time>
      </trkpt>
      <trkpt lat="23.521402359009" lon="113.86510467529">
        <ele>9784.08</ele>
        <time>2026-06-17T11:37:53</time>
      </trkpt>
      <trkpt lat="23.490966796875" lon="113.85186767578">
        <ele>9784.08</ele>
        <time>2026-06-17T11:38:08</time>
      </trkpt>
      <trkpt lat="23.460699081421" lon="113.84226226807">
        <ele>9784.08</ele>
        <time>2026-06-17T11:38:22</time>
      </trkpt>
      <trkpt lat="23.428903579712" lon="113.83264923096">
        <ele>9784.08</ele>
        <time>2026-06-17T11:38:36</time>
      </trkpt>
      <trkpt lat="23.405389785767" lon="113.82553100586">
        <ele>9784.08</ele>
        <time>2026-06-17T11:38:50</time>
      </trkpt>
      <trkpt lat="23.374145507812" lon="113.81610870361">
        <ele>9784.08</ele>
        <time>2026-06-17T11:39:05</time>
      </trkpt>
      <trkpt lat="23.343109130859" lon="113.80672454834">
        <ele>9784.08</ele>
        <time>2026-06-17T11:39:19</time>
      </trkpt>
      <trkpt lat="23.309970855713" lon="113.79669189453">
        <ele>9784.08</ele>
        <time>2026-06-17T11:39:34</time>
      </trkpt>
      <trkpt lat="23.278469085693" lon="113.78720092773">
        <ele>9784.08</ele>
        <time>2026-06-17T11:39:49</time>
      </trkpt>
      <trkpt lat="23.246700286865" lon="113.7776184082">
        <ele>9791.7</ele>
        <time>2026-06-17T11:40:03</time>
      </trkpt>
      <trkpt lat="23.214477539062" lon="113.76787567139">
        <ele>9791.7</ele>
        <time>2026-06-17T11:40:18</time>
      </trkpt>
      <trkpt lat="23.183526992798" lon="113.75854492188">
        <ele>9784.08</ele>
        <time>2026-06-17T11:40:33</time>
      </trkpt>
      <trkpt lat="23.151870727539" lon="113.74903106689">
        <ele>9791.7</ele>
        <time>2026-06-17T11:40:48</time>
      </trkpt>
      <trkpt lat="23.12021446228" lon="113.73952484131">
        <ele>9784.08</ele>
        <time>2026-06-17T11:41:03</time>
      </trkpt>
      <trkpt lat="23.087860107422" lon="113.72982025146">
        <ele>9784.08</ele>
        <time>2026-06-17T11:41:18</time>
      </trkpt>
      <trkpt lat="23.053985595703" lon="113.71963500977">
        <ele>9784.08</ele>
        <time>2026-06-17T11:41:37</time>
      </trkpt>
      <trkpt lat="23.022779464722" lon="113.71028137207">
        <ele>9784.08</ele>
        <time>2026-06-17T11:41:52</time>
      </trkpt>
      <trkpt lat="22.990720748901" lon="113.70066070557">
        <ele>9784.08</ele>
        <time>2026-06-17T11:42:07</time>
      </trkpt>
      <trkpt lat="22.958358764648" lon="113.69097137451">
        <ele>9784.08</ele>
        <time>2026-06-17T11:42:22</time>
      </trkpt>
      <trkpt lat="22.927116394043" lon="113.68158721924">
        <ele>9784.08</ele>
        <time>2026-06-17T11:42:37</time>
      </trkpt>
      <trkpt lat="22.895135879517" lon="113.67202758789">
        <ele>9784.08</ele>
        <time>2026-06-17T11:42:51</time>
      </trkpt>
      <trkpt lat="22.862363815308" lon="113.662109375">
        <ele>9791.7</ele>
        <time>2026-06-17T11:43:06</time>
      </trkpt>
      <trkpt lat="22.830184936523" lon="113.65231323242">
        <ele>9784.08</ele>
        <time>2026-06-17T11:43:21</time>
      </trkpt>
      <trkpt lat="22.79835319519" lon="113.642578125">
        <ele>9784.08</ele>
        <time>2026-06-17T11:43:36</time>
      </trkpt>
      <trkpt lat="22.766098022461" lon="113.63273620605">
        <ele>9784.08</ele>
        <time>2026-06-17T11:43:51</time>
      </trkpt>
      <trkpt lat="22.734466552734" lon="113.62310028076">
        <ele>9784.08</ele>
        <time>2026-06-17T11:44:06</time>
      </trkpt>
      <trkpt lat="22.702835083008" lon="113.61346435547">
        <ele>9784.08</ele>
        <time>2026-06-17T11:44:21</time>
      </trkpt>
      <trkpt lat="22.670791625977" lon="113.60372924805">
        <ele>9791.7</ele>
        <time>2026-06-17T11:44:35</time>
      </trkpt>
      <trkpt lat="22.638538360596" lon="113.59390258789">
        <ele>9784.08</ele>
        <time>2026-06-17T11:44:50</time>
      </trkpt>
      <trkpt lat="22.606292724609" lon="113.58405303955">
        <ele>9784.08</ele>
        <time>2026-06-17T11:45:05</time>
      </trkpt>
      <trkpt lat="22.574064254761" lon="113.57431793213">
        <ele>9784.08</ele>
        <time>2026-06-17T11:45:20</time>
      </trkpt>
      <trkpt lat="22.542921066284" lon="113.56485748291">
        <ele>9784.08</ele>
        <time>2026-06-17T11:45:34</time>
      </trkpt>
      <trkpt lat="22.510614395142" lon="113.55493927002">
        <ele>9784.08</ele>
        <time>2026-06-17T11:45:49</time>
      </trkpt>
      <trkpt lat="22.478353500366" lon="113.54486846924">
        <ele>9784.08</ele>
        <time>2026-06-17T11:46:04</time>
      </trkpt>
      <trkpt lat="22.447399139404" lon="113.53520965576">
        <ele>9784.08</ele>
        <time>2026-06-17T11:46:19</time>
      </trkpt>
      <trkpt lat="22.414720535278" lon="113.52503204346">
        <ele>9784.08</ele>
        <time>2026-06-17T11:46:34</time>
      </trkpt>
      <trkpt lat="22.383340835571" lon="113.51522064209">
        <ele>9784.08</ele>
        <time>2026-06-17T11:46:49</time>
      </trkpt>
      <trkpt lat="22.351364135742" lon="113.50514984131">
        <ele>9784.08</ele>
        <time>2026-06-17T11:47:04</time>
      </trkpt>
      <trkpt lat="22.320831298828" lon="113.49276733398">
        <ele>9784.08</ele>
        <time>2026-06-17T11:47:19</time>
      </trkpt>
      <trkpt lat="22.290664672852" lon="113.47598266602">
        <ele>9784.08</ele>
        <time>2026-06-17T11:47:34</time>
      </trkpt>
      <trkpt lat="22.263790130615" lon="113.45652008057">
        <ele>9784.08</ele>
        <time>2026-06-17T11:47:49</time>
      </trkpt>
      <trkpt lat="22.239028930664" lon="113.43383789062">
        <ele>9784.08</ele>
        <time>2026-06-17T11:48:04</time>
      </trkpt>
      <trkpt lat="22.216779708862" lon="113.40831756592">
        <ele>9738.36</ele>
        <time>2026-06-17T11:48:19</time>
      </trkpt>
      <trkpt lat="22.197177886963" lon="113.37997436523">
        <ele>9677.4</ele>
        <time>2026-06-17T11:48:34</time>
      </trkpt>
      <trkpt lat="22.180610656738" lon="113.34895324707">
        <ele>9624.06</ele>
        <time>2026-06-17T11:48:49</time>
      </trkpt>
      <trkpt lat="22.167617797852" lon="113.31743621826">
        <ele>9563.1</ele>
        <time>2026-06-17T11:49:04</time>
      </trkpt>
      <trkpt lat="22.155349731445" lon="113.28547668457">
        <ele>9509.76</ele>
        <time>2026-06-17T11:49:19</time>
      </trkpt>
      <trkpt lat="22.143173217773" lon="113.25360870361">
        <ele>9456.42</ele>
        <time>2026-06-17T11:49:34</time>
      </trkpt>
      <trkpt lat="22.130655288696" lon="113.22122955322">
        <ele>9403.08</ele>
        <time>2026-06-17T11:49:49</time>
      </trkpt>
      <trkpt lat="22.120599746704" lon="113.1965637207">
        <ele>9357.36</ele>
        <time>2026-06-17T11:50:03</time>
      </trkpt>
      <trkpt lat="22.107879638672" lon="113.16596984863">
        <ele>9304.02</ele>
        <time>2026-06-17T11:50:18</time>
      </trkpt>
      <trkpt lat="22.094789505005" lon="113.13485717773">
        <ele>9250.68</ele>
        <time>2026-06-17T11:50:33</time>
      </trkpt>
      <trkpt lat="22.081558227539" lon="113.10344696045">
        <ele>9197.34</ele>
        <time>2026-06-17T11:50:48</time>
      </trkpt>
      <trkpt lat="22.067670822144" lon="113.07053375244">
        <ele>9144.0</ele>
        <time>2026-06-17T11:51:03</time>
      </trkpt>
      <trkpt lat="22.054494857788" lon="113.03909301758">
        <ele>9067.8</ele>
        <time>2026-06-17T11:51:18</time>
      </trkpt>
      <trkpt lat="22.041460037231" lon="113.00801849365">
        <ele>8983.98</ele>
        <time>2026-06-17T11:51:33</time>
      </trkpt>
      <trkpt lat="22.029281616211" lon="112.97875213623">
        <ele>8907.78</ele>
        <time>2026-06-17T11:51:48</time>
      </trkpt>
      <trkpt lat="22.017150878906" lon="112.9482421875">
        <ele>8831.58</ele>
        <time>2026-06-17T11:52:03</time>
      </trkpt>
      <trkpt lat="22.005569458008" lon="112.91857910156">
        <ele>8694.42</ele>
        <time>2026-06-17T11:52:18</time>
      </trkpt>
      <trkpt lat="21.994300842285" lon="112.88935089111">
        <ele>8526.78</ele>
        <time>2026-06-17T11:52:33</time>
      </trkpt>
      <trkpt lat="21.98291015625" lon="112.85990142822">
        <ele>8321.04</ele>
        <time>2026-06-17T11:52:48</time>
      </trkpt>
      <trkpt lat="21.971538543701" lon="112.83045196533">
        <ele>8107.68</ele>
        <time>2026-06-17T11:53:03</time>
      </trkpt>
      <trkpt lat="21.960205078125" lon="112.80152130127">
        <ele>7901.94</ele>
        <time>2026-06-17T11:53:18</time>
      </trkpt>
      <trkpt lat="21.948541641235" lon="112.77246856689">
        <ele>7711.44</ele>
        <time>2026-06-17T11:53:33</time>
      </trkpt>
      <trkpt lat="21.937183380127" lon="112.74419403076">
        <ele>7520.94</ele>
        <time>2026-06-17T11:53:48</time>
      </trkpt>
      <trkpt lat="21.925685882568" lon="112.71575927734">
        <ele>7330.44</ele>
        <time>2026-06-17T11:54:03</time>
      </trkpt>
      <trkpt lat="21.914337158203" lon="112.68766784668">
        <ele>7139.94</ele>
        <time>2026-06-17T11:54:18</time>
      </trkpt>
      <trkpt lat="21.903009414673" lon="112.65960693359">
        <ele>7010.4</ele>
        <time>2026-06-17T11:54:33</time>
      </trkpt>
      <trkpt lat="21.891981124878" lon="112.63229370117">
        <ele>6896.1</ele>
        <time>2026-06-17T11:54:48</time>
      </trkpt>
      <trkpt lat="21.881320953369" lon="112.60594940186">
        <ele>6781.8</ele>
        <time>2026-06-17T11:55:03</time>
      </trkpt>
      <trkpt lat="21.870670318604" lon="112.57965087891">
        <ele>6675.12</ele>
        <time>2026-06-17T11:55:18</time>
      </trkpt>
      <trkpt lat="21.860418319702" lon="112.5542678833">
        <ele>6560.82</ele>
        <time>2026-06-17T11:55:33</time>
      </trkpt>
      <trkpt lat="21.850250244141" lon="112.52906036377">
        <ele>6454.14</ele>
        <time>2026-06-17T11:55:48</time>
      </trkpt>
      <trkpt lat="21.840587615967" lon="112.50457763672">
        <ele>6339.84</ele>
        <time>2026-06-17T11:56:03</time>
      </trkpt>
      <trkpt lat="21.83350944519" lon="112.47910308838">
        <ele>6217.92</ele>
        <time>2026-06-17T11:56:18</time>
      </trkpt>
      <trkpt lat="21.831602096558" lon="112.45305633545">
        <ele>6111.24</ele>
        <time>2026-06-17T11:56:33</time>
      </trkpt>
      <trkpt lat="21.830249786377" lon="112.4250869751">
        <ele>5989.32</ele>
        <time>2026-06-17T11:56:48</time>
      </trkpt>
      <trkpt lat="21.8293800354" lon="112.39962005615">
        <ele>5875.02</ele>
        <time>2026-06-17T11:57:03</time>
      </trkpt>
      <trkpt lat="21.828735351562" lon="112.37395477295">
        <ele>5753.1</ele>
        <time>2026-06-17T11:57:18</time>
      </trkpt>
      <trkpt lat="21.828140258789" lon="112.34903717041">
        <ele>5646.42</ele>
        <time>2026-06-17T11:57:33</time>
      </trkpt>
      <trkpt lat="21.827360153198" lon="112.32486724854">
        <ele>5532.12</ele>
        <time>2026-06-17T11:57:48</time>
      </trkpt>
      <trkpt lat="21.826620101929" lon="112.29969787598">
        <ele>5425.44</ele>
        <time>2026-06-17T11:58:03</time>
      </trkpt>
      <trkpt lat="21.826169967651" lon="112.27597808838">
        <ele>5402.58</ele>
        <time>2026-06-17T11:58:18</time>
      </trkpt>
      <trkpt lat="21.825899124146" lon="112.25215911865">
        <ele>5394.96</ele>
        <time>2026-06-17T11:58:38</time>
      </trkpt>
      <trkpt lat="21.825689315796" lon="112.22782897949">
        <ele>5394.96</ele>
        <time>2026-06-17T11:58:53</time>
      </trkpt>
      <trkpt lat="21.825580596924" lon="112.20536804199">
        <ele>5402.58</ele>
        <time>2026-06-17T11:59:08</time>
      </trkpt>
      <trkpt lat="21.825410842896" lon="112.18164825439">
        <ele>5394.96</ele>
        <time>2026-06-17T11:59:23</time>
      </trkpt>
      <trkpt lat="21.825269699097" lon="112.15738677979">
        <ele>5394.96</ele>
        <time>2026-06-17T11:59:38</time>
      </trkpt>
      <trkpt lat="21.825040817261" lon="112.11979675293">
        <ele>5394.96</ele>
        <time>2026-06-17T11:59:58</time>
      </trkpt>
      <trkpt lat="21.826900482178" lon="112.09594726562">
        <ele>5394.96</ele>
        <time>2026-06-17T12:00:13</time>
      </trkpt>
      <trkpt lat="21.830390930176" lon="112.07260131836">
        <ele>5394.96</ele>
        <time>2026-06-17T12:00:28</time>
      </trkpt>
      <trkpt lat="21.834140777588" lon="112.04756164551">
        <ele>5394.96</ele>
        <time>2026-06-17T12:00:48</time>
      </trkpt>
      <trkpt lat="21.837789535522" lon="112.02352142334">
        <ele>5394.96</ele>
        <time>2026-06-17T12:01:03</time>
      </trkpt>
      <trkpt lat="21.841279983521" lon="112.00006866455">
        <ele>5394.96</ele>
        <time>2026-06-17T12:01:18</time>
      </trkpt>
      <trkpt lat="21.844730377197" lon="111.97692871094">
        <ele>5394.96</ele>
        <time>2026-06-17T12:01:33</time>
      </trkpt>
      <trkpt lat="21.84827041626" lon="111.95301818848">
        <ele>5394.96</ele>
        <time>2026-06-17T12:01:48</time>
      </trkpt>
      <trkpt lat="21.851715087891" lon="111.9299621582">
        <ele>5394.96</ele>
        <time>2026-06-17T12:02:03</time>
      </trkpt>
      <trkpt lat="21.855623245239" lon="111.9059753418">
        <ele>5402.58</ele>
        <time>2026-06-17T12:02:18</time>
      </trkpt>
      <trkpt lat="21.859630584717" lon="111.88217163086">
        <ele>5394.96</ele>
        <time>2026-06-17T12:02:33</time>
      </trkpt>
      <trkpt lat="21.863489151001" lon="111.85883331299">
        <ele>5394.96</ele>
        <time>2026-06-17T12:02:48</time>
      </trkpt>
      <trkpt lat="21.867509841919" lon="111.8353805542">
        <ele>5394.96</ele>
        <time>2026-06-17T12:03:03</time>
      </trkpt>
      <trkpt lat="21.871719360352" lon="111.81130981445">
        <ele>5402.58</ele>
        <time>2026-06-17T12:03:18</time>
      </trkpt>
      <trkpt lat="21.875640869141" lon="111.7876663208">
        <ele>5394.96</ele>
        <time>2026-06-17T12:03:33</time>
      </trkpt>
      <trkpt lat="21.878810882568" lon="111.7653427124">
        <ele>5394.96</ele>
        <time>2026-06-17T12:03:48</time>
      </trkpt>
      <trkpt lat="21.879459381104" lon="111.74153900146">
        <ele>5402.58</ele>
        <time>2026-06-17T12:04:03</time>
      </trkpt>
      <trkpt lat="21.877670288086" lon="111.71643066406">
        <ele>5394.96</ele>
        <time>2026-06-17T12:04:18</time>
      </trkpt>
      <trkpt lat="21.875179290771" lon="111.69397735596">
        <ele>5394.96</ele>
        <time>2026-06-17T12:04:33</time>
      </trkpt>
      <trkpt lat="21.872449874878" lon="111.66998291016">
        <ele>5394.96</ele>
        <time>2026-06-17T12:04:48</time>
      </trkpt>
      <trkpt lat="21.869930267334" lon="111.64820861816">
        <ele>5394.96</ele>
        <time>2026-06-17T12:05:03</time>
      </trkpt>
      <trkpt lat="21.867359161377" lon="111.62618255615">
        <ele>5387.34</ele>
        <time>2026-06-17T12:05:18</time>
      </trkpt>
      <trkpt lat="21.864810943604" lon="111.6042098999">
        <ele>5265.42</ele>
        <time>2026-06-17T12:05:33</time>
      </trkpt>
      <trkpt lat="21.862230300903" lon="111.5824432373">
        <ele>5120.64</ele>
        <time>2026-06-17T12:05:48</time>
      </trkpt>
      <trkpt lat="21.859630584717" lon="111.56051635742">
        <ele>4983.48</ele>
        <time>2026-06-17T12:06:03</time>
      </trkpt>
      <trkpt lat="21.857070922852" lon="111.5391998291">
        <ele>4846.32</ele>
        <time>2026-06-17T12:06:18</time>
      </trkpt>
      <trkpt lat="21.854459762573" lon="111.51731872559">
        <ele>4701.54</ele>
        <time>2026-06-17T12:06:33</time>
      </trkpt>
      <trkpt lat="21.851989746094" lon="111.4967880249">
        <ele>4564.38</ele>
        <time>2026-06-17T12:06:48</time>
      </trkpt>
      <trkpt lat="21.84952545166" lon="111.47592926025">
        <ele>4427.22</ele>
        <time>2026-06-17T12:07:03</time>
      </trkpt>
      <trkpt lat="21.84700012207" lon="111.4548034668">
        <ele>4297.68</ele>
        <time>2026-06-17T12:07:18</time>
      </trkpt>
      <trkpt lat="21.844440460205" lon="111.4337310791">
        <ele>4160.52</ele>
        <time>2026-06-17T12:07:33</time>
      </trkpt>
      <trkpt lat="21.841920852661" lon="111.41310119629">
        <ele>4015.74</ele>
        <time>2026-06-17T12:07:48</time>
      </trkpt>
      <trkpt lat="21.839450836182" lon="111.39228057861">
        <ele>3878.58</ele>
        <time>2026-06-17T12:08:03</time>
      </trkpt>
      <trkpt lat="21.837049484253" lon="111.3724822998">
        <ele>3741.42</ele>
        <time>2026-06-17T12:08:18</time>
      </trkpt>
      <trkpt lat="21.834550857544" lon="111.35192871094">
        <ele>3627.12</ele>
        <time>2026-06-17T12:08:33</time>
      </trkpt>
      <trkpt lat="21.832120895386" lon="111.33148193359">
        <ele>3604.26</ele>
        <time>2026-06-17T12:08:48</time>
      </trkpt>
      <trkpt lat="21.829740524292" lon="111.31240844727">
        <ele>3596.64</ele>
        <time>2026-06-17T12:09:03</time>
      </trkpt>
      <trkpt lat="21.827459335327" lon="111.29369354248">
        <ele>3596.64</ele>
        <time>2026-06-17T12:09:18</time>
      </trkpt>
      <trkpt lat="21.825119018555" lon="111.2741317749">
        <ele>3596.64</ele>
        <time>2026-06-17T12:09:33</time>
      </trkpt>
      <trkpt lat="21.82299041748" lon="111.25682067871">
        <ele>3558.54</ele>
        <time>2026-06-17T12:09:48</time>
      </trkpt>
      <trkpt lat="21.821039199829" lon="111.24072265625">
        <ele>3489.96</ele>
        <time>2026-06-17T12:10:03</time>
      </trkpt>
      <trkpt lat="21.819080352783" lon="111.22421264648">
        <ele>3421.38</ele>
        <time>2026-06-17T12:10:18</time>
      </trkpt>
      <trkpt lat="21.817289352417" lon="111.20966339111">
        <ele>3345.18</ele>
        <time>2026-06-17T12:10:33</time>
      </trkpt>
      <trkpt lat="21.815500259399" lon="111.1951675415">
        <ele>3284.22</ele>
        <time>2026-06-17T12:10:48</time>
      </trkpt>
      <trkpt lat="21.813680648804" lon="111.180519104">
        <ele>3208.02</ele>
        <time>2026-06-17T12:11:03</time>
      </trkpt>
      <trkpt lat="21.811960220337" lon="111.16622924805">
        <ele>3139.44</ele>
        <time>2026-06-17T12:11:18</time>
      </trkpt>
      <trkpt lat="21.810060501099" lon="111.15087890625">
        <ele>3070.86</ele>
        <time>2026-06-17T12:11:33</time>
      </trkpt>
      <trkpt lat="21.80818939209" lon="111.13540649414">
        <ele>2987.04</ele>
        <time>2026-06-17T12:11:53</time>
      </trkpt>
      <trkpt lat="21.806140899658" lon="111.11862182617">
        <ele>2910.84</ele>
        <time>2026-06-17T12:12:08</time>
      </trkpt>
      <trkpt lat="21.804019927979" lon="111.10093688965">
        <ele>2819.4</ele>
        <time>2026-06-17T12:12:28</time>
      </trkpt>
      <trkpt lat="21.80219078064" lon="111.08615875244">
        <ele>2750.82</ele>
        <time>2026-06-17T12:12:43</time>
      </trkpt>
      <trkpt lat="21.800180435181" lon="111.0699005127">
        <ele>2712.72</ele>
        <time>2026-06-17T12:12:58</time>
      </trkpt>
      <trkpt lat="21.798639297485" lon="111.0574798584">
        <ele>2674.62</ele>
        <time>2026-06-17T12:13:13</time>
      </trkpt>
      <trkpt lat="21.796970367432" lon="111.04376220703">
        <ele>2636.52</ele>
        <time>2026-06-17T12:13:28</time>
      </trkpt>
      <trkpt lat="21.795249938965" lon="111.02982330322">
        <ele>2583.18</ele>
        <time>2026-06-17T12:13:43</time>
      </trkpt>
      <trkpt lat="21.793380737305" lon="111.01490783691">
        <ele>2522.22</ele>
        <time>2026-06-17T12:13:58</time>
      </trkpt>
      <trkpt lat="21.791709899902" lon="111.00142669678">
        <ele>2468.88</ele>
        <time>2026-06-17T12:14:13</time>
      </trkpt>
      <trkpt lat="21.790079116821" lon="110.98784637451">
        <ele>2415.54</ele>
        <time>2026-06-17T12:14:28</time>
      </trkpt>
      <trkpt lat="21.788450241089" lon="110.97489929199">
        <ele>2362.2</ele>
        <time>2026-06-17T12:14:43</time>
      </trkpt>
      <trkpt lat="21.786680221558" lon="110.9602432251">
        <ele>2308.86</ele>
        <time>2026-06-17T12:14:58</time>
      </trkpt>
      <trkpt lat="21.784999847412" lon="110.94705963135">
        <ele>2255.52</ele>
        <time>2026-06-17T12:15:13</time>
      </trkpt>
      <trkpt lat="21.783279418945" lon="110.93312835693">
        <ele>2202.18</ele>
        <time>2026-06-17T12:15:28</time>
      </trkpt>
      <trkpt lat="21.781560897827" lon="110.91877746582">
        <ele>2148.84</ele>
        <time>2026-06-17T12:15:43</time>
      </trkpt>
      <trkpt lat="21.779850006104" lon="110.90508270264">
        <ele>2095.5</ele>
        <time>2026-06-17T12:15:58</time>
      </trkpt>
      <trkpt lat="21.778060913086" lon="110.89070129395">
        <ele>2042.16</ele>
        <time>2026-06-17T12:16:18</time>
      </trkpt>
      <trkpt lat="21.776319503784" lon="110.87677001953">
        <ele>1981.2</ele>
        <time>2026-06-17T12:16:33</time>
      </trkpt>
      <trkpt lat="21.774440765381" lon="110.86145782471">
        <ele>1935.48</ele>
        <time>2026-06-17T12:16:48</time>
      </trkpt>
      <trkpt lat="21.772710800171" lon="110.84755706787">
        <ele>1897.38</ele>
        <time>2026-06-17T12:17:03</time>
      </trkpt>
      <trkpt lat="21.770969390869" lon="110.83361816406">
        <ele>1859.28</ele>
        <time>2026-06-17T12:17:18</time>
      </trkpt>
      <trkpt lat="21.769319534302" lon="110.82023620605">
        <ele>1821.18</ele>
        <time>2026-06-17T12:17:33</time>
      </trkpt>
      <trkpt lat="21.767530441284" lon="110.80596160889">
        <ele>1783.08</ele>
        <time>2026-06-17T12:17:48</time>
      </trkpt>
      <trkpt lat="21.765729904175" lon="110.79167938232">
        <ele>1744.98</ele>
        <time>2026-06-17T12:18:08</time>
      </trkpt>
      <trkpt lat="21.763959884644" lon="110.77754211426">
        <ele>1706.88</ele>
        <time>2026-06-17T12:18:23</time>
      </trkpt>
      <trkpt lat="21.762050628662" lon="110.76232910156">
        <ele>1661.16</ele>
        <time>2026-06-17T12:18:38</time>
      </trkpt>
      <trkpt lat="21.76037979126" lon="110.74855041504">
        <ele>1623.06</ele>
        <time>2026-06-17T12:18:53</time>
      </trkpt>
      <trkpt lat="21.758699417114" lon="110.73532104492">
        <ele>1584.96</ele>
        <time>2026-06-17T12:19:08</time>
      </trkpt>
      <trkpt lat="21.756820678711" lon="110.72030639648">
        <ele>1546.86</ele>
        <time>2026-06-17T12:19:28</time>
      </trkpt>
      <trkpt lat="21.75511932373" lon="110.70638275146">
        <ele>1508.76</ele>
        <time>2026-06-17T12:19:43</time>
      </trkpt>
      <trkpt lat="21.753400802612" lon="110.6928024292">
        <ele>1478.28</ele>
        <time>2026-06-17T12:19:58</time>
      </trkpt>
      <trkpt lat="21.751739501953" lon="110.67961883545">
        <ele>1455.42</ele>
        <time>2026-06-17T12:20:13</time>
      </trkpt>
      <trkpt lat="21.750049591064" lon="110.66607666016">
        <ele>1432.56</ele>
        <time>2026-06-17T12:20:28</time>
      </trkpt>
      <trkpt lat="21.748369216919" lon="110.65271759033">
        <ele>1409.7</ele>
        <time>2026-06-17T12:20:43</time>
      </trkpt>
      <trkpt lat="21.746690750122" lon="110.639503479">
        <ele>1386.84</ele>
        <time>2026-06-17T12:20:58</time>
      </trkpt>
      <trkpt lat="21.745059967041" lon="110.6265335083">
        <ele>1363.98</ele>
        <time>2026-06-17T12:21:13</time>
      </trkpt>
      <trkpt lat="21.743480682373" lon="110.61360931396">
        <ele>1341.12</ele>
        <time>2026-06-17T12:21:28</time>
      </trkpt>
      <trkpt lat="21.741760253906" lon="110.60025787354">
        <ele>1318.26</ele>
        <time>2026-06-17T12:21:43</time>
      </trkpt>
      <trkpt lat="21.740129470825" lon="110.58715820312">
        <ele>1295.4</ele>
        <time>2026-06-17T12:21:58</time>
      </trkpt>
      <trkpt lat="21.738500595093" lon="110.57418823242">
        <ele>1272.54</ele>
        <time>2026-06-17T12:22:13</time>
      </trkpt>
      <trkpt lat="21.736589431763" lon="110.5592880249">
        <ele>1249.68</ele>
        <time>2026-06-17T12:22:28</time>
      </trkpt>
      <trkpt lat="21.733110427856" lon="110.54647827148">
        <ele>1211.58</ele>
        <time>2026-06-17T12:22:43</time>
      </trkpt>
      <trkpt lat="21.726749420166" lon="110.53569030762">
        <ele>1181.1</ele>
        <time>2026-06-17T12:22:58</time>
      </trkpt>
      <trkpt lat="21.720109939575" lon="110.52484893799">
        <ele>1143.0</ele>
        <time>2026-06-17T12:23:13</time>
      </trkpt>
      <trkpt lat="21.713470458984" lon="110.51371765137">
        <ele>1097.28</ele>
        <time>2026-06-17T12:23:28</time>
      </trkpt>
      <trkpt lat="21.707080841064" lon="110.50261688232">
        <ele>1066.8</ele>
        <time>2026-06-17T12:23:43</time>
      </trkpt>
      <trkpt lat="21.700839996338" lon="110.49198913574">
        <ele>1028.7</ele>
        <time>2026-06-17T12:23:58</time>
      </trkpt>
      <trkpt lat="21.692600250244" lon="110.48251342773">
        <ele>982.98</ele>
        <time>2026-06-17T12:24:13</time>
      </trkpt>
      <trkpt lat="21.68065071106" lon="110.47971343994">
        <ele>967.74</ele>
        <time>2026-06-17T12:24:28</time>
      </trkpt>
      <trkpt lat="21.668720245361" lon="110.48008728027">
        <ele>960.12</ele>
        <time>2026-06-17T12:24:43</time>
      </trkpt>
      <trkpt lat="21.657619476318" lon="110.4857635498">
        <ele>967.74</ele>
        <time>2026-06-17T12:24:58</time>
      </trkpt>
      <trkpt lat="21.646839141846" lon="110.49194335938">
        <ele>975.36</ele>
        <time>2026-06-17T12:25:13</time>
      </trkpt>
      <trkpt lat="21.636699676514" lon="110.49929046631">
        <ele>982.98</ele>
        <time>2026-06-17T12:25:28</time>
      </trkpt>
      <trkpt lat="21.626770019531" lon="110.50578308105">
        <ele>952.5</ele>
        <time>2026-06-17T12:25:43</time>
      </trkpt>
      <trkpt lat="21.61720085144" lon="110.51142120361">
        <ele>899.16</ele>
        <time>2026-06-17T12:25:58</time>
      </trkpt>
      <trkpt lat="21.608850479126" lon="110.51619720459">
        <ele>830.58</ele>
        <time>2026-06-17T12:26:13</time>
      </trkpt>
      <trkpt lat="21.600629806519" lon="110.52091217041">
        <ele>769.62</ele>
        <time>2026-06-17T12:26:28</time>
      </trkpt>
      <trkpt lat="21.592580795288" lon="110.5258102417">
        <ele>716.28</ele>
        <time>2026-06-17T12:26:43</time>
      </trkpt>
      <trkpt lat="21.584829330444" lon="110.53074645996">
        <ele>662.94</ele>
        <time>2026-06-17T12:26:58</time>
      </trkpt>
      <trkpt lat="21.577100753784" lon="110.53569030762">
        <ele>617.22</ele>
        <time>2026-06-17T12:27:13</time>
      </trkpt>
      <trkpt lat="21.569370269775" lon="110.54048919678">
        <ele>563.88</ele>
        <time>2026-06-17T12:27:28</time>
      </trkpt>
      <trkpt lat="21.561679840088" lon="110.54528045654">
        <ele>510.54</ele>
        <time>2026-06-17T12:27:43</time>
      </trkpt>
      <trkpt lat="21.554119110107" lon="110.54998016357">
        <ele>464.82</ele>
        <time>2026-06-17T12:27:58</time>
      </trkpt>
      <trkpt lat="21.546390533447" lon="110.55481719971">
        <ele>419.1</ele>
        <time>2026-06-17T12:28:13</time>
      </trkpt>
      <trkpt lat="21.538557052612" lon="110.55969238281">
        <ele>365.76</ele>
        <time>2026-06-17T12:28:28</time>
      </trkpt>
      <trkpt lat="21.530729293823" lon="110.56455993652">
        <ele>312.42</ele>
        <time>2026-06-17T12:28:43</time>
      </trkpt>
      <trkpt lat="21.522680282593" lon="110.56955718994">
        <ele>266.7</ele>
        <time>2026-06-17T12:28:58</time>
      </trkpt>
      <trkpt lat="21.514720916748" lon="110.5744934082">
        <ele>213.36</ele>
        <time>2026-06-17T12:29:13</time>
      </trkpt>
      <trkpt lat="21.506620407104" lon="110.57952880859">
        <ele>160.02</ele>
        <time>2026-06-17T12:29:28</time>
      </trkpt>
      <trkpt lat="21.498140335083" lon="110.58477783203">
        <ele>106.68</ele>
        <time>2026-06-17T12:29:43</time>
      </trkpt>
      <trkpt lat="21.489723205566" lon="110.59000396729">
        <ele>68.58</ele>
        <time>2026-06-17T12:29:58</time>
      </trkpt>
      <trkpt lat="21.483203887939" lon="110.59407043457">
        <ele>0.0</ele>
        <time>2026-06-17T12:30:13</time>
      </trkpt>
      <trkpt lat="21.481029510498" lon="110.5954208374">
        <ele>0.0</ele>
        <time>2026-06-17T12:30:28</time>
      </trkpt>
      <trkpt lat="21.479738235474" lon="110.59603118896">
        <ele>0.0</ele>
        <time>2026-06-17T12:30:43</time>
      </trkpt>
      <trkpt lat="21.478679656982" lon="110.59623718262">
        <ele>0.0</ele>
        <time>2026-06-17T12:30:58</time>
      </trkpt>
      <trkpt lat="21.477876663208" lon="110.59629058838">
        <ele>0.0</ele>
        <time>2026-06-17T12:31:13</time>
      </trkpt>
      <trkpt lat="21.477607727051" lon="110.59571075439">
        <ele>0.0</ele>
        <time>2026-06-17T12:31:28</time>
      </trkpt>
    </trkseg>
  </trk>
</gpx>