<?xml version="1.0" encoding="UTF-8"?>
<gpx xmlns="http://www.topografix.com/GPX/1/1" xmlns:xsi="http://www.w3.org/2001/XMLSchema-instance" xsi:schemaLocation="http://www.topografix.com/GPX/1/1 http://www.topografix.com/GPX/1/1/gpx.xsd" version="1.1" creator="gpx.py -- https://github.com/tkrajina/gpxpy">
  <trk>
    <name>Variflight_HU7601_20260531.csv</name>
    <trkseg>
      <trkpt lat="40.22611618042" lon="116.3814163208">
        <ele>1714.5</ele>
        <time>2026-06-01T00:01:00</time>
      </trkpt>
      <trkpt lat="40.22611618042" lon="116.35751342773">
        <ele>1874.52</ele>
        <time>2026-06-01T00:01:15</time>
      </trkpt>
      <trkpt lat="40.226066589355" lon="116.33397674561">
        <ele>2118.36</ele>
        <time>2026-06-01T00:01:30</time>
      </trkpt>
      <trkpt lat="40.22611618042" lon="116.3101348877">
        <ele>2346.96</ele>
        <time>2026-06-01T00:01:45</time>
      </trkpt>
      <trkpt lat="40.226066589355" lon="116.28653717041">
        <ele>2575.56</ele>
        <time>2026-06-01T00:02:00</time>
      </trkpt>
      <trkpt lat="40.224857330322" lon="116.26206970215">
        <ele>2811.78</ele>
        <time>2026-06-01T00:02:15</time>
      </trkpt>
      <trkpt lat="40.217826843262" lon="116.23984527588">
        <ele>3040.38</ele>
        <time>2026-06-01T00:02:30</time>
      </trkpt>
      <trkpt lat="40.203769683838" lon="116.22305297852">
        <ele>3238.5</ele>
        <time>2026-06-01T00:02:45</time>
      </trkpt>
      <trkpt lat="40.185989379883" lon="116.2109375">
        <ele>3413.76</ele>
        <time>2026-06-01T00:03:00</time>
      </trkpt>
      <trkpt lat="40.167709350586" lon="116.19897460938">
        <ele>3589.02</ele>
        <time>2026-06-01T00:03:15</time>
      </trkpt>
      <trkpt lat="40.149124145508" lon="116.18713378906">
        <ele>3771.9</ele>
        <time>2026-06-01T00:03:30</time>
      </trkpt>
      <trkpt lat="40.129657745361" lon="116.17473602295">
        <ele>3954.78</ele>
        <time>2026-06-01T00:03:45</time>
      </trkpt>
      <trkpt lat="40.110626220703" lon="116.16271972656">
        <ele>4137.66</ele>
        <time>2026-06-01T00:04:00</time>
      </trkpt>
      <trkpt lat="40.091110229492" lon="116.150390625">
        <ele>4312.92</ele>
        <time>2026-06-01T00:04:15</time>
      </trkpt>
      <trkpt lat="40.070957183838" lon="116.1374130249">
        <ele>4472.94</ele>
        <time>2026-06-01T00:04:30</time>
      </trkpt>
      <trkpt lat="40.050521850586" lon="116.12417602539">
        <ele>4648.2</ele>
        <time>2026-06-01T00:04:45</time>
      </trkpt>
      <trkpt lat="40.030548095703" lon="116.1111907959">
        <ele>4846.32</ele>
        <time>2026-06-01T00:05:00</time>
      </trkpt>
      <trkpt lat="40.01001739502" lon="116.09796142578">
        <ele>5059.68</ele>
        <time>2026-06-01T00:05:15</time>
      </trkpt>
      <trkpt lat="39.990188598633" lon="116.08528900146">
        <ele>5242.56</ele>
        <time>2026-06-01T00:05:30</time>
      </trkpt>
      <trkpt lat="39.969223022461" lon="116.07177734375">
        <ele>5387.34</ele>
        <time>2026-06-01T00:05:45</time>
      </trkpt>
      <trkpt lat="39.948059082031" lon="116.05819702148">
        <ele>5509.26</ele>
        <time>2026-06-01T00:06:00</time>
      </trkpt>
      <trkpt lat="39.92692565918" lon="116.04461669922">
        <ele>5615.94</ele>
        <time>2026-06-01T00:06:15</time>
      </trkpt>
      <trkpt lat="39.904300689697" lon="116.02990722656">
        <ele>5692.14</ele>
        <time>2026-06-01T00:06:30</time>
      </trkpt>
      <trkpt lat="39.881561279297" lon="116.0152053833">
        <ele>5775.96</ele>
        <time>2026-06-01T00:06:45</time>
      </trkpt>
      <trkpt lat="39.857048034668" lon="116.00366210938">
        <ele>5844.54</ele>
        <time>2026-06-01T00:07:00</time>
      </trkpt>
      <trkpt lat="39.828323364258" lon="116.0006942749">
        <ele>5897.88</ele>
        <time>2026-06-01T00:07:15</time>
      </trkpt>
      <trkpt lat="39.797931671143" lon="116.00869750977">
        <ele>5958.84</ele>
        <time>2026-06-01T00:07:34</time>
      </trkpt>
      <trkpt lat="39.769317626953" lon="116.02893829346">
        <ele>5996.94</ele>
        <time>2026-06-01T00:07:49</time>
      </trkpt>
      <trkpt lat="39.746208190918" lon="116.05633544922">
        <ele>6012.18</ele>
        <time>2026-06-01T00:08:04</time>
      </trkpt>
      <trkpt lat="39.720417022705" lon="116.08856201172">
        <ele>5996.94</ele>
        <time>2026-06-01T00:08:18</time>
      </trkpt>
      <trkpt lat="39.697093963623" lon="116.11785888672">
        <ele>6004.56</ele>
        <time>2026-06-01T00:08:33</time>
      </trkpt>
      <trkpt lat="39.672088623047" lon="116.14936828613">
        <ele>5996.94</ele>
        <time>2026-06-01T00:08:48</time>
      </trkpt>
      <trkpt lat="39.648494720459" lon="116.17907714844">
        <ele>5996.94</ele>
        <time>2026-06-01T00:09:03</time>
      </trkpt>
      <trkpt lat="39.623821258545" lon="116.2099609375">
        <ele>6035.04</ele>
        <time>2026-06-01T00:09:22</time>
      </trkpt>
      <trkpt lat="39.599941253662" lon="116.23962402344">
        <ele>6179.82</ele>
        <time>2026-06-01T00:09:37</time>
      </trkpt>
      <trkpt lat="39.575042724609" lon="116.26735687256">
        <ele>6324.6</ele>
        <time>2026-06-01T00:09:52</time>
      </trkpt>
      <trkpt lat="39.548034667969" lon="116.29058837891">
        <ele>6454.14</ele>
        <time>2026-06-01T00:10:07</time>
      </trkpt>
      <trkpt lat="39.518737792969" lon="116.30927276611">
        <ele>6621.78</ele>
        <time>2026-06-01T00:10:22</time>
      </trkpt>
      <trkpt lat="39.488800048828" lon="116.32276153564">
        <ele>6789.42</ele>
        <time>2026-06-01T00:10:37</time>
      </trkpt>
      <trkpt lat="39.458309173584" lon="116.33535766602">
        <ele>6964.68</ele>
        <time>2026-06-01T00:10:51</time>
      </trkpt>
      <trkpt lat="39.427505493164" lon="116.34802246094">
        <ele>7155.18</ele>
        <time>2026-06-01T00:11:06</time>
      </trkpt>
      <trkpt lat="39.397155761719" lon="116.36038208008">
        <ele>7322.82</ele>
        <time>2026-06-01T00:11:21</time>
      </trkpt>
      <trkpt lat="39.366619110107" lon="116.37274169922">
        <ele>7467.6</ele>
        <time>2026-06-01T00:11:36</time>
      </trkpt>
      <trkpt lat="39.336318969727" lon="116.3850402832">
        <ele>7574.28</ele>
        <time>2026-06-01T00:11:51</time>
      </trkpt>
      <trkpt lat="39.305511474609" lon="116.3974609375">
        <ele>7680.96</ele>
        <time>2026-06-01T00:12:06</time>
      </trkpt>
      <trkpt lat="39.275009155273" lon="116.40979003906">
        <ele>7772.4</ele>
        <time>2026-06-01T00:12:21</time>
      </trkpt>
      <trkpt lat="39.243392944336" lon="116.42253875732">
        <ele>7856.22</ele>
        <time>2026-06-01T00:12:36</time>
      </trkpt>
      <trkpt lat="39.211578369141" lon="116.43537139893">
        <ele>7924.8</ele>
        <time>2026-06-01T00:12:51</time>
      </trkpt>
      <trkpt lat="39.176502227783" lon="116.44952392578">
        <ele>7985.76</ele>
        <time>2026-06-01T00:13:06</time>
      </trkpt>
      <trkpt lat="39.144195556641" lon="116.46258544922">
        <ele>8039.1</ele>
        <time>2026-06-01T00:13:21</time>
      </trkpt>
      <trkpt lat="39.1106300354" lon="116.47613525391">
        <ele>8077.2</ele>
        <time>2026-06-01T00:13:35</time>
      </trkpt>
      <trkpt lat="39.077205657959" lon="116.48962402344">
        <ele>8107.68</ele>
        <time>2026-06-01T00:13:50</time>
      </trkpt>
      <trkpt lat="39.044403076172" lon="116.50290679932">
        <ele>8107.68</ele>
        <time>2026-06-01T00:14:05</time>
      </trkpt>
      <trkpt lat="39.010940551758" lon="116.51640319824">
        <ele>8100.06</ele>
        <time>2026-06-01T00:14:20</time>
      </trkpt>
      <trkpt lat="38.978748321533" lon="116.52935791016">
        <ele>8100.06</ele>
        <time>2026-06-01T00:14:35</time>
      </trkpt>
      <trkpt lat="38.945976257324" lon="116.54248046875">
        <ele>8107.68</ele>
        <time>2026-06-01T00:14:50</time>
      </trkpt>
      <trkpt lat="38.911849975586" lon="116.55621337891">
        <ele>8107.68</ele>
        <time>2026-06-01T00:15:05</time>
      </trkpt>
      <trkpt lat="38.877502441406" lon="116.56995391846">
        <ele>8107.68</ele>
        <time>2026-06-01T00:15:24</time>
      </trkpt>
      <trkpt lat="38.845001220703" lon="116.5830078125">
        <ele>8100.06</ele>
        <time>2026-06-01T00:15:38</time>
      </trkpt>
      <trkpt lat="38.812183380127" lon="116.59613037109">
        <ele>8107.68</ele>
        <time>2026-06-01T00:15:52</time>
      </trkpt>
      <trkpt lat="38.77880859375" lon="116.60949707031">
        <ele>8107.68</ele>
        <time>2026-06-01T00:16:07</time>
      </trkpt>
      <trkpt lat="38.746032714844" lon="116.62261962891">
        <ele>8100.06</ele>
        <time>2026-06-01T00:16:22</time>
      </trkpt>
      <trkpt lat="38.710651397705" lon="116.63671875">
        <ele>8107.68</ele>
        <time>2026-06-01T00:16:37</time>
      </trkpt>
      <trkpt lat="38.678066253662" lon="116.64959716797">
        <ele>8107.68</ele>
        <time>2026-06-01T00:16:52</time>
      </trkpt>
      <trkpt lat="38.644779205322" lon="116.66203308105">
        <ele>8107.68</ele>
        <time>2026-06-01T00:17:07</time>
      </trkpt>
      <trkpt lat="38.611679077148" lon="116.67349243164">
        <ele>8138.16</ele>
        <time>2026-06-01T00:17:22</time>
      </trkpt>
      <trkpt lat="38.579238891602" lon="116.68395996094">
        <ele>8305.8</ele>
        <time>2026-06-01T00:17:37</time>
      </trkpt>
      <trkpt lat="38.546421051025" lon="116.69426727295">
        <ele>8511.54</ele>
        <time>2026-06-01T00:17:52</time>
      </trkpt>
      <trkpt lat="38.513317108154" lon="116.70465087891">
        <ele>8686.8</ele>
        <time>2026-06-01T00:18:07</time>
      </trkpt>
      <trkpt lat="38.481098175049" lon="116.71472167969">
        <ele>8839.2</ele>
        <time>2026-06-01T00:18:22</time>
      </trkpt>
      <trkpt lat="38.448101043701" lon="116.72503662109">
        <ele>9029.7</ele>
        <time>2026-06-01T00:18:37</time>
      </trkpt>
      <trkpt lat="38.416168212891" lon="116.73499298096">
        <ele>9281.16</ele>
        <time>2026-06-01T00:18:52</time>
      </trkpt>
      <trkpt lat="38.383800506592" lon="116.74492645264">
        <ele>9456.42</ele>
        <time>2026-06-01T00:19:07</time>
      </trkpt>
      <trkpt lat="38.351669311523" lon="116.75469207764">
        <ele>9563.1</ele>
        <time>2026-06-01T00:19:22</time>
      </trkpt>
      <trkpt lat="38.319305419922" lon="116.76462554932">
        <ele>9707.88</ele>
        <time>2026-06-01T00:19:37</time>
      </trkpt>
      <trkpt lat="38.286701202393" lon="116.77463531494">
        <ele>9860.28</ele>
        <time>2026-06-01T00:19:52</time>
      </trkpt>
      <trkpt lat="38.254718780518" lon="116.78449249268">
        <ele>10012.68</ele>
        <time>2026-06-01T00:20:07</time>
      </trkpt>
      <trkpt lat="38.221984863281" lon="116.79466247559">
        <ele>10165.08</ele>
        <time>2026-06-01T00:20:22</time>
      </trkpt>
      <trkpt lat="38.189640045166" lon="116.80473327637">
        <ele>10302.24</ele>
        <time>2026-06-01T00:20:37</time>
      </trkpt>
      <trkpt lat="38.157379150391" lon="116.81463623047">
        <ele>10424.16</ele>
        <time>2026-06-01T00:20:52</time>
      </trkpt>
      <trkpt lat="38.12419128418" lon="116.82496643066">
        <ele>10546.08</ele>
        <time>2026-06-01T00:21:07</time>
      </trkpt>
      <trkpt lat="38.091461181641" lon="116.83506011963">
        <ele>10706.1</ele>
        <time>2026-06-01T00:21:22</time>
      </trkpt>
      <trkpt lat="38.058563232422" lon="116.84520721436">
        <ele>10835.64</ele>
        <time>2026-06-01T00:21:37</time>
      </trkpt>
      <trkpt lat="38.02619934082" lon="116.85517883301">
        <ele>10988.04</ele>
        <time>2026-06-01T00:21:52</time>
      </trkpt>
      <trkpt lat="37.993099212646" lon="116.86531066895">
        <ele>11140.44</ele>
        <time>2026-06-01T00:22:07</time>
      </trkpt>
      <trkpt lat="37.957439422607" lon="116.87619781494">
        <ele>11247.12</ele>
        <time>2026-06-01T00:22:26</time>
      </trkpt>
      <trkpt lat="37.922382354736" lon="116.88688659668">
        <ele>11376.66</ele>
        <time>2026-06-01T00:22:40</time>
      </trkpt>
      <trkpt lat="37.890289306641" lon="116.89675140381">
        <ele>11490.96</ele>
        <time>2026-06-01T00:22:55</time>
      </trkpt>
      <trkpt lat="37.857303619385" lon="116.90682983398">
        <ele>11597.64</ele>
        <time>2026-06-01T00:23:10</time>
      </trkpt>
      <trkpt lat="37.824829101562" lon="116.91679382324">
        <ele>11696.7</ele>
        <time>2026-06-01T00:23:25</time>
      </trkpt>
      <trkpt lat="37.791320800781" lon="116.92702484131">
        <ele>11795.76</ele>
        <time>2026-06-01T00:23:44</time>
      </trkpt>
      <trkpt lat="37.758754730225" lon="116.93692016602">
        <ele>11856.72</ele>
        <time>2026-06-01T00:23:59</time>
      </trkpt>
      <trkpt lat="37.724540710449" lon="116.94743347168">
        <ele>11910.06</ele>
        <time>2026-06-01T00:24:14</time>
      </trkpt>
      <trkpt lat="37.691299438477" lon="116.95751953125">
        <ele>11917.68</ele>
        <time>2026-06-01T00:24:29</time>
      </trkpt>
      <trkpt lat="37.65641784668" lon="116.96816253662">
        <ele>11910.06</ele>
        <time>2026-06-01T00:24:44</time>
      </trkpt>
      <trkpt lat="37.622451782227" lon="116.97841644287">
        <ele>11917.68</ele>
        <time>2026-06-01T00:24:58</time>
      </trkpt>
      <trkpt lat="37.587615966797" lon="116.98885345459">
        <ele>11910.06</ele>
        <time>2026-06-01T00:25:13</time>
      </trkpt>
      <trkpt lat="37.550476074219" lon="117.00009918213">
        <ele>11917.68</ele>
        <time>2026-06-01T00:25:32</time>
      </trkpt>
      <trkpt lat="37.514053344727" lon="117.01116943359">
        <ele>11917.68</ele>
        <time>2026-06-01T00:25:47</time>
      </trkpt>
      <trkpt lat="37.476654052734" lon="117.02256774902">
        <ele>11910.06</ele>
        <time>2026-06-01T00:26:02</time>
      </trkpt>
      <trkpt lat="37.43782043457" lon="117.03443145752">
        <ele>11910.06</ele>
        <time>2026-06-01T00:26:21</time>
      </trkpt>
      <trkpt lat="37.40364074707" lon="117.04483032227">
        <ele>11910.06</ele>
        <time>2026-06-01T00:26:36</time>
      </trkpt>
      <trkpt lat="37.368759155273" lon="117.05546569824">
        <ele>11917.68</ele>
        <time>2026-06-01T00:26:51</time>
      </trkpt>
      <trkpt lat="37.320419311523" lon="117.07019805908">
        <ele>11917.68</ele>
        <time>2026-06-01T00:27:09</time>
      </trkpt>
      <trkpt lat="37.286361694336" lon="117.08048248291">
        <ele>11910.06</ele>
        <time>2026-06-01T00:27:24</time>
      </trkpt>
      <trkpt lat="37.251342773438" lon="117.09111785889">
        <ele>11910.06</ele>
        <time>2026-06-01T00:27:39</time>
      </trkpt>
      <trkpt lat="37.215454101562" lon="117.10198974609">
        <ele>11910.06</ele>
        <time>2026-06-01T00:27:58</time>
      </trkpt>
      <trkpt lat="37.180023193359" lon="117.11267852783">
        <ele>11917.68</ele>
        <time>2026-06-01T00:28:13</time>
      </trkpt>
      <trkpt lat="37.146217346191" lon="117.12291717529">
        <ele>11917.68</ele>
        <time>2026-06-01T00:28:28</time>
      </trkpt>
      <trkpt lat="37.111907958984" lon="117.13324737549">
        <ele>11910.06</ele>
        <time>2026-06-01T00:28:43</time>
      </trkpt>
      <trkpt lat="37.077228546143" lon="117.1436920166">
        <ele>11910.06</ele>
        <time>2026-06-01T00:28:58</time>
      </trkpt>
      <trkpt lat="37.042827606201" lon="117.1540222168">
        <ele>11917.68</ele>
        <time>2026-06-01T00:29:13</time>
      </trkpt>
      <trkpt lat="37.008422851562" lon="117.16441345215">
        <ele>11910.06</ele>
        <time>2026-06-01T00:29:27</time>
      </trkpt>
      <trkpt lat="36.974067687988" lon="117.17468261719">
        <ele>11917.68</ele>
        <time>2026-06-01T00:29:41</time>
      </trkpt>
      <trkpt lat="36.948837280273" lon="117.18226623535">
        <ele>11910.06</ele>
        <time>2026-06-01T00:29:54</time>
      </trkpt>
      <trkpt lat="36.914016723633" lon="117.19271850586">
        <ele>11917.68</ele>
        <time>2026-06-01T00:30:09</time>
      </trkpt>
      <trkpt lat="36.879707336426" lon="117.20304107666">
        <ele>11917.68</ele>
        <time>2026-06-01T00:30:24</time>
      </trkpt>
      <trkpt lat="36.845909118652" lon="117.21313476562">
        <ele>11910.06</ele>
        <time>2026-06-01T00:30:39</time>
      </trkpt>
      <trkpt lat="36.811367034912" lon="117.22353363037">
        <ele>11910.06</ele>
        <time>2026-06-01T00:30:54</time>
      </trkpt>
      <trkpt lat="36.778018951416" lon="117.23351287842">
        <ele>11910.06</ele>
        <time>2026-06-01T00:31:07</time>
      </trkpt>
      <trkpt lat="36.741348266602" lon="117.24443054199">
        <ele>11917.68</ele>
        <time>2026-06-01T00:31:25</time>
      </trkpt>
      <trkpt lat="36.706718444824" lon="117.25468444824">
        <ele>11917.68</ele>
        <time>2026-06-01T00:31:39</time>
      </trkpt>
      <trkpt lat="36.671173095703" lon="117.26526641846">
        <ele>11917.68</ele>
        <time>2026-06-01T00:31:54</time>
      </trkpt>
      <trkpt lat="36.646636962891" lon="117.27252960205">
        <ele>11917.68</ele>
        <time>2026-06-01T00:32:07</time>
      </trkpt>
      <trkpt lat="36.611206054688" lon="117.2830581665">
        <ele>11910.06</ele>
        <time>2026-06-01T00:32:21</time>
      </trkpt>
      <trkpt lat="36.577770233154" lon="117.29302215576">
        <ele>11910.06</ele>
        <time>2026-06-01T00:32:34</time>
      </trkpt>
      <trkpt lat="36.5419921875" lon="117.30365753174">
        <ele>11917.68</ele>
        <time>2026-06-01T00:32:53</time>
      </trkpt>
      <trkpt lat="36.506927490234" lon="117.31413269043">
        <ele>11910.06</ele>
        <time>2026-06-01T00:33:08</time>
      </trkpt>
      <trkpt lat="36.473693847656" lon="117.32397460938">
        <ele>11910.06</ele>
        <time>2026-06-01T00:33:23</time>
      </trkpt>
      <trkpt lat="36.437042236328" lon="117.33486175537">
        <ele>11910.06</ele>
        <time>2026-06-01T00:33:38</time>
      </trkpt>
      <trkpt lat="36.402278900146" lon="117.34519958496">
        <ele>11910.06</ele>
        <time>2026-06-01T00:33:53</time>
      </trkpt>
      <trkpt lat="36.368640899658" lon="117.35516357422">
        <ele>11910.06</ele>
        <time>2026-06-01T00:34:08</time>
      </trkpt>
      <trkpt lat="36.334857940674" lon="117.36513519287">
        <ele>11910.06</ele>
        <time>2026-06-01T00:34:23</time>
      </trkpt>
      <trkpt lat="36.300830841064" lon="117.37518310547">
        <ele>11917.68</ele>
        <time>2026-06-01T00:34:38</time>
      </trkpt>
      <trkpt lat="36.266651153564" lon="117.38530731201">
        <ele>11910.06</ele>
        <time>2026-06-01T00:34:53</time>
      </trkpt>
      <trkpt lat="36.232959747314" lon="117.3952331543">
        <ele>11917.68</ele>
        <time>2026-06-01T00:35:08</time>
      </trkpt>
      <trkpt lat="36.198810577393" lon="117.40522003174">
        <ele>11917.68</ele>
        <time>2026-06-01T00:35:21</time>
      </trkpt>
      <trkpt lat="36.164978027344" lon="117.4151763916">
        <ele>11910.06</ele>
        <time>2026-06-01T00:35:36</time>
      </trkpt>
      <trkpt lat="36.131149291992" lon="117.42514038086">
        <ele>11917.68</ele>
        <time>2026-06-01T00:35:51</time>
      </trkpt>
      <trkpt lat="36.097072601318" lon="117.43519592285">
        <ele>11917.68</ele>
        <time>2026-06-01T00:36:06</time>
      </trkpt>
      <trkpt lat="36.062900543213" lon="117.44522094727">
        <ele>11917.68</ele>
        <time>2026-06-01T00:36:21</time>
      </trkpt>
      <trkpt lat="36.028839111328" lon="117.45517730713">
        <ele>11917.68</ele>
        <time>2026-06-01T00:36:36</time>
      </trkpt>
      <trkpt lat="35.991851806641" lon="117.46599578857">
        <ele>11917.68</ele>
        <time>2026-06-01T00:36:55</time>
      </trkpt>
      <trkpt lat="35.958206176758" lon="117.47581481934">
        <ele>11917.68</ele>
        <time>2026-06-01T00:37:10</time>
      </trkpt>
      <trkpt lat="35.909908294678" lon="117.48996734619">
        <ele>11910.06</ele>
        <time>2026-06-01T00:37:28</time>
      </trkpt>
      <trkpt lat="35.875625610352" lon="117.49998474121">
        <ele>11932.92</ele>
        <time>2026-06-01T00:37:43</time>
      </trkpt>
      <trkpt lat="35.841358184814" lon="117.51005554199">
        <ele>11993.88</ele>
        <time>2026-06-01T00:37:58</time>
      </trkpt>
      <trkpt lat="35.805839538574" lon="117.52052307129">
        <ele>12062.46</ele>
        <time>2026-06-01T00:38:17</time>
      </trkpt>
      <trkpt lat="35.772415161133" lon="117.5302734375">
        <ele>12138.66</ele>
        <time>2026-06-01T00:38:32</time>
      </trkpt>
      <trkpt lat="35.736476898193" lon="117.54067993164">
        <ele>12214.86</ele>
        <time>2026-06-01T00:38:47</time>
      </trkpt>
      <trkpt lat="35.703460693359" lon="117.55027770996">
        <ele>12291.06</ele>
        <time>2026-06-01T00:39:02</time>
      </trkpt>
      <trkpt lat="35.667808532715" lon="117.560546875">
        <ele>12359.64</ele>
        <time>2026-06-01T00:39:17</time>
      </trkpt>
      <trkpt lat="35.634574890137" lon="117.57012939453">
        <ele>12412.98</ele>
        <time>2026-06-01T00:39:32</time>
      </trkpt>
      <trkpt lat="35.602169036865" lon="117.57948303223">
        <ele>12466.32</ele>
        <time>2026-06-01T00:39:47</time>
      </trkpt>
      <trkpt lat="35.565399169922" lon="117.59004211426">
        <ele>12496.8</ele>
        <time>2026-06-01T00:40:02</time>
      </trkpt>
      <trkpt lat="35.529830932617" lon="117.60034179688">
        <ele>12519.66</ele>
        <time>2026-06-01T00:40:21</time>
      </trkpt>
      <trkpt lat="35.497013092041" lon="117.60980987549">
        <ele>12527.28</ele>
        <time>2026-06-01T00:40:36</time>
      </trkpt>
      <trkpt lat="35.460048675537" lon="117.62050628662">
        <ele>12527.28</ele>
        <time>2026-06-01T00:40:50</time>
      </trkpt>
      <trkpt lat="35.427291870117" lon="117.62992858887">
        <ele>12519.66</ele>
        <time>2026-06-01T00:41:05</time>
      </trkpt>
      <trkpt lat="35.392688751221" lon="117.63996887207">
        <ele>12519.66</ele>
        <time>2026-06-01T00:41:19</time>
      </trkpt>
      <trkpt lat="35.358753204346" lon="117.64972686768">
        <ele>12527.28</ele>
        <time>2026-06-01T00:41:34</time>
      </trkpt>
      <trkpt lat="35.334091186523" lon="117.65688323975">
        <ele>12527.28</ele>
        <time>2026-06-01T00:41:47</time>
      </trkpt>
      <trkpt lat="35.299957275391" lon="117.66673278809">
        <ele>12527.28</ele>
        <time>2026-06-01T00:42:01</time>
      </trkpt>
      <trkpt lat="35.266300201416" lon="117.67645263672">
        <ele>12519.66</ele>
        <time>2026-06-01T00:42:16</time>
      </trkpt>
      <trkpt lat="35.232330322266" lon="117.68618011475">
        <ele>12519.66</ele>
        <time>2026-06-01T00:42:31</time>
      </trkpt>
      <trkpt lat="35.198364257812" lon="117.69597625732">
        <ele>12527.28</ele>
        <time>2026-06-01T00:42:46</time>
      </trkpt>
      <trkpt lat="35.161930084229" lon="117.70643615723">
        <ele>12527.28</ele>
        <time>2026-06-01T00:43:01</time>
      </trkpt>
      <trkpt lat="35.128040313721" lon="117.71616363525">
        <ele>12519.66</ele>
        <time>2026-06-01T00:43:16</time>
      </trkpt>
      <trkpt lat="35.093994140625" lon="117.72590637207">
        <ele>12519.66</ele>
        <time>2026-06-01T00:43:31</time>
      </trkpt>
      <trkpt lat="35.060863494873" lon="117.73538208008">
        <ele>12519.66</ele>
        <time>2026-06-01T00:43:46</time>
      </trkpt>
      <trkpt lat="35.025344848633" lon="117.74557495117">
        <ele>12527.28</ele>
        <time>2026-06-01T00:44:05</time>
      </trkpt>
      <trkpt lat="34.990951538086" lon="117.75538635254">
        <ele>12527.28</ele>
        <time>2026-06-01T00:44:19</time>
      </trkpt>
      <trkpt lat="34.957122802734" lon="117.76497650146">
        <ele>12527.28</ele>
        <time>2026-06-01T00:44:34</time>
      </trkpt>
      <trkpt lat="34.923488616943" lon="117.77458190918">
        <ele>12527.28</ele>
        <time>2026-06-01T00:44:49</time>
      </trkpt>
      <trkpt lat="34.885208129883" lon="117.7854309082">
        <ele>12527.28</ele>
        <time>2026-06-01T00:45:04</time>
      </trkpt>
      <trkpt lat="34.851005554199" lon="117.79547119141">
        <ele>12519.66</ele>
        <time>2026-06-01T00:45:19</time>
      </trkpt>
      <trkpt lat="34.816558837891" lon="117.80633544922">
        <ele>12527.28</ele>
        <time>2026-06-01T00:45:34</time>
      </trkpt>
      <trkpt lat="34.780479431152" lon="117.81852722168">
        <ele>12519.66</ele>
        <time>2026-06-01T00:45:53</time>
      </trkpt>
      <trkpt lat="34.746730804443" lon="117.83065795898">
        <ele>12519.66</ele>
        <time>2026-06-01T00:46:07</time>
      </trkpt>
      <trkpt lat="34.712814331055" lon="117.84288787842">
        <ele>12519.66</ele>
        <time>2026-06-01T00:46:22</time>
      </trkpt>
      <trkpt lat="34.679836273193" lon="117.85475158691">
        <ele>12519.66</ele>
        <time>2026-06-01T00:46:37</time>
      </trkpt>
      <trkpt lat="34.643901824951" lon="117.86762237549">
        <ele>12527.28</ele>
        <time>2026-06-01T00:46:52</time>
      </trkpt>
      <trkpt lat="34.610191345215" lon="117.87975311279">
        <ele>12527.28</ele>
        <time>2026-06-01T00:47:06</time>
      </trkpt>
      <trkpt lat="34.573425292969" lon="117.89288330078">
        <ele>12527.28</ele>
        <time>2026-06-01T00:47:25</time>
      </trkpt>
      <trkpt lat="34.538410186768" lon="117.90544128418">
        <ele>12527.28</ele>
        <time>2026-06-01T00:47:40</time>
      </trkpt>
      <trkpt lat="34.501354217529" lon="117.91871643066">
        <ele>12519.66</ele>
        <time>2026-06-01T00:47:55</time>
      </trkpt>
      <trkpt lat="34.4677734375" lon="117.93072509766">
        <ele>12519.66</ele>
        <time>2026-06-01T00:48:10</time>
      </trkpt>
      <trkpt lat="34.43440246582" lon="117.9426574707">
        <ele>12519.66</ele>
        <time>2026-06-01T00:48:25</time>
      </trkpt>
      <trkpt lat="34.399959564209" lon="117.95500183105">
        <ele>12527.28</ele>
        <time>2026-06-01T00:48:40</time>
      </trkpt>
      <trkpt lat="34.365966796875" lon="117.96710205078">
        <ele>12527.28</ele>
        <time>2026-06-01T00:48:55</time>
      </trkpt>
      <trkpt lat="34.330490112305" lon="117.9797668457">
        <ele>12504.42</ele>
        <time>2026-06-01T00:49:10</time>
      </trkpt>
      <trkpt lat="34.297031402588" lon="117.99176025391">
        <ele>12466.32</ele>
        <time>2026-06-01T00:49:25</time>
      </trkpt>
      <trkpt lat="34.263519287109" lon="118.00380706787">
        <ele>12390.12</ele>
        <time>2026-06-01T00:49:40</time>
      </trkpt>
      <trkpt lat="34.230972290039" lon="118.01569366455">
        <ele>12298.68</ele>
        <time>2026-06-01T00:49:55</time>
      </trkpt>
      <trkpt lat="34.197551727295" lon="118.02783966064">
        <ele>12207.24</ele>
        <time>2026-06-01T00:50:10</time>
      </trkpt>
      <trkpt lat="34.164505004883" lon="118.03980255127">
        <ele>12108.18</ele>
        <time>2026-06-01T00:50:25</time>
      </trkpt>
      <trkpt lat="34.131088256836" lon="118.05191040039">
        <ele>12024.36</ele>
        <time>2026-06-01T00:50:40</time>
      </trkpt>
      <trkpt lat="34.096813201904" lon="118.06434631348">
        <ele>11932.92</ele>
        <time>2026-06-01T00:50:55</time>
      </trkpt>
      <trkpt lat="34.060688018799" lon="118.07745361328">
        <ele>11833.86</ele>
        <time>2026-06-01T00:51:14</time>
      </trkpt>
      <trkpt lat="34.027267456055" lon="118.08957672119">
        <ele>11750.04</ele>
        <time>2026-06-01T00:51:29</time>
      </trkpt>
      <trkpt lat="33.992771148682" lon="118.10205078125">
        <ele>11666.22</ele>
        <time>2026-06-01T00:51:43</time>
      </trkpt>
      <trkpt lat="33.958042144775" lon="118.11463928223">
        <ele>11582.4</ele>
        <time>2026-06-01T00:51:57</time>
      </trkpt>
      <trkpt lat="33.922393798828" lon="118.12769317627">
        <ele>11475.72</ele>
        <time>2026-06-01T00:52:12</time>
      </trkpt>
      <trkpt lat="33.887557983398" lon="118.14041137695">
        <ele>11384.28</ele>
        <time>2026-06-01T00:52:27</time>
      </trkpt>
      <trkpt lat="33.854038238525" lon="118.1533203125">
        <ele>11292.84</ele>
        <time>2026-06-01T00:52:42</time>
      </trkpt>
      <trkpt lat="33.821178436279" lon="118.16969299316">
        <ele>11201.4</ele>
        <time>2026-06-01T00:52:57</time>
      </trkpt>
      <trkpt lat="33.789756774902" lon="118.18920135498">
        <ele>11117.58</ele>
        <time>2026-06-01T00:53:12</time>
      </trkpt>
      <trkpt lat="33.759384155273" lon="118.21210479736">
        <ele>11026.14</ele>
        <time>2026-06-01T00:53:27</time>
      </trkpt>
      <trkpt lat="33.727203369141" lon="118.2391204834">
        <ele>10927.08</ele>
        <time>2026-06-01T00:53:46</time>
      </trkpt>
      <trkpt lat="33.694152832031" lon="118.26664733887">
        <ele>10843.26</ele>
        <time>2026-06-01T00:54:01</time>
      </trkpt>
      <trkpt lat="33.664028167725" lon="118.29164123535">
        <ele>10744.2</ele>
        <time>2026-06-01T00:54:15</time>
      </trkpt>
      <trkpt lat="33.63166809082" lon="118.31848907471">
        <ele>10660.38</ele>
        <time>2026-06-01T00:54:33</time>
      </trkpt>
      <trkpt lat="33.602096557617" lon="118.34298706055">
        <ele>10584.18</ele>
        <time>2026-06-01T00:54:47</time>
      </trkpt>
      <trkpt lat="33.573394775391" lon="118.36669921875">
        <ele>10515.6</ele>
        <time>2026-06-01T00:55:02</time>
      </trkpt>
      <trkpt lat="33.544380187988" lon="118.39067077637">
        <ele>10439.4</ele>
        <time>2026-06-01T00:55:16</time>
      </trkpt>
      <trkpt lat="33.514629364014" lon="118.41523742676">
        <ele>10355.58</ele>
        <time>2026-06-01T00:55:31</time>
      </trkpt>
      <trkpt lat="33.486141204834" lon="118.43878173828">
        <ele>10279.38</ele>
        <time>2026-06-01T00:55:46</time>
      </trkpt>
      <trkpt lat="33.456859588623" lon="118.46288299561">
        <ele>10203.18</ele>
        <time>2026-06-01T00:56:01</time>
      </trkpt>
      <trkpt lat="33.428192138672" lon="118.48650360107">
        <ele>10134.6</ele>
        <time>2026-06-01T00:56:16</time>
      </trkpt>
      <trkpt lat="33.406631469727" lon="118.50430297852">
        <ele>10073.64</ele>
        <time>2026-06-01T00:56:30</time>
      </trkpt>
      <trkpt lat="33.378231048584" lon="118.52757263184">
        <ele>9997.44</ele>
        <time>2026-06-01T00:56:44</time>
      </trkpt>
      <trkpt lat="33.349185943604" lon="118.55145263672">
        <ele>9928.86</ele>
        <time>2026-06-01T00:56:59</time>
      </trkpt>
      <trkpt lat="33.319931030273" lon="118.57549285889">
        <ele>9852.66</ele>
        <time>2026-06-01T00:57:14</time>
      </trkpt>
      <trkpt lat="33.290630340576" lon="118.599609375">
        <ele>9776.46</ele>
        <time>2026-06-01T00:57:29</time>
      </trkpt>
      <trkpt lat="33.262664794922" lon="118.62257385254">
        <ele>9700.26</ele>
        <time>2026-06-01T00:57:44</time>
      </trkpt>
      <trkpt lat="33.233921051025" lon="118.64623260498">
        <ele>9631.68</ele>
        <time>2026-06-01T00:57:59</time>
      </trkpt>
      <trkpt lat="33.20552444458" lon="118.66955566406">
        <ele>9585.96</ele>
        <time>2026-06-01T00:58:14</time>
      </trkpt>
      <trkpt lat="33.17512512207" lon="118.69477844238">
        <ele>9532.62</ele>
        <time>2026-06-01T00:58:29</time>
      </trkpt>
      <trkpt lat="33.147567749023" lon="118.71770477295">
        <ele>9479.28</ele>
        <time>2026-06-01T00:58:44</time>
      </trkpt>
      <trkpt lat="33.119777679443" lon="118.7407913208">
        <ele>9387.84</ele>
        <time>2026-06-01T00:58:58</time>
      </trkpt>
      <trkpt lat="33.091659545898" lon="118.76411437988">
        <ele>9296.4</ele>
        <time>2026-06-01T00:59:13</time>
      </trkpt>
      <trkpt lat="33.064178466797" lon="118.78692626953">
        <ele>9212.58</ele>
        <time>2026-06-01T00:59:28</time>
      </trkpt>
      <trkpt lat="33.036209106445" lon="118.81005096436">
        <ele>9121.14</ele>
        <time>2026-06-01T00:59:43</time>
      </trkpt>
      <trkpt lat="33.008888244629" lon="118.83267211914">
        <ele>9022.08</ele>
        <time>2026-06-01T00:59:58</time>
      </trkpt>
      <trkpt lat="32.98193359375" lon="118.85497283936">
        <ele>8930.64</ele>
        <time>2026-06-01T01:00:13</time>
      </trkpt>
      <trkpt lat="32.954746246338" lon="118.87744903564">
        <ele>8846.82</ele>
        <time>2026-06-01T01:00:28</time>
      </trkpt>
      <trkpt lat="32.927490234375" lon="118.90003204346">
        <ele>8694.42</ele>
        <time>2026-06-01T01:00:43</time>
      </trkpt>
      <trkpt lat="32.899932861328" lon="118.9227142334">
        <ele>8580.12</ele>
        <time>2026-06-01T01:00:58</time>
      </trkpt>
      <trkpt lat="32.871467590332" lon="118.94606018066">
        <ele>8465.82</ele>
        <time>2026-06-01T01:01:17</time>
      </trkpt>
      <trkpt lat="32.844882965088" lon="118.967918396">
        <ele>8389.62</ele>
        <time>2026-06-01T01:01:32</time>
      </trkpt>
      <trkpt lat="32.817558288574" lon="118.9905090332">
        <ele>8290.56</ele>
        <time>2026-06-01T01:01:46</time>
      </trkpt>
      <trkpt lat="32.791213989258" lon="119.01236724854">
        <ele>8168.64</ele>
        <time>2026-06-01T01:02:01</time>
      </trkpt>
      <trkpt lat="32.764999389648" lon="119.03423309326">
        <ele>8069.58</ele>
        <time>2026-06-01T01:02:15</time>
      </trkpt>
      <trkpt lat="32.738792419434" lon="119.05609130859">
        <ele>7978.14</ele>
        <time>2026-06-01T01:02:30</time>
      </trkpt>
      <trkpt lat="32.712615966797" lon="119.07795715332">
        <ele>7909.56</ele>
        <time>2026-06-01T01:02:45</time>
      </trkpt>
      <trkpt lat="32.686279296875" lon="119.09986877441">
        <ele>7825.74</ele>
        <time>2026-06-01T01:03:00</time>
      </trkpt>
      <trkpt lat="32.660911560059" lon="119.12088775635">
        <ele>7726.68</ele>
        <time>2026-06-01T01:03:15</time>
      </trkpt>
      <trkpt lat="32.635349273682" lon="119.14208221436">
        <ele>7620.0</ele>
        <time>2026-06-01T01:03:30</time>
      </trkpt>
      <trkpt lat="32.610027313232" lon="119.16309356689">
        <ele>7513.32</ele>
        <time>2026-06-01T01:03:45</time>
      </trkpt>
      <trkpt lat="32.585403442383" lon="119.18534851074">
        <ele>7429.5</ele>
        <time>2026-06-01T01:04:00</time>
      </trkpt>
      <trkpt lat="32.562313079834" lon="119.20849609375">
        <ele>7360.92</ele>
        <time>2026-06-01T01:04:15</time>
      </trkpt>
      <trkpt lat="32.538990020752" lon="119.23433685303">
        <ele>7299.96</ele>
        <time>2026-06-01T01:04:30</time>
      </trkpt>
      <trkpt lat="32.517288208008" lon="119.25971984863">
        <ele>7261.86</ele>
        <time>2026-06-01T01:04:45</time>
      </trkpt>
      <trkpt lat="32.495223999023" lon="119.28526306152">
        <ele>7223.76</ele>
        <time>2026-06-01T01:05:00</time>
      </trkpt>
      <trkpt lat="32.473163604736" lon="119.31079864502">
        <ele>7185.66</ele>
        <time>2026-06-01T01:05:15</time>
      </trkpt>
      <trkpt lat="32.451698303223" lon="119.33557128906">
        <ele>7162.8</ele>
        <time>2026-06-01T01:05:30</time>
      </trkpt>
      <trkpt lat="32.429992675781" lon="119.3606338501">
        <ele>7117.08</ele>
        <time>2026-06-01T01:05:45</time>
      </trkpt>
      <trkpt lat="32.408294677734" lon="119.38568115234">
        <ele>7048.5</ele>
        <time>2026-06-01T01:06:00</time>
      </trkpt>
      <trkpt lat="32.387138366699" lon="119.41017913818">
        <ele>6979.92</ele>
        <time>2026-06-01T01:06:15</time>
      </trkpt>
      <trkpt lat="32.365821838379" lon="119.43466949463">
        <ele>6888.48</ele>
        <time>2026-06-01T01:06:30</time>
      </trkpt>
      <trkpt lat="32.344482421875" lon="119.45923614502">
        <ele>6781.8</ele>
        <time>2026-06-01T01:06:45</time>
      </trkpt>
      <trkpt lat="32.323654174805" lon="119.48323822021">
        <ele>6667.5</ele>
        <time>2026-06-01T01:07:01</time>
      </trkpt>
      <trkpt lat="32.302829742432" lon="119.50731658936">
        <ele>6576.06</ele>
        <time>2026-06-01T01:07:15</time>
      </trkpt>
      <trkpt lat="32.281585693359" lon="119.53174591064">
        <ele>6492.24</ele>
        <time>2026-06-01T01:07:30</time>
      </trkpt>
      <trkpt lat="32.261352539062" lon="119.55509185791">
        <ele>6416.04</ele>
        <time>2026-06-01T01:07:45</time>
      </trkpt>
      <trkpt lat="32.239799499512" lon="119.57978820801">
        <ele>6347.46</ele>
        <time>2026-06-01T01:08:01</time>
      </trkpt>
      <trkpt lat="32.219268798828" lon="119.60339355469">
        <ele>6263.64</ele>
        <time>2026-06-01T01:08:15</time>
      </trkpt>
      <trkpt lat="32.19873046875" lon="119.62699890137">
        <ele>6195.06</ele>
        <time>2026-06-01T01:08:30</time>
      </trkpt>
      <trkpt lat="32.177856445312" lon="119.6509475708">
        <ele>6118.86</ele>
        <time>2026-06-01T01:08:45</time>
      </trkpt>
      <trkpt lat="32.158050537109" lon="119.6736831665">
        <ele>6042.66</ele>
        <time>2026-06-01T01:09:01</time>
      </trkpt>
      <trkpt lat="32.137336730957" lon="119.69738769531">
        <ele>5966.46</ele>
        <time>2026-06-01T01:09:15</time>
      </trkpt>
      <trkpt lat="32.116809844971" lon="119.72087860107">
        <ele>5890.26</ele>
        <time>2026-06-01T01:09:30</time>
      </trkpt>
      <trkpt lat="32.097110748291" lon="119.74340057373">
        <ele>5829.3</ele>
        <time>2026-06-01T01:09:45</time>
      </trkpt>
      <trkpt lat="32.077194213867" lon="119.7661895752">
        <ele>5775.96</ele>
        <time>2026-06-01T01:10:00</time>
      </trkpt>
      <trkpt lat="32.056941986084" lon="119.78931427002">
        <ele>5715.0</ele>
        <time>2026-06-01T01:10:15</time>
      </trkpt>
      <trkpt lat="32.03727722168" lon="119.81178283691">
        <ele>5692.14</ele>
        <time>2026-06-01T01:10:30</time>
      </trkpt>
      <trkpt lat="32.01741027832" lon="119.83447265625">
        <ele>5676.9</ele>
        <time>2026-06-01T01:10:45</time>
      </trkpt>
      <trkpt lat="31.997680664062" lon="119.85704803467">
        <ele>5623.56</ele>
        <time>2026-06-01T01:11:00</time>
      </trkpt>
      <trkpt lat="31.977384567261" lon="119.88018035889">
        <ele>5570.22</ele>
        <time>2026-06-01T01:11:15</time>
      </trkpt>
      <trkpt lat="31.958179473877" lon="119.90203857422">
        <ele>5509.26</ele>
        <time>2026-06-01T01:11:30</time>
      </trkpt>
      <trkpt lat="31.938465118408" lon="119.92451477051">
        <ele>5455.92</ele>
        <time>2026-06-01T01:11:45</time>
      </trkpt>
      <trkpt lat="31.918395996094" lon="119.94725036621">
        <ele>5387.34</ele>
        <time>2026-06-01T01:12:00</time>
      </trkpt>
      <trkpt lat="31.899179458618" lon="119.96907806396">
        <ele>5326.38</ele>
        <time>2026-06-01T01:12:15</time>
      </trkpt>
      <trkpt lat="31.880088806152" lon="119.99082946777">
        <ele>5265.42</ele>
        <time>2026-06-01T01:12:30</time>
      </trkpt>
      <trkpt lat="31.860855102539" lon="120.01261901855">
        <ele>5204.46</ele>
        <time>2026-06-01T01:12:45</time>
      </trkpt>
      <trkpt lat="31.841962814331" lon="120.0340423584">
        <ele>5143.5</ele>
        <time>2026-06-01T01:13:00</time>
      </trkpt>
      <trkpt lat="31.822923660278" lon="120.05567932129">
        <ele>5082.54</ele>
        <time>2026-06-01T01:13:15</time>
      </trkpt>
      <trkpt lat="31.8046875" lon="120.07639312744">
        <ele>5021.58</ele>
        <time>2026-06-01T01:13:30</time>
      </trkpt>
      <trkpt lat="31.785730361938" lon="120.09789276123">
        <ele>4960.62</ele>
        <time>2026-06-01T01:13:45</time>
      </trkpt>
      <trkpt lat="31.767433166504" lon="120.1185760498">
        <ele>4899.66</ele>
        <time>2026-06-01T01:14:00</time>
      </trkpt>
      <trkpt lat="31.748565673828" lon="120.13991546631">
        <ele>4838.7</ele>
        <time>2026-06-01T01:14:15</time>
      </trkpt>
      <trkpt lat="31.730346679688" lon="120.16048431396">
        <ele>4777.74</ele>
        <time>2026-06-01T01:14:30</time>
      </trkpt>
      <trkpt lat="31.711486816406" lon="120.18186950684">
        <ele>4716.78</ele>
        <time>2026-06-01T01:14:45</time>
      </trkpt>
      <trkpt lat="31.693462371826" lon="120.20223999023">
        <ele>4655.82</ele>
        <time>2026-06-01T01:15:00</time>
      </trkpt>
      <trkpt lat="31.675073623657" lon="120.22294616699">
        <ele>4594.86</ele>
        <time>2026-06-01T01:15:15</time>
      </trkpt>
      <trkpt lat="31.656406402588" lon="120.24393463135">
        <ele>4533.9</ele>
        <time>2026-06-01T01:15:30</time>
      </trkpt>
      <trkpt lat="31.638437271118" lon="120.26414489746">
        <ele>4503.42</ele>
        <time>2026-06-01T01:15:45</time>
      </trkpt>
      <trkpt lat="31.62047958374" lon="120.28450775146">
        <ele>4503.42</ele>
        <time>2026-06-01T01:16:00</time>
      </trkpt>
      <trkpt lat="31.603942871094" lon="120.30540466309">
        <ele>4457.7</ele>
        <time>2026-06-01T01:16:15</time>
      </trkpt>
      <trkpt lat="31.589979171753" lon="120.3292388916">
        <ele>4381.5</ele>
        <time>2026-06-01T01:16:30</time>
      </trkpt>
      <trkpt lat="31.579219818115" lon="120.35462188721">
        <ele>4290.06</ele>
        <time>2026-06-01T01:16:45</time>
      </trkpt>
      <trkpt lat="31.571228027344" lon="120.38107299805">
        <ele>4198.62</ele>
        <time>2026-06-01T01:17:00</time>
      </trkpt>
      <trkpt lat="31.563262939453" lon="120.40783691406">
        <ele>4091.94</ele>
        <time>2026-06-01T01:17:15</time>
      </trkpt>
      <trkpt lat="31.55534362793" lon="120.43450164795">
        <ele>4008.12</ele>
        <time>2026-06-01T01:17:30</time>
      </trkpt>
      <trkpt lat="31.547567367554" lon="120.46058654785">
        <ele>3931.92</ele>
        <time>2026-06-01T01:17:45</time>
      </trkpt>
      <trkpt lat="31.539779663086" lon="120.4864654541">
        <ele>3848.1</ele>
        <time>2026-06-01T01:18:01</time>
      </trkpt>
      <trkpt lat="31.531949996948" lon="120.51248168945">
        <ele>3771.9</ele>
        <time>2026-06-01T01:18:15</time>
      </trkpt>
      <trkpt lat="31.526109695435" lon="120.53193664551">
        <ele>3726.18</ele>
        <time>2026-06-01T01:18:30</time>
      </trkpt>
      <trkpt lat="31.519134521484" lon="120.55535125732">
        <ele>3672.84</ele>
        <time>2026-06-01T01:18:45</time>
      </trkpt>
      <trkpt lat="31.511810302734" lon="120.58000946045">
        <ele>3627.12</ele>
        <time>2026-06-01T01:19:00</time>
      </trkpt>
      <trkpt lat="31.504760742188" lon="120.60349273682">
        <ele>3589.02</ele>
        <time>2026-06-01T01:19:15</time>
      </trkpt>
      <trkpt lat="31.497711181641" lon="120.62702941895">
        <ele>3589.02</ele>
        <time>2026-06-01T01:19:30</time>
      </trkpt>
      <trkpt lat="31.490753173828" lon="120.65013122559">
        <ele>3520.44</ele>
        <time>2026-06-01T01:19:45</time>
      </trkpt>
      <trkpt lat="31.483930587769" lon="120.67289733887">
        <ele>3444.24</ele>
        <time>2026-06-01T01:20:00</time>
      </trkpt>
      <trkpt lat="31.477157592773" lon="120.6953125">
        <ele>3345.18</ele>
        <time>2026-06-01T01:20:15</time>
      </trkpt>
      <trkpt lat="31.470430374146" lon="120.71766662598">
        <ele>3261.36</ele>
        <time>2026-06-01T01:20:30</time>
      </trkpt>
      <trkpt lat="31.463680267334" lon="120.74007415771">
        <ele>3185.16</ele>
        <time>2026-06-01T01:20:45</time>
      </trkpt>
      <trkpt lat="31.456970214844" lon="120.76236724854">
        <ele>3116.58</ele>
        <time>2026-06-01T01:21:00</time>
      </trkpt>
      <trkpt lat="31.450469970703" lon="120.78395843506">
        <ele>3048.0</ele>
        <time>2026-06-01T01:21:15</time>
      </trkpt>
      <trkpt lat="31.443832397461" lon="120.80603790283">
        <ele>2964.18</ele>
        <time>2026-06-01T01:21:30</time>
      </trkpt>
      <trkpt lat="31.437423706055" lon="120.82719421387">
        <ele>2887.98</ele>
        <time>2026-06-01T01:21:45</time>
      </trkpt>
      <trkpt lat="31.430814743042" lon="120.84906005859">
        <ele>2796.54</ele>
        <time>2026-06-01T01:22:00</time>
      </trkpt>
      <trkpt lat="31.424436569214" lon="120.87020874023">
        <ele>2720.34</ele>
        <time>2026-06-01T01:22:15</time>
      </trkpt>
      <trkpt lat="31.41801071167" lon="120.89163208008">
        <ele>2636.52</ele>
        <time>2026-06-01T01:22:30</time>
      </trkpt>
      <trkpt lat="31.411447525024" lon="120.91327667236">
        <ele>2476.5</ele>
        <time>2026-06-01T01:22:45</time>
      </trkpt>
      <trkpt lat="31.404739379883" lon="120.93577575684">
        <ele>2346.96</ele>
        <time>2026-06-01T01:23:00</time>
      </trkpt>
      <trkpt lat="31.400299072266" lon="120.95823669434">
        <ele>2308.86</ele>
        <time>2026-06-01T01:23:15</time>
      </trkpt>
      <trkpt lat="31.398279190063" lon="120.98111724854">
        <ele>2278.38</ele>
        <time>2026-06-01T01:23:30</time>
      </trkpt>
      <trkpt lat="31.396865844727" lon="121.00309753418">
        <ele>2240.28</ele>
        <time>2026-06-01T01:23:45</time>
      </trkpt>
      <trkpt lat="31.395401000977" lon="121.02415466309">
        <ele>2194.56</ele>
        <time>2026-06-01T01:24:00</time>
      </trkpt>
      <trkpt lat="31.393991470337" lon="121.04499816895">
        <ele>2148.84</ele>
        <time>2026-06-01T01:24:15</time>
      </trkpt>
      <trkpt lat="31.392520904541" lon="121.06636810303">
        <ele>2103.12</ele>
        <time>2026-06-01T01:24:30</time>
      </trkpt>
      <trkpt lat="31.391151428223" lon="121.08564758301">
        <ele>2057.4</ele>
        <time>2026-06-01T01:24:45</time>
      </trkpt>
      <trkpt lat="31.389953613281" lon="121.10358428955">
        <ele>2004.06</ele>
        <time>2026-06-01T01:25:00</time>
      </trkpt>
      <trkpt lat="31.388669967651" lon="121.12206268311">
        <ele>1943.1</ele>
        <time>2026-06-01T01:25:15</time>
      </trkpt>
      <trkpt lat="31.387567520142" lon="121.13822174072">
        <ele>1889.76</ele>
        <time>2026-06-01T01:25:30</time>
      </trkpt>
      <trkpt lat="31.386400222778" lon="121.15573883057">
        <ele>1813.56</ele>
        <time>2026-06-01T01:25:45</time>
      </trkpt>
      <trkpt lat="31.385290145874" lon="121.17183685303">
        <ele>1737.36</ele>
        <time>2026-06-01T01:26:01</time>
      </trkpt>
      <trkpt lat="31.384220123291" lon="121.18776702881">
        <ele>1661.16</ele>
        <time>2026-06-01T01:26:15</time>
      </trkpt>
      <trkpt lat="31.383144378662" lon="121.20347595215">
        <ele>1584.96</ele>
        <time>2026-06-01T01:26:30</time>
      </trkpt>
      <trkpt lat="31.382446289062" lon="121.21913146973">
        <ele>1493.52</ele>
        <time>2026-06-01T01:26:45</time>
      </trkpt>
      <trkpt lat="31.382354736328" lon="121.23445129395">
        <ele>1394.46</ele>
        <time>2026-06-01T01:27:01</time>
      </trkpt>
      <trkpt lat="31.382400512695" lon="121.24973297119">
        <ele>1303.02</ele>
        <time>2026-06-01T01:27:15</time>
      </trkpt>
      <trkpt lat="31.38249206543" lon="121.26527404785">
        <ele>1226.82</ele>
        <time>2026-06-01T01:27:30</time>
      </trkpt>
      <trkpt lat="31.382537841797" lon="121.28017425537">
        <ele>1150.62</ele>
        <time>2026-06-01T01:27:45</time>
      </trkpt>
      <trkpt lat="31.38165473938" lon="121.29554748535">
        <ele>1074.42</ele>
        <time>2026-06-01T01:28:00</time>
      </trkpt>
      <trkpt lat="31.374801635742" lon="121.30791473389">
        <ele>982.98</ele>
        <time>2026-06-01T01:28:15</time>
      </trkpt>
      <trkpt lat="31.364570617676" lon="121.31729888916">
        <ele>899.16</ele>
        <time>2026-06-01T01:28:30</time>
      </trkpt>
      <trkpt lat="31.353769302368" lon="121.32521057129">
        <ele>830.58</ele>
        <time>2026-06-01T01:28:45</time>
      </trkpt>
      <trkpt lat="31.341659545898" lon="121.32859039307">
        <ele>762.0</ele>
        <time>2026-06-01T01:29:00</time>
      </trkpt>
      <trkpt lat="31.329483032227" lon="121.32934570312">
        <ele>693.42</ele>
        <time>2026-06-01T01:29:15</time>
      </trkpt>
      <trkpt lat="31.317718505859" lon="121.32982635498">
        <ele>617.22</ele>
        <time>2026-06-01T01:29:30</time>
      </trkpt>
      <trkpt lat="31.30633354187" lon="121.33042907715">
        <ele>548.64</ele>
        <time>2026-06-01T01:29:45</time>
      </trkpt>
      <trkpt lat="31.295837402344" lon="121.33101654053">
        <ele>495.3</ele>
        <time>2026-06-01T01:30:01</time>
      </trkpt>
      <trkpt lat="31.285757064819" lon="121.33158111572">
        <ele>441.96</ele>
        <time>2026-06-01T01:30:15</time>
      </trkpt>
      <trkpt lat="31.27560043335" lon="121.33209228516">
        <ele>381.0</ele>
        <time>2026-06-01T01:30:30</time>
      </trkpt>
      <trkpt lat="31.265529632568" lon="121.33262634277">
        <ele>320.04</ele>
        <time>2026-06-01T01:30:45</time>
      </trkpt>
      <trkpt lat="31.255599975586" lon="121.33316802979">
        <ele>266.7</ele>
        <time>2026-06-01T01:31:00</time>
      </trkpt>
      <trkpt lat="31.245254516602" lon="121.33376312256">
        <ele>205.74</ele>
        <time>2026-06-01T01:31:15</time>
      </trkpt>
      <trkpt lat="31.235279083252" lon="121.33429718018">
        <ele>152.4</ele>
        <time>2026-06-01T01:31:30</time>
      </trkpt>
      <trkpt lat="31.225519180298" lon="121.3348236084">
        <ele>99.06</ele>
        <time>2026-06-01T01:31:45</time>
      </trkpt>
      <trkpt lat="31.215557098389" lon="121.3353729248">
        <ele>45.72</ele>
        <time>2026-06-01T01:32:00</time>
      </trkpt>
      <trkpt lat="31.205570220947" lon="121.33592224121">
        <ele>0.0</ele>
        <time>2026-06-01T01:32:15</time>
      </trkpt>
      <trkpt lat="31.196069717407" lon="121.33641052246">
        <ele>0.0</ele>
        <time>2026-06-01T01:32:38</time>
      </trkpt>
      <trkpt lat="31.194660186768" lon="121.33641052246">
        <ele>0.0</ele>
        <time>2026-06-01T01:32:50</time>
      </trkpt>
      <trkpt lat="31.191570281982" lon="121.33494567871">
        <ele>0.0</ele>
        <time>2026-06-01T01:33:21</time>
      </trkpt>
      <trkpt lat="31.19029045105" lon="121.33480834961">
        <ele>0.0</ele>
        <time>2026-06-01T01:33:36</time>
      </trkpt>
      <trkpt lat="31.188079833984" lon="121.33493041992">
        <ele>0.0</ele>
        <time>2026-06-01T01:34:00</time>
      </trkpt>
      <trkpt lat="31.186309814453" lon="121.33503723145">
        <ele>0.0</ele>
        <time>2026-06-01T01:34:13</time>
      </trkpt>
      <trkpt lat="31.185285568237" lon="121.3350982666">
        <ele>0.0</ele>
        <time>2026-06-01T01:34:31</time>
      </trkpt>
      <trkpt lat="31.184797286987" lon="121.33469390869">
        <ele>0.0</ele>
        <time>2026-06-01T01:34:58</time>
      </trkpt>
      <trkpt lat="31.184818267822" lon="121.33390808105">
        <ele>0.0</ele>
        <time>2026-06-01T01:36:03</time>
      </trkpt>
      <trkpt lat="31.184761047363" lon="121.33269500732">
        <ele>0.0</ele>
        <time>2026-06-01T01:36:22</time>
      </trkpt>
      <trkpt lat="31.185520172119" lon="121.33123779297">
        <ele>0.0</ele>
        <time>2026-06-01T01:36:56</time>
      </trkpt>
      <trkpt lat="31.18790435791" lon="121.33112335205">
        <ele>0.0</ele>
        <time>2026-06-01T01:37:32</time>
      </trkpt>
      <trkpt lat="31.188766479492" lon="121.33108520508">
        <ele>0.0</ele>
        <time>2026-06-01T01:37:48</time>
      </trkpt>
      <trkpt lat="31.190500259399" lon="121.33098602295">
        <ele>0.0</ele>
        <time>2026-06-01T01:38:05</time>
      </trkpt>
      <trkpt lat="31.191822052002" lon="121.330909729">
        <ele>0.0</ele>
        <time>2026-06-01T01:38:20</time>
      </trkpt>
      <trkpt lat="31.192781448364" lon="121.33086395264">
        <ele>0.0</ele>
        <time>2026-06-01T01:38:35</time>
      </trkpt>
      <trkpt lat="31.194120407104" lon="121.3307800293">
        <ele>0.0</ele>
        <time>2026-06-01T01:38:50</time>
      </trkpt>
      <trkpt lat="31.195289611816" lon="121.33071899414">
        <ele>0.0</ele>
        <time>2026-06-01T01:39:05</time>
      </trkpt>
      <trkpt lat="31.196468353271" lon="121.33055877686">
        <ele>0.0</ele>
        <time>2026-06-01T01:39:25</time>
      </trkpt>
      <trkpt lat="31.196582794189" lon="121.33001708984">
        <ele>0.0</ele>
        <time>2026-06-01T01:39:36</time>
      </trkpt>
      <trkpt lat="31.196537017822" lon="121.32904815674">
        <ele>0.0</ele>
        <time>2026-06-01T01:39:52</time>
      </trkpt>
      <trkpt lat="31.196504592896" lon="121.32833862305">
        <ele>0.0</ele>
        <time>2026-06-01T01:40:05</time>
      </trkpt>
      <trkpt lat="31.197864532471" lon="121.32684326172">
        <ele>0.0</ele>
        <time>2026-06-01T01:41:02</time>
      </trkpt>
      <trkpt lat="31.198081970215" lon="121.32682800293">
        <ele>0.0</ele>
        <time>2026-06-01T01:41:18</time>
      </trkpt>
    </trkseg>
  </trk>
</gpx>