<?xml version="1.0" encoding="UTF-8"?>
<gpx xmlns="http://www.topografix.com/GPX/1/1" xmlns:xsi="http://www.w3.org/2001/XMLSchema-instance" xsi:schemaLocation="http://www.topografix.com/GPX/1/1 http://www.topografix.com/GPX/1/1/gpx.xsd" version="1.1" creator="gpx.py -- https://github.com/tkrajina/gpxpy">
  <trk>
    <name>Variflight_G54036_20260514.csv</name>
    <trkseg>
      <trkpt lat="29.130619049072" lon="119.01431274414">
        <ele>2712.72</ele>
        <time>2026-05-14T07:36:22</time>
      </trkpt>
      <trkpt lat="29.126770019531" lon="118.99127960205">
        <ele>2918.46</ele>
        <time>2026-05-14T07:36:37</time>
      </trkpt>
      <trkpt lat="29.11669921875" lon="118.96594238281">
        <ele>3192.78</ele>
        <time>2026-05-14T07:36:56</time>
      </trkpt>
      <trkpt lat="29.104829788208" lon="118.94110870361">
        <ele>3368.04</ele>
        <time>2026-05-14T07:37:16</time>
      </trkpt>
      <trkpt lat="29.094409942627" lon="118.91870880127">
        <ele>3444.24</ele>
        <time>2026-05-14T07:37:31</time>
      </trkpt>
      <trkpt lat="29.084629058838" lon="118.89630126953">
        <ele>3543.3</ele>
        <time>2026-05-14T07:37:46</time>
      </trkpt>
      <trkpt lat="29.075040817261" lon="118.87322998047">
        <ele>3596.64</ele>
        <time>2026-05-14T07:38:01</time>
      </trkpt>
      <trkpt lat="29.064559936523" lon="118.84729766846">
        <ele>3604.26</ele>
        <time>2026-05-14T07:38:16</time>
      </trkpt>
      <trkpt lat="29.05352973938" lon="118.81955718994">
        <ele>3619.5</ele>
        <time>2026-05-14T07:38:36</time>
      </trkpt>
      <trkpt lat="29.044050216675" lon="118.79543304443">
        <ele>3733.8</ele>
        <time>2026-05-14T07:38:51</time>
      </trkpt>
      <trkpt lat="29.03503036499" lon="118.77234649658">
        <ele>3909.06</ele>
        <time>2026-05-14T07:39:06</time>
      </trkpt>
      <trkpt lat="29.024410247803" lon="118.74530029297">
        <ele>4084.32</ele>
        <time>2026-05-14T07:39:21</time>
      </trkpt>
      <trkpt lat="29.016569137573" lon="118.72553253174">
        <ele>4213.86</ele>
        <time>2026-05-14T07:39:36</time>
      </trkpt>
      <trkpt lat="29.006149291992" lon="118.69930267334">
        <ele>4404.36</ele>
        <time>2026-05-14T07:39:51</time>
      </trkpt>
      <trkpt lat="28.993480682373" lon="118.67577362061">
        <ele>4579.62</ele>
        <time>2026-05-14T07:40:06</time>
      </trkpt>
      <trkpt lat="28.979139328003" lon="118.65756988525">
        <ele>4663.44</ele>
        <time>2026-05-14T07:40:21</time>
      </trkpt>
      <trkpt lat="28.959590911865" lon="118.63403320312">
        <ele>4739.64</ele>
        <time>2026-05-14T07:40:37</time>
      </trkpt>
      <trkpt lat="28.941249847412" lon="118.61210632324">
        <ele>4777.74</ele>
        <time>2026-05-14T07:40:51</time>
      </trkpt>
      <trkpt lat="28.920959472656" lon="118.5877532959">
        <ele>4785.36</ele>
        <time>2026-05-14T07:41:06</time>
      </trkpt>
      <trkpt lat="28.902420043945" lon="118.56548309326">
        <ele>4785.36</ele>
        <time>2026-05-14T07:41:21</time>
      </trkpt>
      <trkpt lat="28.882829666138" lon="118.541847229">
        <ele>4785.36</ele>
        <time>2026-05-14T07:41:36</time>
      </trkpt>
      <trkpt lat="28.86462020874" lon="118.51985931396">
        <ele>4785.36</ele>
        <time>2026-05-14T07:41:51</time>
      </trkpt>
      <trkpt lat="28.846370697021" lon="118.49777984619">
        <ele>4785.36</ele>
        <time>2026-05-14T07:42:06</time>
      </trkpt>
      <trkpt lat="28.826019287109" lon="118.47328948975">
        <ele>4785.36</ele>
        <time>2026-05-14T07:42:26</time>
      </trkpt>
      <trkpt lat="28.807529449463" lon="118.4508895874">
        <ele>4785.36</ele>
        <time>2026-05-14T07:42:41</time>
      </trkpt>
      <trkpt lat="28.787759780884" lon="118.42680358887">
        <ele>4785.36</ele>
        <time>2026-05-14T07:42:56</time>
      </trkpt>
      <trkpt lat="28.767879486084" lon="118.40203857422">
        <ele>4785.36</ele>
        <time>2026-05-14T07:43:10</time>
      </trkpt>
      <trkpt lat="28.750099182129" lon="118.37967681885">
        <ele>4785.36</ele>
        <time>2026-05-14T07:43:25</time>
      </trkpt>
      <trkpt lat="28.73152923584" lon="118.35640716553">
        <ele>4785.36</ele>
        <time>2026-05-14T07:43:40</time>
      </trkpt>
      <trkpt lat="28.711559295654" lon="118.33148193359">
        <ele>4785.36</ele>
        <time>2026-05-14T07:43:55</time>
      </trkpt>
      <trkpt lat="28.686359405518" lon="118.30020141602">
        <ele>4785.36</ele>
        <time>2026-05-14T07:44:20</time>
      </trkpt>
      <trkpt lat="28.667999267578" lon="118.27738189697">
        <ele>4785.36</ele>
        <time>2026-05-14T07:44:34</time>
      </trkpt>
      <trkpt lat="28.64813041687" lon="118.25286865234">
        <ele>4785.36</ele>
        <time>2026-05-14T07:44:49</time>
      </trkpt>
      <trkpt lat="28.631999969482" lon="118.23303222656">
        <ele>4785.36</ele>
        <time>2026-05-14T07:45:04</time>
      </trkpt>
      <trkpt lat="28.611799240112" lon="118.20809936523">
        <ele>4785.36</ele>
        <time>2026-05-14T07:45:19</time>
      </trkpt>
      <trkpt lat="28.594530105591" lon="118.18685150146">
        <ele>4785.36</ele>
        <time>2026-05-14T07:45:34</time>
      </trkpt>
      <trkpt lat="28.574300765991" lon="118.16207885742">
        <ele>4785.36</ele>
        <time>2026-05-14T07:45:49</time>
      </trkpt>
      <trkpt lat="28.558490753174" lon="118.1427230835">
        <ele>4792.98</ele>
        <time>2026-05-14T07:46:04</time>
      </trkpt>
      <trkpt lat="28.541830062866" lon="118.12220001221">
        <ele>4785.36</ele>
        <time>2026-05-14T07:46:19</time>
      </trkpt>
      <trkpt lat="28.526279449463" lon="118.10302734375">
        <ele>4785.36</ele>
        <time>2026-05-14T07:46:34</time>
      </trkpt>
      <trkpt lat="28.509979248047" lon="118.08290100098">
        <ele>4785.36</ele>
        <time>2026-05-14T07:46:54</time>
      </trkpt>
      <trkpt lat="28.492309570312" lon="118.06108856201">
        <ele>4785.36</ele>
        <time>2026-05-14T07:47:09</time>
      </trkpt>
      <trkpt lat="28.475719451904" lon="118.04065704346">
        <ele>4785.36</ele>
        <time>2026-05-14T07:47:24</time>
      </trkpt>
      <trkpt lat="28.460269927979" lon="118.02142333984">
        <ele>4785.36</ele>
        <time>2026-05-14T07:47:39</time>
      </trkpt>
      <trkpt lat="28.449100494385" lon="117.99913787842">
        <ele>4800.6</ele>
        <time>2026-05-14T07:47:54</time>
      </trkpt>
      <trkpt lat="28.446580886841" lon="117.97177124023">
        <ele>4907.28</ele>
        <time>2026-05-14T07:48:15</time>
      </trkpt>
      <trkpt lat="28.465860366821" lon="117.9284286499">
        <ele>5219.7</ele>
        <time>2026-05-14T07:48:42</time>
      </trkpt>
      <trkpt lat="28.483129501343" lon="117.91340637207">
        <ele>5372.1</ele>
        <time>2026-05-14T07:48:57</time>
      </trkpt>
      <trkpt lat="28.503429412842" lon="117.89640045166">
        <ele>5509.26</ele>
        <time>2026-05-14T07:49:12</time>
      </trkpt>
      <trkpt lat="28.523630142212" lon="117.87921142578">
        <ele>5631.18</ele>
        <time>2026-05-14T07:49:27</time>
      </trkpt>
      <trkpt lat="28.545499801636" lon="117.86042785645">
        <ele>5791.2</ele>
        <time>2026-05-14T07:49:42</time>
      </trkpt>
      <trkpt lat="28.559970855713" lon="117.8480682373">
        <ele>5897.88</ele>
        <time>2026-05-14T07:49:57</time>
      </trkpt>
      <trkpt lat="28.579679489136" lon="117.83112335205">
        <ele>6035.04</ele>
        <time>2026-05-14T07:50:12</time>
      </trkpt>
      <trkpt lat="28.600570678711" lon="117.81320953369">
        <ele>6202.68</ele>
        <time>2026-05-14T07:50:27</time>
      </trkpt>
      <trkpt lat="28.619979858398" lon="117.79656982422">
        <ele>6339.84</ele>
        <time>2026-05-14T07:50:42</time>
      </trkpt>
      <trkpt lat="28.64075088501" lon="117.7788772583">
        <ele>6469.38</ele>
        <time>2026-05-14T07:50:57</time>
      </trkpt>
      <trkpt lat="28.663000106812" lon="117.75981140137">
        <ele>6591.3</ele>
        <time>2026-05-14T07:51:16</time>
      </trkpt>
      <trkpt lat="28.701969146729" lon="117.72647857666">
        <ele>6614.16</ele>
        <time>2026-05-14T07:51:45</time>
      </trkpt>
      <trkpt lat="28.727899551392" lon="117.70423126221">
        <ele>6621.78</ele>
        <time>2026-05-14T07:52:05</time>
      </trkpt>
      <trkpt lat="28.753128051758" lon="117.68264007568">
        <ele>6606.54</ele>
        <time>2026-05-14T07:52:20</time>
      </trkpt>
      <trkpt lat="28.777099609375" lon="117.66207122803">
        <ele>6614.16</ele>
        <time>2026-05-14T07:52:40</time>
      </trkpt>
      <trkpt lat="28.805130004883" lon="117.63804626465">
        <ele>6614.16</ele>
        <time>2026-05-14T07:53:00</time>
      </trkpt>
      <trkpt lat="28.82991027832" lon="117.6166229248">
        <ele>6614.16</ele>
        <time>2026-05-14T07:53:15</time>
      </trkpt>
      <trkpt lat="28.858520507812" lon="117.58850097656">
        <ele>6614.16</ele>
        <time>2026-05-14T07:53:35</time>
      </trkpt>
      <trkpt lat="28.872529983521" lon="117.57266998291">
        <ele>6614.16</ele>
        <time>2026-05-14T07:53:50</time>
      </trkpt>
      <trkpt lat="28.892211914062" lon="117.54769134521">
        <ele>6614.16</ele>
        <time>2026-05-14T07:54:05</time>
      </trkpt>
      <trkpt lat="28.90991973877" lon="117.52178192139">
        <ele>6614.16</ele>
        <time>2026-05-14T07:54:24</time>
      </trkpt>
      <trkpt lat="28.926675796509" lon="117.49349975586">
        <ele>6614.16</ele>
        <time>2026-05-14T07:54:39</time>
      </trkpt>
      <trkpt lat="28.940189361572" lon="117.46719360352">
        <ele>6614.16</ele>
        <time>2026-05-14T07:54:54</time>
      </trkpt>
      <trkpt lat="28.95424079895" lon="117.43496704102">
        <ele>6614.16</ele>
        <time>2026-05-14T07:55:12</time>
      </trkpt>
      <trkpt lat="28.966920852661" lon="117.39878845215">
        <ele>6614.16</ele>
        <time>2026-05-14T07:55:32</time>
      </trkpt>
      <trkpt lat="28.973600387573" lon="117.37422943115">
        <ele>6614.16</ele>
        <time>2026-05-14T07:55:47</time>
      </trkpt>
      <trkpt lat="28.9801197052" lon="117.34098815918">
        <ele>6614.16</ele>
        <time>2026-05-14T07:56:02</time>
      </trkpt>
      <trkpt lat="28.983810424805" lon="117.31117248535">
        <ele>6614.16</ele>
        <time>2026-05-14T07:56:17</time>
      </trkpt>
      <trkpt lat="28.985500335693" lon="117.28079986572">
        <ele>6614.16</ele>
        <time>2026-05-14T07:56:32</time>
      </trkpt>
      <trkpt lat="28.98509979248" lon="117.25115966797">
        <ele>6614.16</ele>
        <time>2026-05-14T07:56:47</time>
      </trkpt>
      <trkpt lat="28.982709884644" lon="117.22116088867">
        <ele>6614.16</ele>
        <time>2026-05-14T07:57:02</time>
      </trkpt>
      <trkpt lat="28.977630615234" lon="117.18804931641">
        <ele>6614.16</ele>
        <time>2026-05-14T07:57:22</time>
      </trkpt>
      <trkpt lat="28.970901489258" lon="117.15836334229">
        <ele>6614.16</ele>
        <time>2026-05-14T07:57:37</time>
      </trkpt>
      <trkpt lat="28.962379455566" lon="117.13004302979">
        <ele>6614.16</ele>
        <time>2026-05-14T07:57:52</time>
      </trkpt>
      <trkpt lat="28.95099067688" lon="117.09845733643">
        <ele>6614.16</ele>
        <time>2026-05-14T07:58:07</time>
      </trkpt>
      <trkpt lat="28.942180633545" lon="117.07370758057">
        <ele>6614.16</ele>
        <time>2026-05-14T07:58:22</time>
      </trkpt>
      <trkpt lat="28.932029724121" lon="117.04505157471">
        <ele>6614.16</ele>
        <time>2026-05-14T07:58:37</time>
      </trkpt>
      <trkpt lat="28.921279907227" lon="117.01442718506">
        <ele>6614.16</ele>
        <time>2026-05-14T07:58:52</time>
      </trkpt>
      <trkpt lat="28.91404914856" lon="116.99388122559">
        <ele>6614.16</ele>
        <time>2026-05-14T07:59:07</time>
      </trkpt>
      <trkpt lat="28.903560638428" lon="116.96430206299">
        <ele>6614.16</ele>
        <time>2026-05-14T07:59:22</time>
      </trkpt>
      <trkpt lat="28.892370223999" lon="116.93292999268">
        <ele>6614.16</ele>
        <time>2026-05-14T07:59:37</time>
      </trkpt>
      <trkpt lat="28.882781982422" lon="116.90609741211">
        <ele>6614.16</ele>
        <time>2026-05-14T07:59:52</time>
      </trkpt>
      <trkpt lat="28.873123168945" lon="116.87879180908">
        <ele>6614.16</ele>
        <time>2026-05-14T08:00:07</time>
      </trkpt>
      <trkpt lat="28.863460540771" lon="116.85166168213">
        <ele>6614.16</ele>
        <time>2026-05-14T08:00:22</time>
      </trkpt>
      <trkpt lat="28.85595703125" lon="116.83056640625">
        <ele>6614.16</ele>
        <time>2026-05-14T08:00:37</time>
      </trkpt>
      <trkpt lat="28.846000671387" lon="116.80255126953">
        <ele>6614.16</ele>
        <time>2026-05-14T08:00:52</time>
      </trkpt>
      <trkpt lat="28.835899353027" lon="116.77416229248">
        <ele>6614.16</ele>
        <time>2026-05-14T08:01:07</time>
      </trkpt>
      <trkpt lat="28.825973510742" lon="116.74648284912">
        <ele>6614.16</ele>
        <time>2026-05-14T08:01:22</time>
      </trkpt>
      <trkpt lat="28.816177368164" lon="116.71907043457">
        <ele>6614.16</ele>
        <time>2026-05-14T08:01:37</time>
      </trkpt>
      <trkpt lat="28.806789398193" lon="116.69275665283">
        <ele>6614.16</ele>
        <time>2026-05-14T08:01:52</time>
      </trkpt>
      <trkpt lat="28.796144485474" lon="116.66306304932">
        <ele>6614.16</ele>
        <time>2026-05-14T08:02:07</time>
      </trkpt>
      <trkpt lat="28.785810470581" lon="116.63424682617">
        <ele>6614.16</ele>
        <time>2026-05-14T08:02:22</time>
      </trkpt>
      <trkpt lat="28.776210784912" lon="116.60771942139">
        <ele>6614.16</ele>
        <time>2026-05-14T08:02:37</time>
      </trkpt>
      <trkpt lat="28.766326904297" lon="116.58036804199">
        <ele>6614.16</ele>
        <time>2026-05-14T08:02:52</time>
      </trkpt>
      <trkpt lat="28.756294250488" lon="116.55277252197">
        <ele>6614.16</ele>
        <time>2026-05-14T08:03:07</time>
      </trkpt>
      <trkpt lat="28.746505737305" lon="116.52558898926">
        <ele>6614.16</ele>
        <time>2026-05-14T08:03:22</time>
      </trkpt>
      <trkpt lat="28.736839294434" lon="116.49864959717">
        <ele>6614.16</ele>
        <time>2026-05-14T08:03:37</time>
      </trkpt>
      <trkpt lat="28.72696685791" lon="116.47118377686">
        <ele>6614.16</ele>
        <time>2026-05-14T08:03:52</time>
      </trkpt>
      <trkpt lat="28.716585159302" lon="116.442527771">
        <ele>6614.16</ele>
        <time>2026-05-14T08:04:07</time>
      </trkpt>
      <trkpt lat="28.707321166992" lon="116.41673278809">
        <ele>6621.78</ele>
        <time>2026-05-14T08:04:22</time>
      </trkpt>
      <trkpt lat="28.697500228882" lon="116.38948059082">
        <ele>6614.16</ele>
        <time>2026-05-14T08:04:37</time>
      </trkpt>
      <trkpt lat="28.68702507019" lon="116.36023712158">
        <ele>6614.16</ele>
        <time>2026-05-14T08:04:52</time>
      </trkpt>
      <trkpt lat="28.675918579102" lon="116.32952880859">
        <ele>6614.16</ele>
        <time>2026-05-14T08:05:11</time>
      </trkpt>
      <trkpt lat="28.664245605469" lon="116.29725646973">
        <ele>6614.16</ele>
        <time>2026-05-14T08:05:25</time>
      </trkpt>
      <trkpt lat="28.654083251953" lon="116.26931762695">
        <ele>6614.16</ele>
        <time>2026-05-14T08:05:40</time>
      </trkpt>
      <trkpt lat="28.643405914307" lon="116.24003601074">
        <ele>6614.16</ele>
        <time>2026-05-14T08:05:55</time>
      </trkpt>
      <trkpt lat="28.633020401001" lon="116.21144104004">
        <ele>6614.16</ele>
        <time>2026-05-14T08:06:10</time>
      </trkpt>
      <trkpt lat="28.622318267822" lon="116.18198394775">
        <ele>6614.16</ele>
        <time>2026-05-14T08:06:25</time>
      </trkpt>
      <trkpt lat="28.611703872681" lon="116.15274047852">
        <ele>6614.16</ele>
        <time>2026-05-14T08:06:40</time>
      </trkpt>
      <trkpt lat="28.601322174072" lon="116.12414550781">
        <ele>6614.16</ele>
        <time>2026-05-14T08:06:55</time>
      </trkpt>
      <trkpt lat="28.59042930603" lon="116.09420013428">
        <ele>6614.16</ele>
        <time>2026-05-14T08:07:10</time>
      </trkpt>
      <trkpt lat="28.579925537109" lon="116.06548309326">
        <ele>6614.16</ele>
        <time>2026-05-14T08:07:25</time>
      </trkpt>
      <trkpt lat="28.569387435913" lon="116.03646850586">
        <ele>6614.16</ele>
        <time>2026-05-14T08:07:40</time>
      </trkpt>
      <trkpt lat="28.558820724487" lon="116.00754547119">
        <ele>6614.16</ele>
        <time>2026-05-14T08:07:55</time>
      </trkpt>
      <trkpt lat="28.54833984375" lon="115.97881317139">
        <ele>6614.16</ele>
        <time>2026-05-14T08:08:10</time>
      </trkpt>
      <trkpt lat="28.538635253906" lon="115.94869995117">
        <ele>6614.16</ele>
        <time>2026-05-14T08:08:25</time>
      </trkpt>
      <trkpt lat="28.531028747559" lon="115.91917419434">
        <ele>6614.16</ele>
        <time>2026-05-14T08:08:40</time>
      </trkpt>
      <trkpt lat="28.525039672852" lon="115.88843536377">
        <ele>6614.16</ele>
        <time>2026-05-14T08:08:55</time>
      </trkpt>
      <trkpt lat="28.5205078125" lon="115.85767364502">
        <ele>6614.16</ele>
        <time>2026-05-14T08:09:10</time>
      </trkpt>
      <trkpt lat="28.51594543457" lon="115.82681274414">
        <ele>6614.16</ele>
        <time>2026-05-14T08:09:25</time>
      </trkpt>
      <trkpt lat="28.511306762695" lon="115.79600524902">
        <ele>6614.16</ele>
        <time>2026-05-14T08:09:40</time>
      </trkpt>
      <trkpt lat="28.506589889526" lon="115.76547241211">
        <ele>6621.78</ele>
        <time>2026-05-14T08:09:55</time>
      </trkpt>
      <trkpt lat="28.501190185547" lon="115.73082733154">
        <ele>6705.6</ele>
        <time>2026-05-14T08:10:12</time>
      </trkpt>
      <trkpt lat="28.496347427368" lon="115.69998168945">
        <ele>6812.28</ele>
        <time>2026-05-14T08:10:27</time>
      </trkpt>
      <trkpt lat="28.491458892822" lon="115.66885375977">
        <ele>6918.96</ele>
        <time>2026-05-14T08:10:42</time>
      </trkpt>
      <trkpt lat="28.486757278442" lon="115.63864135742">
        <ele>7033.26</ele>
        <time>2026-05-14T08:10:57</time>
      </trkpt>
      <trkpt lat="28.482879638672" lon="115.61361694336">
        <ele>7124.7</ele>
        <time>2026-05-14T08:11:10</time>
      </trkpt>
      <trkpt lat="28.4782371521" lon="115.58112335205">
        <ele>7193.28</ele>
        <time>2026-05-14T08:11:25</time>
      </trkpt>
      <trkpt lat="28.474044799805" lon="115.55023956299">
        <ele>7200.9</ele>
        <time>2026-05-14T08:11:40</time>
      </trkpt>
      <trkpt lat="28.469833374023" lon="115.51891326904">
        <ele>7200.9</ele>
        <time>2026-05-14T08:11:55</time>
      </trkpt>
      <trkpt lat="28.465763092041" lon="115.48876953125">
        <ele>7193.28</ele>
        <time>2026-05-14T08:12:10</time>
      </trkpt>
      <trkpt lat="28.461456298828" lon="115.45696258545">
        <ele>7193.28</ele>
        <time>2026-05-14T08:12:25</time>
      </trkpt>
      <trkpt lat="28.457290649414" lon="115.42675018311">
        <ele>7193.28</ele>
        <time>2026-05-14T08:12:40</time>
      </trkpt>
      <trkpt lat="28.452896118164" lon="115.39521026611">
        <ele>7193.28</ele>
        <time>2026-05-14T08:12:55</time>
      </trkpt>
      <trkpt lat="28.448724746704" lon="115.36522674561">
        <ele>7193.28</ele>
        <time>2026-05-14T08:13:10</time>
      </trkpt>
      <trkpt lat="28.444519042969" lon="115.33489227295">
        <ele>7193.28</ele>
        <time>2026-05-14T08:13:25</time>
      </trkpt>
      <trkpt lat="28.439804077148" lon="115.30172729492">
        <ele>7193.28</ele>
        <time>2026-05-14T08:13:40</time>
      </trkpt>
      <trkpt lat="28.435550689697" lon="115.27140808105">
        <ele>7193.28</ele>
        <time>2026-05-14T08:13:55</time>
      </trkpt>
      <trkpt lat="28.431243896484" lon="115.24087524414">
        <ele>7193.28</ele>
        <time>2026-05-14T08:14:10</time>
      </trkpt>
      <trkpt lat="28.426937103271" lon="115.21033477783">
        <ele>7193.28</ele>
        <time>2026-05-14T08:14:25</time>
      </trkpt>
      <trkpt lat="28.422607421875" lon="115.17974853516">
        <ele>7193.28</ele>
        <time>2026-05-14T08:14:40</time>
      </trkpt>
      <trkpt lat="28.419303894043" lon="115.15643310547">
        <ele>7193.28</ele>
        <time>2026-05-14T08:14:53</time>
      </trkpt>
      <trkpt lat="28.414901733398" lon="115.12546539307">
        <ele>7193.28</ele>
        <time>2026-05-14T08:15:08</time>
      </trkpt>
      <trkpt lat="28.410737991333" lon="115.09627532959">
        <ele>7193.28</ele>
        <time>2026-05-14T08:15:23</time>
      </trkpt>
      <trkpt lat="28.406204223633" lon="115.06456756592">
        <ele>7193.28</ele>
        <time>2026-05-14T08:15:38</time>
      </trkpt>
      <trkpt lat="28.401718139648" lon="115.03319549561">
        <ele>7193.28</ele>
        <time>2026-05-14T08:15:53</time>
      </trkpt>
      <trkpt lat="28.397609710693" lon="115.00434112549">
        <ele>7193.28</ele>
        <time>2026-05-14T08:16:08</time>
      </trkpt>
      <trkpt lat="28.393249511719" lon="114.9737701416">
        <ele>7193.28</ele>
        <time>2026-05-14T08:16:23</time>
      </trkpt>
      <trkpt lat="28.388214111328" lon="114.93880462646">
        <ele>7193.28</ele>
        <time>2026-05-14T08:16:38</time>
      </trkpt>
      <trkpt lat="28.383319854736" lon="114.90466308594">
        <ele>7193.28</ele>
        <time>2026-05-14T08:16:58</time>
      </trkpt>
      <trkpt lat="28.378520965576" lon="114.87122344971">
        <ele>7193.28</ele>
        <time>2026-05-14T08:17:13</time>
      </trkpt>
      <trkpt lat="28.374206542969" lon="114.84119415283">
        <ele>7193.28</ele>
        <time>2026-05-14T08:17:28</time>
      </trkpt>
      <trkpt lat="28.36967086792" lon="114.81024932861">
        <ele>7193.28</ele>
        <time>2026-05-14T08:17:43</time>
      </trkpt>
      <trkpt lat="28.36491394043" lon="114.7777633667">
        <ele>7193.28</ele>
        <time>2026-05-14T08:17:58</time>
      </trkpt>
      <trkpt lat="28.360382080078" lon="114.74681091309">
        <ele>7193.28</ele>
        <time>2026-05-14T08:18:13</time>
      </trkpt>
      <trkpt lat="28.355850219727" lon="114.71575164795">
        <ele>7193.28</ele>
        <time>2026-05-14T08:18:28</time>
      </trkpt>
      <trkpt lat="28.351476669312" lon="114.68563079834">
        <ele>7193.28</ele>
        <time>2026-05-14T08:18:43</time>
      </trkpt>
      <trkpt lat="28.346923828125" lon="114.65469360352">
        <ele>7193.28</ele>
        <time>2026-05-14T08:18:58</time>
      </trkpt>
      <trkpt lat="28.342479705811" lon="114.62394714355">
        <ele>7193.28</ele>
        <time>2026-05-14T08:19:13</time>
      </trkpt>
      <trkpt lat="28.338088989258" lon="114.59379577637">
        <ele>7193.28</ele>
        <time>2026-05-14T08:19:28</time>
      </trkpt>
      <trkpt lat="28.333648681641" lon="114.56336975098">
        <ele>7193.28</ele>
        <time>2026-05-14T08:19:43</time>
      </trkpt>
      <trkpt lat="28.329090118408" lon="114.5316619873">
        <ele>7193.28</ele>
        <time>2026-05-14T08:19:58</time>
      </trkpt>
      <trkpt lat="28.324768066406" lon="114.50173187256">
        <ele>7193.28</ele>
        <time>2026-05-14T08:20:13</time>
      </trkpt>
      <trkpt lat="28.320240020752" lon="114.47025299072">
        <ele>7193.28</ele>
        <time>2026-05-14T08:20:28</time>
      </trkpt>
      <trkpt lat="28.31575012207" lon="114.43962097168">
        <ele>7193.28</ele>
        <time>2026-05-14T08:20:43</time>
      </trkpt>
      <trkpt lat="28.311208724976" lon="114.40882110596">
        <ele>7193.28</ele>
        <time>2026-05-14T08:20:58</time>
      </trkpt>
      <trkpt lat="28.306365966797" lon="114.37628173828">
        <ele>7193.28</ele>
        <time>2026-05-14T08:21:13</time>
      </trkpt>
      <trkpt lat="28.301969528198" lon="114.34606933594">
        <ele>7193.28</ele>
        <time>2026-05-14T08:21:28</time>
      </trkpt>
      <trkpt lat="28.298128128052" lon="114.3147354126">
        <ele>7193.28</ele>
        <time>2026-05-14T08:21:43</time>
      </trkpt>
      <trkpt lat="28.294692993164" lon="114.28343200684">
        <ele>7193.28</ele>
        <time>2026-05-14T08:21:58</time>
      </trkpt>
      <trkpt lat="28.29141998291" lon="114.25215911865">
        <ele>7193.28</ele>
        <time>2026-05-14T08:22:13</time>
      </trkpt>
      <trkpt lat="28.287792205811" lon="114.21871185303">
        <ele>7193.28</ele>
        <time>2026-05-14T08:22:28</time>
      </trkpt>
      <trkpt lat="28.282928466797" lon="114.17599487305">
        <ele>7193.28</ele>
        <time>2026-05-14T08:22:53</time>
      </trkpt>
      <trkpt lat="28.279228210449" lon="114.14412689209">
        <ele>7193.28</ele>
        <time>2026-05-14T08:23:08</time>
      </trkpt>
      <trkpt lat="28.275560379028" lon="114.11298370361">
        <ele>7193.28</ele>
        <time>2026-05-14T08:23:23</time>
      </trkpt>
      <trkpt lat="28.271940231323" lon="114.08229827881">
        <ele>7193.28</ele>
        <time>2026-05-14T08:23:38</time>
      </trkpt>
      <trkpt lat="28.268379211426" lon="114.05171203613">
        <ele>7193.28</ele>
        <time>2026-05-14T08:23:53</time>
      </trkpt>
      <trkpt lat="28.264709472656" lon="114.0202331543">
        <ele>7193.28</ele>
        <time>2026-05-14T08:24:08</time>
      </trkpt>
      <trkpt lat="28.261209487915" lon="113.99005126953">
        <ele>7193.28</ele>
        <time>2026-05-14T08:24:23</time>
      </trkpt>
      <trkpt lat="28.257530212402" lon="113.95886993408">
        <ele>7193.28</ele>
        <time>2026-05-14T08:24:38</time>
      </trkpt>
      <trkpt lat="28.253860473633" lon="113.92780303955">
        <ele>7193.28</ele>
        <time>2026-05-14T08:24:53</time>
      </trkpt>
      <trkpt lat="28.249923706055" lon="113.89441680908">
        <ele>7193.28</ele>
        <time>2026-05-14T08:25:08</time>
      </trkpt>
      <trkpt lat="28.24626159668" lon="113.86362457275">
        <ele>7193.28</ele>
        <time>2026-05-14T08:25:23</time>
      </trkpt>
      <trkpt lat="28.24250793457" lon="113.83245849609">
        <ele>7193.28</ele>
        <time>2026-05-14T08:25:38</time>
      </trkpt>
      <trkpt lat="28.238800048828" lon="113.8011932373">
        <ele>7193.28</ele>
        <time>2026-05-14T08:25:53</time>
      </trkpt>
      <trkpt lat="28.234909057617" lon="113.76870727539">
        <ele>7193.28</ele>
        <time>2026-05-14T08:26:08</time>
      </trkpt>
      <trkpt lat="28.231155395508" lon="113.73754882812">
        <ele>7193.28</ele>
        <time>2026-05-14T08:26:23</time>
      </trkpt>
      <trkpt lat="28.227447509766" lon="113.70643615723">
        <ele>7193.28</ele>
        <time>2026-05-14T08:26:38</time>
      </trkpt>
      <trkpt lat="28.223690032959" lon="113.67501068115">
        <ele>7193.28</ele>
        <time>2026-05-14T08:26:53</time>
      </trkpt>
      <trkpt lat="28.219940185547" lon="113.64415740967">
        <ele>7193.28</ele>
        <time>2026-05-14T08:27:08</time>
      </trkpt>
      <trkpt lat="28.216049194336" lon="113.61215209961">
        <ele>7193.28</ele>
        <time>2026-05-14T08:27:23</time>
      </trkpt>
      <trkpt lat="28.212469100952" lon="113.58264160156">
        <ele>7193.28</ele>
        <time>2026-05-14T08:27:38</time>
      </trkpt>
      <trkpt lat="28.208700180054" lon="113.55199432373">
        <ele>7193.28</ele>
        <time>2026-05-14T08:27:53</time>
      </trkpt>
      <trkpt lat="28.204696655273" lon="113.51914215088">
        <ele>7193.28</ele>
        <time>2026-05-14T08:28:08</time>
      </trkpt>
      <trkpt lat="28.201080322266" lon="113.48945617676">
        <ele>7193.28</ele>
        <time>2026-05-14T08:28:23</time>
      </trkpt>
      <trkpt lat="28.197202682495" lon="113.4582901001">
        <ele>7193.28</ele>
        <time>2026-05-14T08:28:38</time>
      </trkpt>
      <trkpt lat="28.193389892578" lon="113.42739105225">
        <ele>7193.28</ele>
        <time>2026-05-14T08:28:53</time>
      </trkpt>
      <trkpt lat="28.189661026001" lon="113.39672851562">
        <ele>7193.28</ele>
        <time>2026-05-14T08:29:08</time>
      </trkpt>
      <trkpt lat="28.185749053955" lon="113.36501312256">
        <ele>7193.28</ele>
        <time>2026-05-14T08:29:23</time>
      </trkpt>
      <trkpt lat="28.181991577148" lon="113.33427429199">
        <ele>7193.28</ele>
        <time>2026-05-14T08:29:38</time>
      </trkpt>
      <trkpt lat="28.17805480957" lon="113.30237579346">
        <ele>7193.28</ele>
        <time>2026-05-14T08:29:53</time>
      </trkpt>
      <trkpt lat="28.174345016479" lon="113.2718963623">
        <ele>7193.28</ele>
        <time>2026-05-14T08:30:08</time>
      </trkpt>
      <trkpt lat="28.170429229736" lon="113.24044799805">
        <ele>7193.28</ele>
        <time>2026-05-14T08:30:23</time>
      </trkpt>
      <trkpt lat="28.166660308838" lon="113.20977783203">
        <ele>7193.28</ele>
        <time>2026-05-14T08:30:38</time>
      </trkpt>
      <trkpt lat="28.162809371948" lon="113.17883300781">
        <ele>7193.28</ele>
        <time>2026-05-14T08:30:53</time>
      </trkpt>
      <trkpt lat="28.158840179443" lon="113.14705657959">
        <ele>7193.28</ele>
        <time>2026-05-14T08:31:08</time>
      </trkpt>
      <trkpt lat="28.155029296875" lon="113.11625671387">
        <ele>7193.28</ele>
        <time>2026-05-14T08:31:23</time>
      </trkpt>
      <trkpt lat="28.151119232178" lon="113.08480834961">
        <ele>7193.28</ele>
        <time>2026-05-14T08:31:38</time>
      </trkpt>
      <trkpt lat="28.147300720215" lon="113.05432128906">
        <ele>7193.28</ele>
        <time>2026-05-14T08:31:53</time>
      </trkpt>
      <trkpt lat="28.143434524536" lon="113.02330780029">
        <ele>7193.28</ele>
        <time>2026-05-14T08:32:08</time>
      </trkpt>
      <trkpt lat="28.139570236206" lon="112.99126434326">
        <ele>7193.28</ele>
        <time>2026-05-14T08:32:23</time>
      </trkpt>
      <trkpt lat="28.13729095459" lon="112.95959472656">
        <ele>7193.28</ele>
        <time>2026-05-14T08:32:38</time>
      </trkpt>
      <trkpt lat="28.136920928955" lon="112.92906188965">
        <ele>7193.28</ele>
        <time>2026-05-14T08:32:53</time>
      </trkpt>
      <trkpt lat="28.138269424438" lon="112.89729309082">
        <ele>7193.28</ele>
        <time>2026-05-14T08:33:08</time>
      </trkpt>
      <trkpt lat="28.140243530273" lon="112.86582183838">
        <ele>7193.28</ele>
        <time>2026-05-14T08:33:23</time>
      </trkpt>
      <trkpt lat="28.142074584961" lon="112.83540344238">
        <ele>7193.28</ele>
        <time>2026-05-14T08:33:38</time>
      </trkpt>
      <trkpt lat="28.143997192383" lon="112.80333709717">
        <ele>7193.28</ele>
        <time>2026-05-14T08:33:53</time>
      </trkpt>
      <trkpt lat="28.14582824707" lon="112.7721786499">
        <ele>7193.28</ele>
        <time>2026-05-14T08:34:08</time>
      </trkpt>
      <trkpt lat="28.147613525391" lon="112.74122619629">
        <ele>7193.28</ele>
        <time>2026-05-14T08:34:23</time>
      </trkpt>
      <trkpt lat="28.149444580078" lon="112.70937347412">
        <ele>7193.28</ele>
        <time>2026-05-14T08:34:38</time>
      </trkpt>
      <trkpt lat="28.151254653931" lon="112.6774520874">
        <ele>7193.28</ele>
        <time>2026-05-14T08:34:53</time>
      </trkpt>
      <trkpt lat="28.152978897095" lon="112.64583587646">
        <ele>7193.28</ele>
        <time>2026-05-14T08:35:08</time>
      </trkpt>
      <trkpt lat="28.154663085938" lon="112.6150894165">
        <ele>7193.28</ele>
        <time>2026-05-14T08:35:23</time>
      </trkpt>
      <trkpt lat="28.156356811523" lon="112.5844039917">
        <ele>7193.28</ele>
        <time>2026-05-14T08:35:38</time>
      </trkpt>
      <trkpt lat="28.158098220825" lon="112.55186462402">
        <ele>7193.28</ele>
        <time>2026-05-14T08:35:53</time>
      </trkpt>
      <trkpt lat="28.15983581543" lon="112.5209197998">
        <ele>7193.28</ele>
        <time>2026-05-14T08:36:08</time>
      </trkpt>
      <trkpt lat="28.161539077759" lon="112.48950195312">
        <ele>7193.28</ele>
        <time>2026-05-14T08:36:23</time>
      </trkpt>
      <trkpt lat="28.163360595703" lon="112.45752716064">
        <ele>7193.28</ele>
        <time>2026-05-14T08:36:38</time>
      </trkpt>
      <trkpt lat="28.165054321289" lon="112.42684936523">
        <ele>7193.28</ele>
        <time>2026-05-14T08:36:53</time>
      </trkpt>
      <trkpt lat="28.166803359985" lon="112.39498138428">
        <ele>7193.28</ele>
        <time>2026-05-14T08:37:08</time>
      </trkpt>
      <trkpt lat="28.168533325195" lon="112.36420440674">
        <ele>7193.28</ele>
        <time>2026-05-14T08:37:23</time>
      </trkpt>
      <trkpt lat="28.170295715332" lon="112.33197021484">
        <ele>7193.28</ele>
        <time>2026-05-14T08:37:38</time>
      </trkpt>
      <trkpt lat="28.171966552734" lon="112.30124664307">
        <ele>7193.28</ele>
        <time>2026-05-14T08:37:52</time>
      </trkpt>
      <trkpt lat="28.173248291016" lon="112.2698135376">
        <ele>7193.28</ele>
        <time>2026-05-14T08:38:07</time>
      </trkpt>
      <trkpt lat="28.172239303589" lon="112.23542785645">
        <ele>7193.28</ele>
        <time>2026-05-14T08:38:22</time>
      </trkpt>
      <trkpt lat="28.169038772583" lon="112.20444488525">
        <ele>7193.28</ele>
        <time>2026-05-14T08:38:37</time>
      </trkpt>
      <trkpt lat="28.163684844971" lon="112.17342376709">
        <ele>7193.28</ele>
        <time>2026-05-14T08:38:52</time>
      </trkpt>
      <trkpt lat="28.156049728394" lon="112.14208221436">
        <ele>7193.28</ele>
        <time>2026-05-14T08:39:07</time>
      </trkpt>
      <trkpt lat="28.149299621582" lon="112.11730957031">
        <ele>7193.28</ele>
        <time>2026-05-14T08:39:21</time>
      </trkpt>
      <trkpt lat="28.141387939453" lon="112.0877456665">
        <ele>7193.28</ele>
        <time>2026-05-14T08:39:36</time>
      </trkpt>
      <trkpt lat="28.132680892944" lon="112.05478668213">
        <ele>7193.28</ele>
        <time>2026-05-14T08:39:51</time>
      </trkpt>
      <trkpt lat="28.1247215271" lon="112.02429962158">
        <ele>7193.28</ele>
        <time>2026-05-14T08:40:06</time>
      </trkpt>
      <trkpt lat="28.116899490356" lon="111.99403381348">
        <ele>7193.28</ele>
        <time>2026-05-14T08:40:21</time>
      </trkpt>
      <trkpt lat="28.107788085938" lon="111.95928955078">
        <ele>7193.28</ele>
        <time>2026-05-14T08:40:40</time>
      </trkpt>
      <trkpt lat="28.100006103516" lon="111.92950439453">
        <ele>7193.28</ele>
        <time>2026-05-14T08:40:55</time>
      </trkpt>
      <trkpt lat="28.091901779175" lon="111.89892578125">
        <ele>7193.28</ele>
        <time>2026-05-14T08:41:10</time>
      </trkpt>
      <trkpt lat="28.083707809448" lon="111.868019104">
        <ele>7193.28</ele>
        <time>2026-05-14T08:41:25</time>
      </trkpt>
      <trkpt lat="28.071990966797" lon="111.82402038574">
        <ele>7193.28</ele>
        <time>2026-05-14T08:41:44</time>
      </trkpt>
      <trkpt lat="28.063877105713" lon="111.7935333252">
        <ele>7193.28</ele>
        <time>2026-05-14T08:41:59</time>
      </trkpt>
      <trkpt lat="28.054370880127" lon="111.75773620605">
        <ele>7193.28</ele>
        <time>2026-05-14T08:42:19</time>
      </trkpt>
      <trkpt lat="28.045299530029" lon="111.7236328125">
        <ele>7193.28</ele>
        <time>2026-05-14T08:42:34</time>
      </trkpt>
      <trkpt lat="28.036790847778" lon="111.69161224365">
        <ele>7193.28</ele>
        <time>2026-05-14T08:42:49</time>
      </trkpt>
      <trkpt lat="28.027769088745" lon="111.65775299072">
        <ele>7193.28</ele>
        <time>2026-05-14T08:43:09</time>
      </trkpt>
      <trkpt lat="28.019300460815" lon="111.62600708008">
        <ele>7193.28</ele>
        <time>2026-05-14T08:43:24</time>
      </trkpt>
      <trkpt lat="28.009870529175" lon="111.59078216553">
        <ele>7193.28</ele>
        <time>2026-05-14T08:43:39</time>
      </trkpt>
      <trkpt lat="28.001310348511" lon="111.55876922607">
        <ele>7193.28</ele>
        <time>2026-05-14T08:43:54</time>
      </trkpt>
      <trkpt lat="27.993389129639" lon="111.52924346924">
        <ele>7193.28</ele>
        <time>2026-05-14T08:44:09</time>
      </trkpt>
      <trkpt lat="27.985240936279" lon="111.49833679199">
        <ele>7193.28</ele>
        <time>2026-05-14T08:44:24</time>
      </trkpt>
      <trkpt lat="27.97686958313" lon="111.46395874023">
        <ele>7193.28</ele>
        <time>2026-05-14T08:44:44</time>
      </trkpt>
      <trkpt lat="27.965740203857" lon="111.4161605835">
        <ele>7193.28</ele>
        <time>2026-05-14T08:45:04</time>
      </trkpt>
      <trkpt lat="27.960344314575" lon="111.39264678955">
        <ele>7193.28</ele>
        <time>2026-05-14T08:45:18</time>
      </trkpt>
      <trkpt lat="27.952239990234" lon="111.35805511475">
        <ele>7193.28</ele>
        <time>2026-05-14T08:45:33</time>
      </trkpt>
      <trkpt lat="27.946060180664" lon="111.33169555664">
        <ele>7200.9</ele>
        <time>2026-05-14T08:45:48</time>
      </trkpt>
      <trkpt lat="27.937866210938" lon="111.29710388184">
        <ele>7193.28</ele>
        <time>2026-05-14T08:46:03</time>
      </trkpt>
      <trkpt lat="27.930505752563" lon="111.26625823975">
        <ele>7193.28</ele>
        <time>2026-05-14T08:46:18</time>
      </trkpt>
      <trkpt lat="27.921939849854" lon="111.2306060791">
        <ele>7193.28</ele>
        <time>2026-05-14T08:46:38</time>
      </trkpt>
      <trkpt lat="27.913885116577" lon="111.1971206665">
        <ele>7193.28</ele>
        <time>2026-05-14T08:46:52</time>
      </trkpt>
      <trkpt lat="27.905691146851" lon="111.16346740723">
        <ele>7193.28</ele>
        <time>2026-05-14T08:47:12</time>
      </trkpt>
      <trkpt lat="27.897127151489" lon="111.12797546387">
        <ele>7193.28</ele>
        <time>2026-05-14T08:47:27</time>
      </trkpt>
      <trkpt lat="27.891220092773" lon="111.10369873047">
        <ele>7193.28</ele>
        <time>2026-05-14T08:47:42</time>
      </trkpt>
      <trkpt lat="27.879821777344" lon="111.05664825439">
        <ele>7193.28</ele>
        <time>2026-05-14T08:48:02</time>
      </trkpt>
      <trkpt lat="27.871429443359" lon="111.02233886719">
        <ele>7193.28</ele>
        <time>2026-05-14T08:48:22</time>
      </trkpt>
      <trkpt lat="27.863700866699" lon="110.99053955078">
        <ele>7193.28</ele>
        <time>2026-05-14T08:48:38</time>
      </trkpt>
      <trkpt lat="27.856300354004" lon="110.96006774902">
        <ele>7193.28</ele>
        <time>2026-05-14T08:48:52</time>
      </trkpt>
      <trkpt lat="27.847919464111" lon="110.92559051514">
        <ele>7193.28</ele>
        <time>2026-05-14T08:49:07</time>
      </trkpt>
      <trkpt lat="27.840000152588" lon="110.89350891113">
        <ele>7193.28</ele>
        <time>2026-05-14T08:49:22</time>
      </trkpt>
      <trkpt lat="27.831769943237" lon="110.85991668701">
        <ele>7193.28</ele>
        <time>2026-05-14T08:49:42</time>
      </trkpt>
      <trkpt lat="27.823900222778" lon="110.82769775391">
        <ele>7193.28</ele>
        <time>2026-05-14T08:49:57</time>
      </trkpt>
      <trkpt lat="27.815849304199" lon="110.79453277588">
        <ele>7193.28</ele>
        <time>2026-05-14T08:50:12</time>
      </trkpt>
      <trkpt lat="27.807699203491" lon="110.76110076904">
        <ele>7193.28</ele>
        <time>2026-05-14T08:50:27</time>
      </trkpt>
      <trkpt lat="27.797269821167" lon="110.7184677124">
        <ele>7193.28</ele>
        <time>2026-05-14T08:50:52</time>
      </trkpt>
      <trkpt lat="27.789409637451" lon="110.68669128418">
        <ele>7193.28</ele>
        <time>2026-05-14T08:51:07</time>
      </trkpt>
      <trkpt lat="27.782230377197" lon="110.65730285645">
        <ele>7193.28</ele>
        <time>2026-05-14T08:51:22</time>
      </trkpt>
      <trkpt lat="27.773569107056" lon="110.62212371826">
        <ele>7193.28</ele>
        <time>2026-05-14T08:51:37</time>
      </trkpt>
      <trkpt lat="27.765989303589" lon="110.59127807617">
        <ele>7193.28</ele>
        <time>2026-05-14T08:51:52</time>
      </trkpt>
      <trkpt lat="27.757469177246" lon="110.55673980713">
        <ele>7193.28</ele>
        <time>2026-05-14T08:52:07</time>
      </trkpt>
      <trkpt lat="27.749399185181" lon="110.52391052246">
        <ele>7193.28</ele>
        <time>2026-05-14T08:52:27</time>
      </trkpt>
      <trkpt lat="27.741359710693" lon="110.49124145508">
        <ele>7193.28</ele>
        <time>2026-05-14T08:52:43</time>
      </trkpt>
      <trkpt lat="27.732929229736" lon="110.45722198486">
        <ele>7193.28</ele>
        <time>2026-05-14T08:52:57</time>
      </trkpt>
      <trkpt lat="27.725299835205" lon="110.42633056641">
        <ele>7193.28</ele>
        <time>2026-05-14T08:53:12</time>
      </trkpt>
      <trkpt lat="27.719560623169" lon="110.4033203125">
        <ele>7193.28</ele>
        <time>2026-05-14T08:53:26</time>
      </trkpt>
      <trkpt lat="27.711940765381" lon="110.37261199951">
        <ele>7193.28</ele>
        <time>2026-05-14T08:53:41</time>
      </trkpt>
      <trkpt lat="27.704399108887" lon="110.34234619141">
        <ele>7193.28</ele>
        <time>2026-05-14T08:53:56</time>
      </trkpt>
      <trkpt lat="27.696300506592" lon="110.30963134766">
        <ele>7193.28</ele>
        <time>2026-05-14T08:54:11</time>
      </trkpt>
      <trkpt lat="27.688800811768" lon="110.2795715332">
        <ele>7193.28</ele>
        <time>2026-05-14T08:54:26</time>
      </trkpt>
      <trkpt lat="27.680938720703" lon="110.24822235107">
        <ele>7193.28</ele>
        <time>2026-05-14T08:54:41</time>
      </trkpt>
      <trkpt lat="27.673419952393" lon="110.21800231934">
        <ele>7193.28</ele>
        <time>2026-05-14T08:54:56</time>
      </trkpt>
      <trkpt lat="27.665716171265" lon="110.18716430664">
        <ele>7193.28</ele>
        <time>2026-05-14T08:55:11</time>
      </trkpt>
      <trkpt lat="27.657760620117" lon="110.15534973145">
        <ele>7193.28</ele>
        <time>2026-05-14T08:55:26</time>
      </trkpt>
      <trkpt lat="27.650030136108" lon="110.12425994873">
        <ele>7193.28</ele>
        <time>2026-05-14T08:55:41</time>
      </trkpt>
      <trkpt lat="27.642330169678" lon="110.09348297119">
        <ele>7193.28</ele>
        <time>2026-05-14T08:55:56</time>
      </trkpt>
      <trkpt lat="27.634410858154" lon="110.06201934814">
        <ele>7193.28</ele>
        <time>2026-05-14T08:56:11</time>
      </trkpt>
      <trkpt lat="27.62693977356" lon="110.03240966797">
        <ele>7193.28</ele>
        <time>2026-05-14T08:56:26</time>
      </trkpt>
      <trkpt lat="27.619396209717" lon="110.00230407715">
        <ele>7193.28</ele>
        <time>2026-05-14T08:56:41</time>
      </trkpt>
      <trkpt lat="27.611709594727" lon="109.97164154053">
        <ele>7193.28</ele>
        <time>2026-05-14T08:56:56</time>
      </trkpt>
      <trkpt lat="27.604030609131" lon="109.94119262695">
        <ele>7193.28</ele>
        <time>2026-05-14T08:57:11</time>
      </trkpt>
      <trkpt lat="27.596279144287" lon="109.9104385376">
        <ele>7193.28</ele>
        <time>2026-05-14T08:57:26</time>
      </trkpt>
      <trkpt lat="27.588672637939" lon="109.88023376465">
        <ele>7193.28</ele>
        <time>2026-05-14T08:57:41</time>
      </trkpt>
      <trkpt lat="27.580900192261" lon="109.84928131104">
        <ele>7193.28</ele>
        <time>2026-05-14T08:57:55</time>
      </trkpt>
      <trkpt lat="27.573308944702" lon="109.81917572021">
        <ele>7193.28</ele>
        <time>2026-05-14T08:58:10</time>
      </trkpt>
      <trkpt lat="27.565567016602" lon="109.78871154785">
        <ele>7193.28</ele>
        <time>2026-05-14T08:58:25</time>
      </trkpt>
      <trkpt lat="27.557760238647" lon="109.75807189941">
        <ele>7193.28</ele>
        <time>2026-05-14T08:58:40</time>
      </trkpt>
      <trkpt lat="27.549800872803" lon="109.72673797607">
        <ele>7193.28</ele>
        <time>2026-05-14T08:58:55</time>
      </trkpt>
      <trkpt lat="27.543273925781" lon="109.70190429688">
        <ele>7193.28</ele>
        <time>2026-05-14T08:59:10</time>
      </trkpt>
      <trkpt lat="27.534299850464" lon="109.67237091064">
        <ele>7193.28</ele>
        <time>2026-05-14T08:59:25</time>
      </trkpt>
      <trkpt lat="27.525079727173" lon="109.64282226562">
        <ele>7193.28</ele>
        <time>2026-05-14T08:59:40</time>
      </trkpt>
      <trkpt lat="27.515670776367" lon="109.61241149902">
        <ele>7193.28</ele>
        <time>2026-05-14T08:59:55</time>
      </trkpt>
      <trkpt lat="27.506507873535" lon="109.58291625977">
        <ele>7193.28</ele>
        <time>2026-05-14T09:00:10</time>
      </trkpt>
      <trkpt lat="27.497289657593" lon="109.55345153809">
        <ele>7193.28</ele>
        <time>2026-05-14T09:00:25</time>
      </trkpt>
      <trkpt lat="27.487840652466" lon="109.52295684814">
        <ele>7193.28</ele>
        <time>2026-05-14T09:00:40</time>
      </trkpt>
      <trkpt lat="27.478580474854" lon="109.49339294434">
        <ele>7193.28</ele>
        <time>2026-05-14T09:00:55</time>
      </trkpt>
      <trkpt lat="27.469360351562" lon="109.46396636963">
        <ele>7193.28</ele>
        <time>2026-05-14T09:01:10</time>
      </trkpt>
      <trkpt lat="27.460010528564" lon="109.43408966064">
        <ele>7193.28</ele>
        <time>2026-05-14T09:01:24</time>
      </trkpt>
      <trkpt lat="27.450269699097" lon="109.4029083252">
        <ele>7193.28</ele>
        <time>2026-05-14T09:01:39</time>
      </trkpt>
      <trkpt lat="27.441009521484" lon="109.37355804443">
        <ele>7193.28</ele>
        <time>2026-05-14T09:01:53</time>
      </trkpt>
      <trkpt lat="27.428899765015" lon="109.34121704102">
        <ele>7193.28</ele>
        <time>2026-05-14T09:02:08</time>
      </trkpt>
      <trkpt lat="27.416290283203" lon="109.31324005127">
        <ele>7193.28</ele>
        <time>2026-05-14T09:02:23</time>
      </trkpt>
      <trkpt lat="27.402189254761" lon="109.28629302979">
        <ele>7193.28</ele>
        <time>2026-05-14T09:02:38</time>
      </trkpt>
      <trkpt lat="27.38635635376" lon="109.25993347168">
        <ele>7193.28</ele>
        <time>2026-05-14T09:02:53</time>
      </trkpt>
      <trkpt lat="27.369369506836" lon="109.23394775391">
        <ele>7193.28</ele>
        <time>2026-05-14T09:03:08</time>
      </trkpt>
      <trkpt lat="27.350559234619" lon="109.20488739014">
        <ele>7193.28</ele>
        <time>2026-05-14T09:03:28</time>
      </trkpt>
      <trkpt lat="27.332029342651" lon="109.17594909668">
        <ele>7193.28</ele>
        <time>2026-05-14T09:03:43</time>
      </trkpt>
      <trkpt lat="27.314069747925" lon="109.14803314209">
        <ele>7193.28</ele>
        <time>2026-05-14T09:04:03</time>
      </trkpt>
      <trkpt lat="27.301570892334" lon="109.12860107422">
        <ele>7193.28</ele>
        <time>2026-05-14T09:04:14</time>
      </trkpt>
      <trkpt lat="27.285190582275" lon="109.10320281982">
        <ele>7193.28</ele>
        <time>2026-05-14T09:04:28</time>
      </trkpt>
      <trkpt lat="27.265640258789" lon="109.07299041748">
        <ele>7193.28</ele>
        <time>2026-05-14T09:04:48</time>
      </trkpt>
      <trkpt lat="27.240459442139" lon="109.0341796875">
        <ele>7193.28</ele>
        <time>2026-05-14T09:05:08</time>
      </trkpt>
      <trkpt lat="27.224166870117" lon="109.00904083252">
        <ele>7193.28</ele>
        <time>2026-05-14T09:05:23</time>
      </trkpt>
      <trkpt lat="27.206090927124" lon="108.98110961914">
        <ele>7193.28</ele>
        <time>2026-05-14T09:05:38</time>
      </trkpt>
      <trkpt lat="27.183200836182" lon="108.94571685791">
        <ele>7193.28</ele>
        <time>2026-05-14T09:06:03</time>
      </trkpt>
      <trkpt lat="27.165019989014" lon="108.91763305664">
        <ele>7193.28</ele>
        <time>2026-05-14T09:06:18</time>
      </trkpt>
      <trkpt lat="27.14381980896" lon="108.88501739502">
        <ele>7109.46</ele>
        <time>2026-05-14T09:06:38</time>
      </trkpt>
      <trkpt lat="27.12654876709" lon="108.85855865479">
        <ele>7040.88</ele>
        <time>2026-05-14T09:06:52</time>
      </trkpt>
      <trkpt lat="27.109979629517" lon="108.83305358887">
        <ele>6972.3</ele>
        <time>2026-05-14T09:07:07</time>
      </trkpt>
      <trkpt lat="27.094240188599" lon="108.80890655518">
        <ele>6896.1</ele>
        <time>2026-05-14T09:07:22</time>
      </trkpt>
      <trkpt lat="27.075759887695" lon="108.78044891357">
        <ele>6812.28</ele>
        <time>2026-05-14T09:07:42</time>
      </trkpt>
      <trkpt lat="27.044490814209" lon="108.73240661621">
        <ele>6667.5</ele>
        <time>2026-05-14T09:08:06</time>
      </trkpt>
      <trkpt lat="27.022020339966" lon="108.69805908203">
        <ele>6560.82</ele>
        <time>2026-05-14T09:08:31</time>
      </trkpt>
      <trkpt lat="27.006000518799" lon="108.67343902588">
        <ele>6484.62</ele>
        <time>2026-05-14T09:08:46</time>
      </trkpt>
      <trkpt lat="26.987140655518" lon="108.64447021484">
        <ele>6408.42</ele>
        <time>2026-05-14T09:09:01</time>
      </trkpt>
      <trkpt lat="26.966899871826" lon="108.61343383789">
        <ele>6316.98</ele>
        <time>2026-05-14T09:09:21</time>
      </trkpt>
      <trkpt lat="26.950609207153" lon="108.58850097656">
        <ele>6309.36</ele>
        <time>2026-05-14T09:09:36</time>
      </trkpt>
      <trkpt lat="26.934469223022" lon="108.56382751465">
        <ele>6309.36</ele>
        <time>2026-05-14T09:09:52</time>
      </trkpt>
      <trkpt lat="26.902540206909" lon="108.51496887207">
        <ele>6309.36</ele>
        <time>2026-05-14T09:10:21</time>
      </trkpt>
      <trkpt lat="26.887119293213" lon="108.4914932251">
        <ele>6309.36</ele>
        <time>2026-05-14T09:10:36</time>
      </trkpt>
      <trkpt lat="26.855579376221" lon="108.44339752197">
        <ele>6309.36</ele>
        <time>2026-05-14T09:11:05</time>
      </trkpt>
      <trkpt lat="26.844579696655" lon="108.42665863037">
        <ele>6309.36</ele>
        <time>2026-05-14T09:11:16</time>
      </trkpt>
      <trkpt lat="26.809526443481" lon="108.37331390381">
        <ele>6217.92</ele>
        <time>2026-05-14T09:11:44</time>
      </trkpt>
      <trkpt lat="26.794281005859" lon="108.35032653809">
        <ele>6134.1</ele>
        <time>2026-05-14T09:11:59</time>
      </trkpt>
      <trkpt lat="26.782104492188" lon="108.33369445801">
        <ele>6073.14</ele>
        <time>2026-05-14T09:12:13</time>
      </trkpt>
      <trkpt lat="26.747705459595" lon="108.2886428833">
        <ele>5882.64</ele>
        <time>2026-05-14T09:12:45</time>
      </trkpt>
      <trkpt lat="26.691656112671" lon="108.21374511719">
        <ele>5554.98</ele>
        <time>2026-05-14T09:13:38</time>
      </trkpt>
      <trkpt lat="26.666839599609" lon="108.18076324463">
        <ele>5417.82</ele>
        <time>2026-05-14T09:14:03</time>
      </trkpt>
      <trkpt lat="26.647613525391" lon="108.15542602539">
        <ele>5387.34</ele>
        <time>2026-05-14T09:14:21</time>
      </trkpt>
      <trkpt lat="26.625646591187" lon="108.12643432617">
        <ele>5394.96</ele>
        <time>2026-05-14T09:14:46</time>
      </trkpt>
      <trkpt lat="26.611213684082" lon="108.107421875">
        <ele>5372.1</ele>
        <time>2026-05-14T09:15:01</time>
      </trkpt>
      <trkpt lat="26.595703125" lon="108.08707427979">
        <ele>5303.52</ele>
        <time>2026-05-14T09:15:16</time>
      </trkpt>
      <trkpt lat="26.581047058105" lon="108.06781005859">
        <ele>5234.94</ele>
        <time>2026-05-14T09:15:31</time>
      </trkpt>
      <trkpt lat="26.565719604492" lon="108.04758453369">
        <ele>5173.98</ele>
        <time>2026-05-14T09:15:46</time>
      </trkpt>
      <trkpt lat="26.550933837891" lon="108.02809906006">
        <ele>5090.16</ele>
        <time>2026-05-14T09:16:01</time>
      </trkpt>
      <trkpt lat="26.535659790039" lon="108.00791168213">
        <ele>4998.72</ele>
        <time>2026-05-14T09:16:16</time>
      </trkpt>
      <trkpt lat="26.519439697266" lon="107.98669433594">
        <ele>4907.28</ele>
        <time>2026-05-14T09:16:31</time>
      </trkpt>
      <trkpt lat="26.504981994629" lon="107.96761322021">
        <ele>4838.7</ele>
        <time>2026-05-14T09:16:46</time>
      </trkpt>
      <trkpt lat="26.49143409729" lon="107.94960021973">
        <ele>4785.36</ele>
        <time>2026-05-14T09:17:01</time>
      </trkpt>
      <trkpt lat="26.476593017578" lon="107.93000030518">
        <ele>4785.36</ele>
        <time>2026-05-14T09:17:21</time>
      </trkpt>
      <trkpt lat="26.463043212891" lon="107.91217041016">
        <ele>4785.36</ele>
        <time>2026-05-14T09:17:36</time>
      </trkpt>
      <trkpt lat="26.443450927734" lon="107.88636779785">
        <ele>4785.36</ele>
        <time>2026-05-14T09:17:54</time>
      </trkpt>
      <trkpt lat="26.428730010986" lon="107.8670425415">
        <ele>4785.36</ele>
        <time>2026-05-14T09:18:14</time>
      </trkpt>
      <trkpt lat="26.411878585815" lon="107.84501647949">
        <ele>4785.36</ele>
        <time>2026-05-14T09:18:29</time>
      </trkpt>
      <trkpt lat="26.398471832275" lon="107.8274307251">
        <ele>4785.36</ele>
        <time>2026-05-14T09:18:44</time>
      </trkpt>
      <trkpt lat="26.383670806885" lon="107.80805969238">
        <ele>4785.36</ele>
        <time>2026-05-14T09:18:59</time>
      </trkpt>
      <trkpt lat="26.369842529297" lon="107.78997802734">
        <ele>4785.36</ele>
        <time>2026-05-14T09:19:14</time>
      </trkpt>
      <trkpt lat="26.355640411377" lon="107.77143859863">
        <ele>4785.36</ele>
        <time>2026-05-14T09:19:29</time>
      </trkpt>
      <trkpt lat="26.342468261719" lon="107.75422668457">
        <ele>4785.36</ele>
        <time>2026-05-14T09:19:44</time>
      </trkpt>
      <trkpt lat="26.328552246094" lon="107.73603057861">
        <ele>4785.36</ele>
        <time>2026-05-14T09:19:59</time>
      </trkpt>
      <trkpt lat="26.302963256836" lon="107.70255279541">
        <ele>4785.36</ele>
        <time>2026-05-14T09:20:28</time>
      </trkpt>
      <trkpt lat="26.289459228516" lon="107.68482971191">
        <ele>4777.74</ele>
        <time>2026-05-14T09:20:43</time>
      </trkpt>
      <trkpt lat="26.276779174805" lon="107.66822814941">
        <ele>4785.36</ele>
        <time>2026-05-14T09:20:58</time>
      </trkpt>
      <trkpt lat="26.263366699219" lon="107.6506729126">
        <ele>4785.36</ele>
        <time>2026-05-14T09:21:13</time>
      </trkpt>
      <trkpt lat="26.249771118164" lon="107.63290405273">
        <ele>4785.36</ele>
        <time>2026-05-14T09:21:28</time>
      </trkpt>
      <trkpt lat="26.235717773438" lon="107.61450195312">
        <ele>4785.36</ele>
        <time>2026-05-14T09:21:43</time>
      </trkpt>
      <trkpt lat="26.222122192383" lon="107.5966796875">
        <ele>4785.36</ele>
        <time>2026-05-14T09:21:58</time>
      </trkpt>
      <trkpt lat="26.20867729187" lon="107.57917785645">
        <ele>4770.12</ele>
        <time>2026-05-14T09:22:13</time>
      </trkpt>
      <trkpt lat="26.197540283203" lon="107.55537414551">
        <ele>4678.68</ele>
        <time>2026-05-14T09:22:28</time>
      </trkpt>
      <trkpt lat="26.197128295898" lon="107.53247070312">
        <ele>4564.38</ele>
        <time>2026-05-14T09:22:43</time>
      </trkpt>
      <trkpt lat="26.200286865234" lon="107.50868225098">
        <ele>4434.84</ele>
        <time>2026-05-14T09:22:58</time>
      </trkpt>
      <trkpt lat="26.203416824341" lon="107.48516082764">
        <ele>4282.44</ele>
        <time>2026-05-14T09:23:13</time>
      </trkpt>
      <trkpt lat="26.206649780273" lon="107.46028137207">
        <ele>4206.24</ele>
        <time>2026-05-14T09:23:33</time>
      </trkpt>
      <trkpt lat="26.209533691406" lon="107.43695831299">
        <ele>4198.62</ele>
        <time>2026-05-14T09:23:48</time>
      </trkpt>
      <trkpt lat="26.212280273438" lon="107.41343688965">
        <ele>4175.76</ele>
        <time>2026-05-14T09:24:03</time>
      </trkpt>
      <trkpt lat="26.215026855469" lon="107.38980102539">
        <ele>4076.7</ele>
        <time>2026-05-14T09:24:18</time>
      </trkpt>
      <trkpt lat="26.217727661133" lon="107.36700439453">
        <ele>3962.4</ele>
        <time>2026-05-14T09:24:33</time>
      </trkpt>
      <trkpt lat="26.220407485962" lon="107.34397888184">
        <ele>3909.06</ele>
        <time>2026-05-14T09:24:48</time>
      </trkpt>
      <trkpt lat="26.223175048828" lon="107.3207244873">
        <ele>3893.82</ele>
        <time>2026-05-14T09:25:03</time>
      </trkpt>
      <trkpt lat="26.226013183594" lon="107.29693603516">
        <ele>3893.82</ele>
        <time>2026-05-14T09:25:18</time>
      </trkpt>
      <trkpt lat="26.228713989258" lon="107.2741317749">
        <ele>3901.44</ele>
        <time>2026-05-14T09:25:33</time>
      </trkpt>
      <trkpt lat="26.231441497803" lon="107.25086212158">
        <ele>3893.82</ele>
        <time>2026-05-14T09:25:48</time>
      </trkpt>
      <trkpt lat="26.234024047852" lon="107.22889709473">
        <ele>3893.82</ele>
        <time>2026-05-14T09:26:03</time>
      </trkpt>
      <trkpt lat="26.236541748047" lon="107.20780181885">
        <ele>3825.24</ele>
        <time>2026-05-14T09:26:18</time>
      </trkpt>
      <trkpt lat="26.238935470581" lon="107.18737030029">
        <ele>3710.94</ele>
        <time>2026-05-14T09:26:33</time>
      </trkpt>
      <trkpt lat="26.241403579712" lon="107.1662979126">
        <ele>3604.26</ele>
        <time>2026-05-14T09:26:48</time>
      </trkpt>
      <trkpt lat="26.24377822876" lon="107.14548492432">
        <ele>3474.72</ele>
        <time>2026-05-14T09:27:03</time>
      </trkpt>
      <trkpt lat="26.246290206909" lon="107.12403869629">
        <ele>3345.18</ele>
        <time>2026-05-14T09:27:18</time>
      </trkpt>
      <trkpt lat="26.248804092407" lon="107.10238647461">
        <ele>3230.88</ele>
        <time>2026-05-14T09:27:33</time>
      </trkpt>
      <trkpt lat="26.251319885254" lon="107.08126068115">
        <ele>3116.58</ele>
        <time>2026-05-14T09:27:48</time>
      </trkpt>
      <trkpt lat="26.253799438477" lon="107.06031799316">
        <ele>3002.28</ele>
        <time>2026-05-14T09:28:03</time>
      </trkpt>
      <trkpt lat="26.256206512451" lon="107.03958129883">
        <ele>2926.08</ele>
        <time>2026-05-14T09:28:18</time>
      </trkpt>
      <trkpt lat="26.258535385132" lon="107.01946258545">
        <ele>2887.98</ele>
        <time>2026-05-14T09:28:33</time>
      </trkpt>
      <trkpt lat="26.260757446289" lon="107.00004577637">
        <ele>2842.26</ele>
        <time>2026-05-14T09:28:48</time>
      </trkpt>
      <trkpt lat="26.262954711914" lon="106.98056030273">
        <ele>2766.06</ele>
        <time>2026-05-14T09:29:03</time>
      </trkpt>
      <trkpt lat="26.265100479126" lon="106.96225738525">
        <ele>2689.86</ele>
        <time>2026-05-14T09:29:18</time>
      </trkpt>
      <trkpt lat="26.267303466797" lon="106.94314575195">
        <ele>2583.18</ele>
        <time>2026-05-14T09:29:33</time>
      </trkpt>
      <trkpt lat="26.269430160522" lon="106.92481231689">
        <ele>2506.98</ele>
        <time>2026-05-14T09:29:48</time>
      </trkpt>
      <trkpt lat="26.27165222168" lon="106.90608978271">
        <ele>2461.26</ele>
        <time>2026-05-14T09:30:03</time>
      </trkpt>
      <trkpt lat="26.273664474487" lon="106.88873291016">
        <ele>2461.26</ele>
        <time>2026-05-14T09:30:18</time>
      </trkpt>
      <trkpt lat="26.2756690979" lon="106.87145996094">
        <ele>2453.64</ele>
        <time>2026-05-14T09:30:33</time>
      </trkpt>
      <trkpt lat="26.277620315552" lon="106.85492706299">
        <ele>2461.26</ele>
        <time>2026-05-14T09:30:48</time>
      </trkpt>
      <trkpt lat="26.279390335083" lon="106.83902740479">
        <ele>2468.88</ele>
        <time>2026-05-14T09:31:03</time>
      </trkpt>
      <trkpt lat="26.281127929688" lon="106.82353973389">
        <ele>2461.26</ele>
        <time>2026-05-14T09:31:18</time>
      </trkpt>
      <trkpt lat="26.282913208008" lon="106.80799102783">
        <ele>2461.26</ele>
        <time>2026-05-14T09:31:33</time>
      </trkpt>
      <trkpt lat="26.284881591797" lon="106.7925491333">
        <ele>2438.4</ele>
        <time>2026-05-14T09:31:48</time>
      </trkpt>
      <trkpt lat="26.291912078857" lon="106.77845001221">
        <ele>2392.68</ele>
        <time>2026-05-14T09:32:03</time>
      </trkpt>
      <trkpt lat="26.304565429688" lon="106.77042388916">
        <ele>2346.96</ele>
        <time>2026-05-14T09:32:18</time>
      </trkpt>
      <trkpt lat="26.319076538086" lon="106.76528930664">
        <ele>2293.62</ele>
        <time>2026-05-14T09:32:33</time>
      </trkpt>
      <trkpt lat="26.333297729492" lon="106.76560974121">
        <ele>2232.66</ele>
        <time>2026-05-14T09:32:48</time>
      </trkpt>
      <trkpt lat="26.347822189331" lon="106.76804351807">
        <ele>2171.7</ele>
        <time>2026-05-14T09:33:03</time>
      </trkpt>
      <trkpt lat="26.361881256104" lon="106.77068328857">
        <ele>2103.12</ele>
        <time>2026-05-14T09:33:18</time>
      </trkpt>
      <trkpt lat="26.375793457031" lon="106.77337646484">
        <ele>2026.92</ele>
        <time>2026-05-14T09:33:33</time>
      </trkpt>
      <trkpt lat="26.38985824585" lon="106.77612304688">
        <ele>1950.72</ele>
        <time>2026-05-14T09:33:48</time>
      </trkpt>
      <trkpt lat="26.403030395508" lon="106.77861022949">
        <ele>1866.9</ele>
        <time>2026-05-14T09:34:03</time>
      </trkpt>
      <trkpt lat="26.415559768677" lon="106.78108978271">
        <ele>1805.94</ele>
        <time>2026-05-14T09:34:18</time>
      </trkpt>
      <trkpt lat="26.427062988281" lon="106.78322601318">
        <ele>1737.36</ele>
        <time>2026-05-14T09:34:33</time>
      </trkpt>
      <trkpt lat="26.437429428101" lon="106.78530883789">
        <ele>1668.78</ele>
        <time>2026-05-14T09:34:48</time>
      </trkpt>
      <trkpt lat="26.447891235352" lon="106.78731536865">
        <ele>1615.44</ele>
        <time>2026-05-14T09:35:03</time>
      </trkpt>
      <trkpt lat="26.458009719849" lon="106.7893371582">
        <ele>1569.72</ele>
        <time>2026-05-14T09:35:18</time>
      </trkpt>
      <trkpt lat="26.468673706055" lon="106.79141235352">
        <ele>1508.76</ele>
        <time>2026-05-14T09:35:33</time>
      </trkpt>
      <trkpt lat="26.479110717773" lon="106.7933807373">
        <ele>1455.42</ele>
        <time>2026-05-14T09:35:48</time>
      </trkpt>
      <trkpt lat="26.489456176758" lon="106.79540252686">
        <ele>1394.46</ele>
        <time>2026-05-14T09:36:03</time>
      </trkpt>
      <trkpt lat="26.499160766602" lon="106.79726409912">
        <ele>1341.12</ele>
        <time>2026-05-14T09:36:18</time>
      </trkpt>
      <trkpt lat="26.508911132812" lon="106.79918670654">
        <ele>1287.78</ele>
        <time>2026-05-14T09:36:33</time>
      </trkpt>
      <trkpt lat="26.518520355225" lon="106.80104827881">
        <ele>1234.44</ele>
        <time>2026-05-14T09:36:48</time>
      </trkpt>
      <trkpt lat="26.528305053711" lon="106.80295562744">
        <ele>1181.1</ele>
        <time>2026-05-14T09:37:03</time>
      </trkpt>
      <trkpt lat="26.536846160889" lon="106.80462646484">
        <ele>1181.1</ele>
        <time>2026-05-14T09:37:18</time>
      </trkpt>
      <trkpt lat="26.539709091187" lon="106.80506896973">
        <ele>1181.1</ele>
        <time>2026-05-14T09:37:33</time>
      </trkpt>
      <trkpt lat="26.541000366211" lon="106.80460357666">
        <ele>1181.1</ele>
        <time>2026-05-14T09:37:47</time>
      </trkpt>
      <trkpt lat="26.541677474976" lon="106.80425262451">
        <ele>1181.1</ele>
        <time>2026-05-14T09:38:02</time>
      </trkpt>
      <trkpt lat="26.541770935059" lon="106.80374908447">
        <ele>1181.1</ele>
        <time>2026-05-14T09:38:17</time>
      </trkpt>
      <trkpt lat="26.541875839233" lon="106.80308532715">
        <ele>1181.1</ele>
        <time>2026-05-14T09:38:31</time>
      </trkpt>
      <trkpt lat="26.542039871216" lon="106.80204772949">
        <ele>1181.1</ele>
        <time>2026-05-14T09:38:46</time>
      </trkpt>
      <trkpt lat="26.542224884033" lon="106.80085754395">
        <ele>1181.1</ele>
        <time>2026-05-14T09:39:01</time>
      </trkpt>
      <trkpt lat="26.54246711731" lon="106.80017089844">
        <ele>1181.1</ele>
        <time>2026-05-14T09:39:16</time>
      </trkpt>
      <trkpt lat="26.543069839478" lon="106.80024719238">
        <ele>1181.1</ele>
        <time>2026-05-14T09:39:30</time>
      </trkpt>
      <trkpt lat="26.543800354004" lon="106.80037689209">
        <ele>1181.1</ele>
        <time>2026-05-14T09:39:50</time>
      </trkpt>
      <trkpt lat="26.54467010498" lon="106.80055236816">
        <ele>1181.1</ele>
        <time>2026-05-14T09:40:05</time>
      </trkpt>
      <trkpt lat="26.545610427856" lon="106.80074310303">
        <ele>1181.1</ele>
        <time>2026-05-14T09:40:20</time>
      </trkpt>
      <trkpt lat="26.54660987854" lon="106.80093383789">
        <ele>1181.1</ele>
        <time>2026-05-14T09:40:35</time>
      </trkpt>
      <trkpt lat="26.547508239746" lon="106.80110931396">
        <ele>1181.1</ele>
        <time>2026-05-14T09:40:50</time>
      </trkpt>
      <trkpt lat="26.547870635986" lon="106.80072784424">
        <ele>1181.1</ele>
        <time>2026-05-14T09:41:05</time>
      </trkpt>
      <trkpt lat="26.547845840454" lon="106.80003356934">
        <ele>1181.1</ele>
        <time>2026-05-14T09:41:20</time>
      </trkpt>
      <trkpt lat="26.54753112793" lon="106.79948425293">
        <ele>1181.1</ele>
        <time>2026-05-14T09:41:35</time>
      </trkpt>
      <trkpt lat="26.547386169434" lon="106.79920959473">
        <ele>1181.1</ele>
        <time>2026-05-14T09:41:50</time>
      </trkpt>
      <trkpt lat="26.547351837158" lon="106.79913330078">
        <ele>1181.1</ele>
        <time>2026-05-14T09:42:04</time>
      </trkpt>
      <trkpt lat="26.547351837158" lon="106.79913330078">
        <ele>1181.1</ele>
        <time>2026-05-14T09:42:09</time>
      </trkpt>
      <trkpt lat="26.547351837158" lon="106.79913330078">
        <ele>1181.1</ele>
        <time>2026-05-14T09:42:14</time>
      </trkpt>
      <trkpt lat="26.547351837158" lon="106.79913330078">
        <ele>1181.1</ele>
        <time>2026-05-14T09:42:19</time>
      </trkpt>
    </trkseg>
  </trk>
</gpx>