<?xml version="1.0" encoding="UTF-8"?>
<gpx xmlns="http://www.topografix.com/GPX/1/1" xmlns:xsi="http://www.w3.org/2001/XMLSchema-instance" xsi:schemaLocation="http://www.topografix.com/GPX/1/1 http://www.topografix.com/GPX/1/1/gpx.xsd" version="1.1" creator="gpx.py -- https://github.com/tkrajina/gpxpy">
  <trk>
    <name>Variflight_G52801_20260517.csv</name>
    <trkseg>
      <trkpt lat="30.3101978302" lon="104.44568634033">
        <ele>500.0</ele>
        <time>2026-05-17T10:29:28</time>
      </trkpt>
      <trkpt lat="30.310150146484" lon="104.44593811035">
        <ele>500.0</ele>
        <time>2026-05-17T10:29:32</time>
      </trkpt>
      <trkpt lat="30.310054779053" lon="104.44619750977">
        <ele>500.0</ele>
        <time>2026-05-17T10:29:35</time>
      </trkpt>
      <trkpt lat="30.30997467041" lon="104.44645690918">
        <ele>500.0</ele>
        <time>2026-05-17T10:29:40</time>
      </trkpt>
      <trkpt lat="30.309871673584" lon="104.44672393799">
        <ele>500.0</ele>
        <time>2026-05-17T10:29:45</time>
      </trkpt>
      <trkpt lat="30.309755325317" lon="104.44705963135">
        <ele>500.0</ele>
        <time>2026-05-17T10:29:49</time>
      </trkpt>
      <trkpt lat="30.309665679932" lon="104.44733428955">
        <ele>500.0</ele>
        <time>2026-05-17T10:29:54</time>
      </trkpt>
      <trkpt lat="30.309522628784" lon="104.44772338867">
        <ele>500.0</ele>
        <time>2026-05-17T10:29:59</time>
      </trkpt>
      <trkpt lat="30.309391021729" lon="104.448097229">
        <ele>500.0</ele>
        <time>2026-05-17T10:30:04</time>
      </trkpt>
      <trkpt lat="30.309265136719" lon="104.44846343994">
        <ele>500.0</ele>
        <time>2026-05-17T10:30:09</time>
      </trkpt>
      <trkpt lat="30.309148788452" lon="104.4488067627">
        <ele>500.0</ele>
        <time>2026-05-17T10:30:14</time>
      </trkpt>
      <trkpt lat="30.309057235718" lon="104.44904327393">
        <ele>500.0</ele>
        <time>2026-05-17T10:30:18</time>
      </trkpt>
      <trkpt lat="30.309093475342" lon="104.44924163818">
        <ele>500.0</ele>
        <time>2026-05-17T10:30:28</time>
      </trkpt>
      <trkpt lat="30.309230804443" lon="104.44937133789">
        <ele>500.0</ele>
        <time>2026-05-17T10:30:32</time>
      </trkpt>
      <trkpt lat="30.309413909912" lon="104.44944763184">
        <ele>500.0</ele>
        <time>2026-05-17T10:30:37</time>
      </trkpt>
      <trkpt lat="30.30965423584" lon="104.44955444336">
        <ele>500.0</ele>
        <time>2026-05-17T10:30:42</time>
      </trkpt>
      <trkpt lat="30.309825897217" lon="104.4496307373">
        <ele>500.0</ele>
        <time>2026-05-17T10:30:47</time>
      </trkpt>
      <trkpt lat="30.310020446777" lon="104.44971466064">
        <ele>500.0</ele>
        <time>2026-05-17T10:30:52</time>
      </trkpt>
      <trkpt lat="30.310260772705" lon="104.44983673096">
        <ele>500.0</ele>
        <time>2026-05-17T10:30:57</time>
      </trkpt>
      <trkpt lat="30.31067276001" lon="104.45002746582">
        <ele>500.0</ele>
        <time>2026-05-17T10:31:05</time>
      </trkpt>
      <trkpt lat="30.311222076416" lon="104.45029449463">
        <ele>500.0</ele>
        <time>2026-05-17T10:31:14</time>
      </trkpt>
      <trkpt lat="30.311628341675" lon="104.4504699707">
        <ele>500.0</ele>
        <time>2026-05-17T10:31:20</time>
      </trkpt>
      <trkpt lat="30.311815261841" lon="104.45056152344">
        <ele>500.0</ele>
        <time>2026-05-17T10:31:28</time>
      </trkpt>
      <trkpt lat="30.312217712402" lon="104.4507522583">
        <ele>500.0</ele>
        <time>2026-05-17T10:31:33</time>
      </trkpt>
      <trkpt lat="30.312664031982" lon="104.45096588135">
        <ele>500.0</ele>
        <time>2026-05-17T10:31:39</time>
      </trkpt>
      <trkpt lat="30.313041687012" lon="104.45114135742">
        <ele>500.0</ele>
        <time>2026-05-17T10:31:46</time>
      </trkpt>
      <trkpt lat="30.313373565674" lon="104.45129394531">
        <ele>500.0</ele>
        <time>2026-05-17T10:31:51</time>
      </trkpt>
      <trkpt lat="30.313682556152" lon="104.4514541626">
        <ele>500.0</ele>
        <time>2026-05-17T10:31:56</time>
      </trkpt>
      <trkpt lat="30.313955307007" lon="104.4515838623">
        <ele>500.0</ele>
        <time>2026-05-17T10:32:01</time>
      </trkpt>
      <trkpt lat="30.31424331665" lon="104.45170593262">
        <ele>500.0</ele>
        <time>2026-05-17T10:32:06</time>
      </trkpt>
      <trkpt lat="30.314472198486" lon="104.45181274414">
        <ele>500.0</ele>
        <time>2026-05-17T10:32:10</time>
      </trkpt>
      <trkpt lat="30.314641952515" lon="104.45189666748">
        <ele>500.0</ele>
        <time>2026-05-17T10:32:15</time>
      </trkpt>
      <trkpt lat="30.314805984497" lon="104.45196533203">
        <ele>500.0</ele>
        <time>2026-05-17T10:32:20</time>
      </trkpt>
      <trkpt lat="30.314933776855" lon="104.45203399658">
        <ele>500.0</ele>
        <time>2026-05-17T10:32:25</time>
      </trkpt>
      <trkpt lat="30.315021514893" lon="104.45207214355">
        <ele>500.0</ele>
        <time>2026-05-17T10:32:30</time>
      </trkpt>
      <trkpt lat="30.31503868103" lon="104.45207214355">
        <ele>500.0</ele>
        <time>2026-05-17T10:32:37</time>
      </trkpt>
      <trkpt lat="30.31503868103" lon="104.45207214355">
        <ele>500.0</ele>
        <time>2026-05-17T10:35:59</time>
      </trkpt>
      <trkpt lat="30.315204620361" lon="104.4521484375">
        <ele>500.0</ele>
        <time>2026-05-17T10:36:04</time>
      </trkpt>
      <trkpt lat="30.315305709839" lon="104.45220947266">
        <ele>500.0</ele>
        <time>2026-05-17T10:36:09</time>
      </trkpt>
      <trkpt lat="30.315410614014" lon="104.45225524902">
        <ele>500.0</ele>
        <time>2026-05-17T10:36:13</time>
      </trkpt>
      <trkpt lat="30.315547943115" lon="104.45232391357">
        <ele>500.0</ele>
        <time>2026-05-17T10:36:18</time>
      </trkpt>
      <trkpt lat="30.315696716309" lon="104.45239257812">
        <ele>500.0</ele>
        <time>2026-05-17T10:36:23</time>
      </trkpt>
      <trkpt lat="30.315807342529" lon="104.45252990723">
        <ele>500.0</ele>
        <time>2026-05-17T10:36:28</time>
      </trkpt>
      <trkpt lat="30.315830230713" lon="104.45268249512">
        <ele>500.0</ele>
        <time>2026-05-17T10:36:33</time>
      </trkpt>
      <trkpt lat="30.315788269043" lon="104.45283508301">
        <ele>500.0</ele>
        <time>2026-05-17T10:36:38</time>
      </trkpt>
      <trkpt lat="30.315713882446" lon="104.45301055908">
        <ele>500.0</ele>
        <time>2026-05-17T10:36:43</time>
      </trkpt>
      <trkpt lat="30.315620422363" lon="104.45328521729">
        <ele>500.0</ele>
        <time>2026-05-17T10:36:47</time>
      </trkpt>
      <trkpt lat="30.315525054932" lon="104.45355224609">
        <ele>500.0</ele>
        <time>2026-05-17T10:36:52</time>
      </trkpt>
      <trkpt lat="30.315410614014" lon="104.45385742188">
        <ele>500.0</ele>
        <time>2026-05-17T10:36:56</time>
      </trkpt>
      <trkpt lat="30.315307617188" lon="104.45418548584">
        <ele>500.0</ele>
        <time>2026-05-17T10:37:01</time>
      </trkpt>
      <trkpt lat="30.31517791748" lon="104.4545211792">
        <ele>500.0</ele>
        <time>2026-05-17T10:37:06</time>
      </trkpt>
      <trkpt lat="30.31503868103" lon="104.45491790771">
        <ele>500.0</ele>
        <time>2026-05-17T10:37:10</time>
      </trkpt>
      <trkpt lat="30.314929962158" lon="104.4552230835">
        <ele>500.0</ele>
        <time>2026-05-17T10:37:15</time>
      </trkpt>
      <trkpt lat="30.314804077148" lon="104.45557403564">
        <ele>500.0</ele>
        <time>2026-05-17T10:37:21</time>
      </trkpt>
      <trkpt lat="30.314071655273" lon="104.45763397217">
        <ele>500.0</ele>
        <time>2026-05-17T10:37:48</time>
      </trkpt>
      <trkpt lat="30.313932418823" lon="104.45804595947">
        <ele>500.0</ele>
        <time>2026-05-17T10:37:53</time>
      </trkpt>
      <trkpt lat="30.313774108887" lon="104.45850372314">
        <ele>500.0</ele>
        <time>2026-05-17T10:37:58</time>
      </trkpt>
      <trkpt lat="30.313642501831" lon="104.45886993408">
        <ele>500.0</ele>
        <time>2026-05-17T10:38:03</time>
      </trkpt>
      <trkpt lat="30.313591003418" lon="104.45915222168">
        <ele>500.0</ele>
        <time>2026-05-17T10:38:08</time>
      </trkpt>
      <trkpt lat="30.313711166382" lon="104.45934295654">
        <ele>500.0</ele>
        <time>2026-05-17T10:38:13</time>
      </trkpt>
      <trkpt lat="30.313898086548" lon="104.45941925049">
        <ele>500.0</ele>
        <time>2026-05-17T10:38:18</time>
      </trkpt>
      <trkpt lat="30.314119338989" lon="104.45953369141">
        <ele>500.0</ele>
        <time>2026-05-17T10:38:23</time>
      </trkpt>
      <trkpt lat="30.31439781189" lon="104.45965576172">
        <ele>500.0</ele>
        <time>2026-05-17T10:38:31</time>
      </trkpt>
      <trkpt lat="30.314641952515" lon="104.45977783203">
        <ele>500.0</ele>
        <time>2026-05-17T10:38:36</time>
      </trkpt>
      <trkpt lat="30.314861297607" lon="104.45997619629">
        <ele>500.0</ele>
        <time>2026-05-17T10:38:41</time>
      </trkpt>
      <trkpt lat="30.314979553223" lon="104.46020507812">
        <ele>500.0</ele>
        <time>2026-05-17T10:38:45</time>
      </trkpt>
      <trkpt lat="30.315027236938" lon="104.46042633057">
        <ele>500.0</ele>
        <time>2026-05-17T10:38:50</time>
      </trkpt>
      <trkpt lat="30.314975738525" lon="104.46060943604">
        <ele>500.0</ele>
        <time>2026-05-17T10:38:55</time>
      </trkpt>
      <trkpt lat="30.314910888672" lon="104.46076965332">
        <ele>500.0</ele>
        <time>2026-05-17T10:39:03</time>
      </trkpt>
      <trkpt lat="30.314910888672" lon="104.46078491211">
        <ele>500.0</ele>
        <time>2026-05-17T10:39:07</time>
      </trkpt>
      <trkpt lat="30.314888000488" lon="104.46085357666">
        <ele>500.0</ele>
        <time>2026-05-17T10:39:16</time>
      </trkpt>
      <trkpt lat="30.314746856689" lon="104.46125030518">
        <ele>500.0</ele>
        <time>2026-05-17T10:39:21</time>
      </trkpt>
      <trkpt lat="30.31436920166" lon="104.46230316162">
        <ele>500.0</ele>
        <time>2026-05-17T10:39:26</time>
      </trkpt>
      <trkpt lat="30.31390953064" lon="104.46363830566">
        <ele>500.0</ele>
        <time>2026-05-17T10:39:31</time>
      </trkpt>
      <trkpt lat="30.334899902344" lon="104.57621765137">
        <ele>1623.06</ele>
        <time>2026-05-17T10:42:04</time>
      </trkpt>
      <trkpt lat="30.345703125" lon="104.58935546875">
        <ele>1668.78</ele>
        <time>2026-05-17T10:42:19</time>
      </trkpt>
      <trkpt lat="30.357238769531" lon="104.60357666016">
        <ele>1767.84</ele>
        <time>2026-05-17T10:42:34</time>
      </trkpt>
      <trkpt lat="30.366851806641" lon="104.61553192139">
        <ele>1874.52</ele>
        <time>2026-05-17T10:42:49</time>
      </trkpt>
      <trkpt lat="30.383102416992" lon="104.63610839844">
        <ele>2209.8</ele>
        <time>2026-05-17T10:43:06</time>
      </trkpt>
      <trkpt lat="30.392303466797" lon="104.64778900146">
        <ele>2423.16</ele>
        <time>2026-05-17T10:43:19</time>
      </trkpt>
      <trkpt lat="30.404342651367" lon="104.66303253174">
        <ele>2590.8</ele>
        <time>2026-05-17T10:43:34</time>
      </trkpt>
      <trkpt lat="30.416999816895" lon="104.67893981934">
        <ele>2689.86</ele>
        <time>2026-05-17T10:43:49</time>
      </trkpt>
      <trkpt lat="30.430250167847" lon="104.69561004639">
        <ele>2865.12</ele>
        <time>2026-05-17T10:44:04</time>
      </trkpt>
      <trkpt lat="30.443344116211" lon="104.71209716797">
        <ele>3063.24</ele>
        <time>2026-05-17T10:44:19</time>
      </trkpt>
      <trkpt lat="30.452285766602" lon="104.72332763672">
        <ele>3192.78</ele>
        <time>2026-05-17T10:44:30</time>
      </trkpt>
      <trkpt lat="30.465370178223" lon="104.73980712891">
        <ele>3398.52</ele>
        <time>2026-05-17T10:44:44</time>
      </trkpt>
      <trkpt lat="30.478866577148" lon="104.75678253174">
        <ele>3604.26</ele>
        <time>2026-05-17T10:44:59</time>
      </trkpt>
      <trkpt lat="30.492599487305" lon="104.77407836914">
        <ele>3749.04</ele>
        <time>2026-05-17T10:45:14</time>
      </trkpt>
      <trkpt lat="30.506561279297" lon="104.79174804688">
        <ele>3893.82</ele>
        <time>2026-05-17T10:45:29</time>
      </trkpt>
      <trkpt lat="30.520660400391" lon="104.80946350098">
        <ele>4038.6</ele>
        <time>2026-05-17T10:45:44</time>
      </trkpt>
      <trkpt lat="30.535940170288" lon="104.82698059082">
        <ele>4175.76</ele>
        <time>2026-05-17T10:45:59</time>
      </trkpt>
      <trkpt lat="30.552154541016" lon="104.84349822998">
        <ele>4297.68</ele>
        <time>2026-05-17T10:46:14</time>
      </trkpt>
      <trkpt lat="30.568992614746" lon="104.86065673828">
        <ele>4419.6</ele>
        <time>2026-05-17T10:46:29</time>
      </trkpt>
      <trkpt lat="30.586170196533" lon="104.87828826904">
        <ele>4533.9</ele>
        <time>2026-05-17T10:46:44</time>
      </trkpt>
      <trkpt lat="30.603162765503" lon="104.89581298828">
        <ele>4648.2</ele>
        <time>2026-05-17T10:46:59</time>
      </trkpt>
      <trkpt lat="30.620758056641" lon="104.91394042969">
        <ele>4762.5</ele>
        <time>2026-05-17T10:47:14</time>
      </trkpt>
      <trkpt lat="30.639101028442" lon="104.93283843994">
        <ele>4876.8</ele>
        <time>2026-05-17T10:47:28</time>
      </trkpt>
      <trkpt lat="30.65739440918" lon="104.95179748535">
        <ele>4983.48</ele>
        <time>2026-05-17T10:47:43</time>
      </trkpt>
      <trkpt lat="30.676254272461" lon="104.97129821777">
        <ele>5074.92</ele>
        <time>2026-05-17T10:47:58</time>
      </trkpt>
      <trkpt lat="30.695571899414" lon="104.99132537842">
        <ele>5097.78</ele>
        <time>2026-05-17T10:48:13</time>
      </trkpt>
      <trkpt lat="30.716079711914" lon="105.01248931885">
        <ele>5090.16</ele>
        <time>2026-05-17T10:48:28</time>
      </trkpt>
      <trkpt lat="30.736207962036" lon="105.03462219238">
        <ele>5082.54</ele>
        <time>2026-05-17T10:48:43</time>
      </trkpt>
      <trkpt lat="30.74928855896" lon="105.05588531494">
        <ele>5090.16</ele>
        <time>2026-05-17T10:48:57</time>
      </trkpt>
      <trkpt lat="30.760711669922" lon="105.08885955811">
        <ele>5090.16</ele>
        <time>2026-05-17T10:49:12</time>
      </trkpt>
      <trkpt lat="30.768447875977" lon="105.121925354">
        <ele>5097.78</ele>
        <time>2026-05-17T10:49:27</time>
      </trkpt>
      <trkpt lat="30.776184082031" lon="105.15423583984">
        <ele>5090.16</ele>
        <time>2026-05-17T10:49:42</time>
      </trkpt>
      <trkpt lat="30.78438949585" lon="105.18733978271">
        <ele>5090.16</ele>
        <time>2026-05-17T10:49:57</time>
      </trkpt>
      <trkpt lat="30.792442321777" lon="105.21908569336">
        <ele>5143.5</ele>
        <time>2026-05-17T10:50:12</time>
      </trkpt>
      <trkpt lat="30.801040649414" lon="105.25257873535">
        <ele>5227.32</ele>
        <time>2026-05-17T10:50:27</time>
      </trkpt>
      <trkpt lat="30.8095703125" lon="105.28576660156">
        <ele>5311.14</ele>
        <time>2026-05-17T10:50:42</time>
      </trkpt>
      <trkpt lat="30.818140029907" lon="105.31922912598">
        <ele>5440.68</ele>
        <time>2026-05-17T10:50:57</time>
      </trkpt>
      <trkpt lat="30.826751708984" lon="105.35289764404">
        <ele>5623.56</ele>
        <time>2026-05-17T10:51:12</time>
      </trkpt>
      <trkpt lat="30.835737228394" lon="105.38827514648">
        <ele>5814.06</ele>
        <time>2026-05-17T10:51:27</time>
      </trkpt>
      <trkpt lat="30.84407043457" lon="105.42119598389">
        <ele>5996.94</ele>
        <time>2026-05-17T10:51:42</time>
      </trkpt>
      <trkpt lat="30.851797103882" lon="105.45309448242">
        <ele>6187.44</ele>
        <time>2026-05-17T10:51:57</time>
      </trkpt>
      <trkpt lat="30.858764648438" lon="105.48501586914">
        <ele>6377.94</ele>
        <time>2026-05-17T10:52:12</time>
      </trkpt>
      <trkpt lat="30.863571166992" lon="105.51829528809">
        <ele>6537.96</ele>
        <time>2026-05-17T10:52:27</time>
      </trkpt>
      <trkpt lat="30.863388061523" lon="105.55109405518">
        <ele>6667.5</ele>
        <time>2026-05-17T10:52:42</time>
      </trkpt>
      <trkpt lat="30.861806869507" lon="105.58421325684">
        <ele>6789.42</ele>
        <time>2026-05-17T10:52:57</time>
      </trkpt>
      <trkpt lat="30.860363006592" lon="105.61679077148">
        <ele>6903.72</ele>
        <time>2026-05-17T10:53:12</time>
      </trkpt>
      <trkpt lat="30.858947753906" lon="105.6499710083">
        <ele>7018.02</ele>
        <time>2026-05-17T10:53:27</time>
      </trkpt>
      <trkpt lat="30.857570648193" lon="105.68325042725">
        <ele>7124.7</ele>
        <time>2026-05-17T10:53:42</time>
      </trkpt>
      <trkpt lat="30.856250762939" lon="105.71733856201">
        <ele>7239.0</ele>
        <time>2026-05-17T10:53:57</time>
      </trkpt>
      <trkpt lat="30.854873657227" lon="105.75025177002">
        <ele>7345.68</ele>
        <time>2026-05-17T10:54:12</time>
      </trkpt>
      <trkpt lat="30.853454589844" lon="105.78363800049">
        <ele>7452.36</ele>
        <time>2026-05-17T10:54:27</time>
      </trkpt>
      <trkpt lat="30.851943969727" lon="105.8179397583">
        <ele>7498.08</ele>
        <time>2026-05-17T10:54:42</time>
      </trkpt>
      <trkpt lat="30.850433349609" lon="105.85262298584">
        <ele>7505.7</ele>
        <time>2026-05-17T10:54:57</time>
      </trkpt>
      <trkpt lat="30.848968505859" lon="105.88790130615">
        <ele>7498.08</ele>
        <time>2026-05-17T10:55:12</time>
      </trkpt>
      <trkpt lat="30.847366333008" lon="105.92505645752">
        <ele>7498.08</ele>
        <time>2026-05-17T10:55:27</time>
      </trkpt>
      <trkpt lat="30.845718383789" lon="105.96216583252">
        <ele>7528.56</ele>
        <time>2026-05-17T10:55:41</time>
      </trkpt>
      <trkpt lat="30.844024658203" lon="106.00002288818">
        <ele>7620.0</ele>
        <time>2026-05-17T10:55:56</time>
      </trkpt>
      <trkpt lat="30.842346191406" lon="106.0366897583">
        <ele>7749.54</ele>
        <time>2026-05-17T10:56:11</time>
      </trkpt>
      <trkpt lat="30.840625762939" lon="106.07404327393">
        <ele>7863.84</ele>
        <time>2026-05-17T10:56:26</time>
      </trkpt>
      <trkpt lat="30.838809967041" lon="106.11326599121">
        <ele>7970.52</ele>
        <time>2026-05-17T10:56:41</time>
      </trkpt>
      <trkpt lat="30.83717918396" lon="106.14852905273">
        <ele>8061.96</ele>
        <time>2026-05-17T10:56:56</time>
      </trkpt>
      <trkpt lat="30.835327148438" lon="106.18867492676">
        <ele>8115.3</ele>
        <time>2026-05-17T10:57:15</time>
      </trkpt>
      <trkpt lat="30.833408355713" lon="106.22988128662">
        <ele>8107.68</ele>
        <time>2026-05-17T10:57:30</time>
      </trkpt>
      <trkpt lat="30.831546783447" lon="106.26937866211">
        <ele>8107.68</ele>
        <time>2026-05-17T10:57:45</time>
      </trkpt>
      <trkpt lat="30.82905960083" lon="106.30802154541">
        <ele>8107.68</ele>
        <time>2026-05-17T10:58:00</time>
      </trkpt>
      <trkpt lat="30.822929382324" lon="106.350730896">
        <ele>8107.68</ele>
        <time>2026-05-17T10:58:20</time>
      </trkpt>
      <trkpt lat="30.815050125122" lon="106.3861618042">
        <ele>8107.68</ele>
        <time>2026-05-17T10:58:35</time>
      </trkpt>
      <trkpt lat="30.803329467773" lon="106.42504882812">
        <ele>8107.68</ele>
        <time>2026-05-17T10:58:50</time>
      </trkpt>
      <trkpt lat="30.789928436279" lon="106.45949554443">
        <ele>8107.68</ele>
        <time>2026-05-17T10:59:04</time>
      </trkpt>
      <trkpt lat="30.772329330444" lon="106.49607849121">
        <ele>8107.68</ele>
        <time>2026-05-17T10:59:24</time>
      </trkpt>
      <trkpt lat="30.745145797729" lon="106.54090881348">
        <ele>8107.68</ele>
        <time>2026-05-17T10:59:43</time>
      </trkpt>
      <trkpt lat="30.724685668945" lon="106.56845855713">
        <ele>8107.68</ele>
        <time>2026-05-17T10:59:58</time>
      </trkpt>
      <trkpt lat="30.706279754639" lon="106.58995819092">
        <ele>8107.68</ele>
        <time>2026-05-17T11:00:11</time>
      </trkpt>
      <trkpt lat="30.684019088745" lon="106.61390686035">
        <ele>8107.68</ele>
        <time>2026-05-17T11:00:26</time>
      </trkpt>
      <trkpt lat="30.659769058228" lon="106.6400604248">
        <ele>8107.68</ele>
        <time>2026-05-17T11:00:40</time>
      </trkpt>
      <trkpt lat="30.636119842529" lon="106.6656036377">
        <ele>8100.06</ele>
        <time>2026-05-17T11:00:56</time>
      </trkpt>
      <trkpt lat="30.619781494141" lon="106.68323516846">
        <ele>8107.68</ele>
        <time>2026-05-17T11:01:09</time>
      </trkpt>
      <trkpt lat="30.595060348511" lon="106.70999145508">
        <ele>8107.68</ele>
        <time>2026-05-17T11:01:23</time>
      </trkpt>
      <trkpt lat="30.571929931641" lon="106.73508453369">
        <ele>8107.68</ele>
        <time>2026-05-17T11:01:38</time>
      </trkpt>
      <trkpt lat="30.548696517944" lon="106.76029968262">
        <ele>8107.68</ele>
        <time>2026-05-17T11:01:53</time>
      </trkpt>
      <trkpt lat="30.523910522461" lon="106.78716278076">
        <ele>8107.68</ele>
        <time>2026-05-17T11:02:08</time>
      </trkpt>
      <trkpt lat="30.500659942627" lon="106.81226348877">
        <ele>8107.68</ele>
        <time>2026-05-17T11:02:23</time>
      </trkpt>
      <trkpt lat="30.468019485474" lon="106.84742736816">
        <ele>8115.3</ele>
        <time>2026-05-17T11:02:47</time>
      </trkpt>
      <trkpt lat="30.445209503174" lon="106.87197875977">
        <ele>8115.3</ele>
        <time>2026-05-17T11:03:02</time>
      </trkpt>
      <trkpt lat="30.418815612793" lon="106.90037536621">
        <ele>8115.3</ele>
        <time>2026-05-17T11:03:17</time>
      </trkpt>
      <trkpt lat="30.395027160645" lon="106.9259185791">
        <ele>8115.3</ele>
        <time>2026-05-17T11:03:32</time>
      </trkpt>
      <trkpt lat="30.372207641602" lon="106.95044708252">
        <ele>8115.3</ele>
        <time>2026-05-17T11:03:47</time>
      </trkpt>
      <trkpt lat="30.34859085083" lon="106.97576141357">
        <ele>8115.3</ele>
        <time>2026-05-17T11:04:02</time>
      </trkpt>
      <trkpt lat="30.323383331299" lon="107.00238800049">
        <ele>8115.3</ele>
        <time>2026-05-17T11:04:17</time>
      </trkpt>
      <trkpt lat="30.290609359741" lon="107.03605651855">
        <ele>8115.3</ele>
        <time>2026-05-17T11:04:42</time>
      </trkpt>
      <trkpt lat="30.26515007019" lon="107.06192779541">
        <ele>8115.3</ele>
        <time>2026-05-17T11:04:57</time>
      </trkpt>
      <trkpt lat="30.240371704102" lon="107.08713531494">
        <ele>8115.3</ele>
        <time>2026-05-17T11:05:12</time>
      </trkpt>
      <trkpt lat="30.214357376099" lon="107.11367797852">
        <ele>8115.3</ele>
        <time>2026-05-17T11:05:27</time>
      </trkpt>
      <trkpt lat="30.191589355469" lon="107.13690948486">
        <ele>8115.3</ele>
        <time>2026-05-17T11:05:42</time>
      </trkpt>
      <trkpt lat="30.167852401733" lon="107.16124725342">
        <ele>8107.68</ele>
        <time>2026-05-17T11:05:56</time>
      </trkpt>
      <trkpt lat="30.143783569336" lon="107.18584442139">
        <ele>8107.68</ele>
        <time>2026-05-17T11:06:11</time>
      </trkpt>
      <trkpt lat="30.123300552368" lon="107.20694732666">
        <ele>8107.68</ele>
        <time>2026-05-17T11:06:26</time>
      </trkpt>
      <trkpt lat="30.100397109985" lon="107.23188781738">
        <ele>8107.68</ele>
        <time>2026-05-17T11:06:41</time>
      </trkpt>
      <trkpt lat="30.078149795532" lon="107.25798034668">
        <ele>8107.68</ele>
        <time>2026-05-17T11:06:56</time>
      </trkpt>
      <trkpt lat="30.056959152222" lon="107.28588867188">
        <ele>8107.68</ele>
        <time>2026-05-17T11:07:11</time>
      </trkpt>
      <trkpt lat="30.037080764771" lon="107.31504821777">
        <ele>8107.68</ele>
        <time>2026-05-17T11:07:25</time>
      </trkpt>
      <trkpt lat="30.017810821533" lon="107.34649658203">
        <ele>8107.68</ele>
        <time>2026-05-17T11:07:39</time>
      </trkpt>
      <trkpt lat="30.001235961914" lon="107.37649536133">
        <ele>8107.68</ele>
        <time>2026-05-17T11:07:53</time>
      </trkpt>
      <trkpt lat="29.984252929688" lon="107.41107177734">
        <ele>8107.68</ele>
        <time>2026-05-17T11:08:12</time>
      </trkpt>
      <trkpt lat="29.969350814819" lon="107.44541168213">
        <ele>8107.68</ele>
        <time>2026-05-17T11:08:27</time>
      </trkpt>
      <trkpt lat="29.955780029297" lon="107.48156738281">
        <ele>8107.68</ele>
        <time>2026-05-17T11:08:42</time>
      </trkpt>
      <trkpt lat="29.946449279785" lon="107.51028442383">
        <ele>8107.68</ele>
        <time>2026-05-17T11:08:57</time>
      </trkpt>
      <trkpt lat="29.939350128174" lon="107.53530883789">
        <ele>8107.68</ele>
        <time>2026-05-17T11:09:08</time>
      </trkpt>
      <trkpt lat="29.929229736328" lon="107.57494354248">
        <ele>8107.68</ele>
        <time>2026-05-17T11:09:27</time>
      </trkpt>
      <trkpt lat="29.920049667358" lon="107.62409973145">
        <ele>8107.68</ele>
        <time>2026-05-17T11:09:46</time>
      </trkpt>
      <trkpt lat="29.916143417358" lon="107.66535949707">
        <ele>8107.68</ele>
        <time>2026-05-17T11:10:01</time>
      </trkpt>
      <trkpt lat="29.915491104126" lon="107.70347595215">
        <ele>8107.68</ele>
        <time>2026-05-17T11:10:15</time>
      </trkpt>
      <trkpt lat="29.91735458374" lon="107.73852539062">
        <ele>8107.68</ele>
        <time>2026-05-17T11:10:30</time>
      </trkpt>
      <trkpt lat="29.921730041504" lon="107.77406311035">
        <ele>8107.68</ele>
        <time>2026-05-17T11:10:45</time>
      </trkpt>
      <trkpt lat="29.928527832031" lon="107.80921936035">
        <ele>8107.68</ele>
        <time>2026-05-17T11:11:00</time>
      </trkpt>
      <trkpt lat="29.937372207642" lon="107.8438873291">
        <ele>8100.06</ele>
        <time>2026-05-17T11:11:15</time>
      </trkpt>
      <trkpt lat="29.946075439453" lon="107.87750244141">
        <ele>8039.1</ele>
        <time>2026-05-17T11:11:30</time>
      </trkpt>
      <trkpt lat="29.952713012695" lon="107.90378570557">
        <ele>7978.14</ele>
        <time>2026-05-17T11:11:44</time>
      </trkpt>
      <trkpt lat="29.961639404297" lon="107.93949127197">
        <ele>7863.84</ele>
        <time>2026-05-17T11:11:59</time>
      </trkpt>
      <trkpt lat="29.970249176025" lon="107.97384643555">
        <ele>7757.16</ele>
        <time>2026-05-17T11:12:14</time>
      </trkpt>
      <trkpt lat="29.978849411011" lon="108.00829315186">
        <ele>7642.86</ele>
        <time>2026-05-17T11:12:29</time>
      </trkpt>
      <trkpt lat="29.987319946289" lon="108.04202270508">
        <ele>7536.18</ele>
        <time>2026-05-17T11:12:44</time>
      </trkpt>
      <trkpt lat="29.995697021484" lon="108.07525634766">
        <ele>7505.7</ele>
        <time>2026-05-17T11:12:59</time>
      </trkpt>
      <trkpt lat="30.003894805908" lon="108.10804748535">
        <ele>7490.46</ele>
        <time>2026-05-17T11:13:14</time>
      </trkpt>
      <trkpt lat="30.01189994812" lon="108.14008331299">
        <ele>7498.08</ele>
        <time>2026-05-17T11:13:29</time>
      </trkpt>
      <trkpt lat="30.020280838013" lon="108.17363739014">
        <ele>7498.08</ele>
        <time>2026-05-17T11:13:45</time>
      </trkpt>
      <trkpt lat="30.027030944824" lon="108.20078277588">
        <ele>7498.08</ele>
        <time>2026-05-17T11:13:57</time>
      </trkpt>
      <trkpt lat="30.036479949951" lon="108.23844146729">
        <ele>7498.08</ele>
        <time>2026-05-17T11:14:12</time>
      </trkpt>
      <trkpt lat="30.043807983398" lon="108.26757049561">
        <ele>7505.7</ele>
        <time>2026-05-17T11:14:27</time>
      </trkpt>
      <trkpt lat="30.052597045898" lon="108.30246734619">
        <ele>7498.08</ele>
        <time>2026-05-17T11:14:41</time>
      </trkpt>
      <trkpt lat="30.064273834229" lon="108.34909057617">
        <ele>7498.08</ele>
        <time>2026-05-17T11:15:00</time>
      </trkpt>
      <trkpt lat="30.103958129883" lon="108.50900268555">
        <ele>7498.08</ele>
        <time>2026-05-17T11:16:10</time>
      </trkpt>
      <trkpt lat="30.128170013428" lon="108.60481262207">
        <ele>7498.08</ele>
        <time>2026-05-17T11:16:48</time>
      </trkpt>
      <trkpt lat="30.174739837646" lon="108.75991821289">
        <ele>7498.08</ele>
        <time>2026-05-17T11:17:56</time>
      </trkpt>
      <trkpt lat="30.185529708862" lon="108.79647827148">
        <ele>7498.08</ele>
        <time>2026-05-17T11:18:11</time>
      </trkpt>
      <trkpt lat="30.195550918579" lon="108.83084106445">
        <ele>7498.08</ele>
        <time>2026-05-17T11:18:25</time>
      </trkpt>
      <trkpt lat="30.206039428711" lon="108.86696624756">
        <ele>7498.08</ele>
        <time>2026-05-17T11:18:40</time>
      </trkpt>
      <trkpt lat="30.215850830078" lon="108.90081787109">
        <ele>7498.08</ele>
        <time>2026-05-17T11:18:54</time>
      </trkpt>
      <trkpt lat="30.224349975586" lon="108.93019866943">
        <ele>7498.08</ele>
        <time>2026-05-17T11:19:09</time>
      </trkpt>
      <trkpt lat="30.233770370483" lon="108.96378326416">
        <ele>7498.08</ele>
        <time>2026-05-17T11:19:24</time>
      </trkpt>
      <trkpt lat="30.242479324341" lon="108.99844360352">
        <ele>7498.08</ele>
        <time>2026-05-17T11:19:39</time>
      </trkpt>
      <trkpt lat="30.250719070435" lon="109.03349304199">
        <ele>7498.08</ele>
        <time>2026-05-17T11:19:54</time>
      </trkpt>
      <trkpt lat="30.259140014648" lon="109.06957244873">
        <ele>7498.08</ele>
        <time>2026-05-17T11:20:09</time>
      </trkpt>
      <trkpt lat="30.268640518188" lon="109.10967254639">
        <ele>7498.08</ele>
        <time>2026-05-17T11:20:24</time>
      </trkpt>
      <trkpt lat="30.277450561523" lon="109.14642333984">
        <ele>7498.08</ele>
        <time>2026-05-17T11:20:39</time>
      </trkpt>
      <trkpt lat="30.284330368042" lon="109.17476654053">
        <ele>7498.08</ele>
        <time>2026-05-17T11:20:52</time>
      </trkpt>
      <trkpt lat="30.293119430542" lon="109.21096801758">
        <ele>7498.08</ele>
        <time>2026-05-17T11:21:07</time>
      </trkpt>
      <trkpt lat="30.302429199219" lon="109.24909210205">
        <ele>7498.08</ele>
        <time>2026-05-17T11:21:21</time>
      </trkpt>
      <trkpt lat="30.31164932251" lon="109.28677368164">
        <ele>7498.08</ele>
        <time>2026-05-17T11:21:40</time>
      </trkpt>
      <trkpt lat="30.320919036865" lon="109.32462310791">
        <ele>7498.08</ele>
        <time>2026-05-17T11:21:55</time>
      </trkpt>
      <trkpt lat="30.330129623413" lon="109.36247253418">
        <ele>7498.08</ele>
        <time>2026-05-17T11:22:10</time>
      </trkpt>
      <trkpt lat="30.340190887451" lon="109.40355682373">
        <ele>7498.08</ele>
        <time>2026-05-17T11:22:29</time>
      </trkpt>
      <trkpt lat="30.348819732666" lon="109.4387512207">
        <ele>7490.46</ele>
        <time>2026-05-17T11:22:44</time>
      </trkpt>
      <trkpt lat="30.3577003479" lon="109.47503662109">
        <ele>7498.08</ele>
        <time>2026-05-17T11:22:59</time>
      </trkpt>
      <trkpt lat="30.366910934448" lon="109.51281738281">
        <ele>7498.08</ele>
        <time>2026-05-17T11:23:14</time>
      </trkpt>
      <trkpt lat="30.374820709229" lon="109.5454864502">
        <ele>7498.08</ele>
        <time>2026-05-17T11:23:29</time>
      </trkpt>
      <trkpt lat="30.3835105896" lon="109.58168029785">
        <ele>7498.08</ele>
        <time>2026-05-17T11:23:44</time>
      </trkpt>
      <trkpt lat="30.389879226685" lon="109.61112976074">
        <ele>7498.08</ele>
        <time>2026-05-17T11:23:59</time>
      </trkpt>
      <trkpt lat="30.395629882812" lon="109.65344238281">
        <ele>7498.08</ele>
        <time>2026-05-17T11:24:17</time>
      </trkpt>
      <trkpt lat="30.392139434814" lon="109.68810272217">
        <ele>7498.08</ele>
        <time>2026-05-17T11:24:32</time>
      </trkpt>
      <trkpt lat="30.38429069519" lon="109.71975708008">
        <ele>7498.08</ele>
        <time>2026-05-17T11:24:47</time>
      </trkpt>
      <trkpt lat="30.375799179077" lon="109.7520980835">
        <ele>7498.08</ele>
        <time>2026-05-17T11:25:02</time>
      </trkpt>
      <trkpt lat="30.366899490356" lon="109.78002166748">
        <ele>7498.08</ele>
        <time>2026-05-17T11:25:17</time>
      </trkpt>
      <trkpt lat="30.35306930542" lon="109.81340789795">
        <ele>7498.08</ele>
        <time>2026-05-17T11:25:32</time>
      </trkpt>
      <trkpt lat="30.338609695435" lon="109.84616088867">
        <ele>7498.08</ele>
        <time>2026-05-17T11:25:47</time>
      </trkpt>
      <trkpt lat="30.326919555664" lon="109.87284088135">
        <ele>7498.08</ele>
        <time>2026-05-17T11:26:02</time>
      </trkpt>
      <trkpt lat="30.312999725342" lon="109.90464019775">
        <ele>7498.08</ele>
        <time>2026-05-17T11:26:18</time>
      </trkpt>
      <trkpt lat="30.292470932007" lon="109.94815826416">
        <ele>7498.08</ele>
        <time>2026-05-17T11:26:40</time>
      </trkpt>
      <trkpt lat="30.273469924927" lon="109.98338317871">
        <ele>7498.08</ele>
        <time>2026-05-17T11:26:59</time>
      </trkpt>
      <trkpt lat="30.25638961792" lon="110.01483154297">
        <ele>7498.08</ele>
        <time>2026-05-17T11:27:15</time>
      </trkpt>
      <trkpt lat="30.240329742432" lon="110.04148864746">
        <ele>7498.08</ele>
        <time>2026-05-17T11:27:29</time>
      </trkpt>
      <trkpt lat="30.222200393677" lon="110.06916809082">
        <ele>7498.08</ele>
        <time>2026-05-17T11:27:44</time>
      </trkpt>
      <trkpt lat="30.210159301758" lon="110.08759307861">
        <ele>7490.46</ele>
        <time>2026-05-17T11:27:55</time>
      </trkpt>
      <trkpt lat="30.19135093689" lon="110.11650848389">
        <ele>7498.08</ele>
        <time>2026-05-17T11:28:10</time>
      </trkpt>
      <trkpt lat="30.165105819702" lon="110.15705871582">
        <ele>7498.08</ele>
        <time>2026-05-17T11:28:28</time>
      </trkpt>
      <trkpt lat="30.131259918213" lon="110.20951843262">
        <ele>7498.08</ele>
        <time>2026-05-17T11:28:56</time>
      </trkpt>
      <trkpt lat="30.115949630737" lon="110.23487854004">
        <ele>7498.08</ele>
        <time>2026-05-17T11:29:11</time>
      </trkpt>
      <trkpt lat="30.101810455322" lon="110.27182006836">
        <ele>7498.08</ele>
        <time>2026-05-17T11:29:26</time>
      </trkpt>
      <trkpt lat="30.09654045105" lon="110.30079650879">
        <ele>7498.08</ele>
        <time>2026-05-17T11:29:39</time>
      </trkpt>
      <trkpt lat="30.092809677124" lon="110.33766937256">
        <ele>7498.08</ele>
        <time>2026-05-17T11:29:54</time>
      </trkpt>
      <trkpt lat="30.086790084839" lon="110.40225982666">
        <ele>7498.08</ele>
        <time>2026-05-17T11:30:19</time>
      </trkpt>
      <trkpt lat="30.082750320435" lon="110.44423675537">
        <ele>7498.08</ele>
        <time>2026-05-17T11:30:39</time>
      </trkpt>
      <trkpt lat="30.079359054565" lon="110.47960662842">
        <ele>7498.08</ele>
        <time>2026-05-17T11:30:53</time>
      </trkpt>
      <trkpt lat="30.07460975647" lon="110.52855682373">
        <ele>7498.08</ele>
        <time>2026-05-17T11:31:13</time>
      </trkpt>
      <trkpt lat="30.071460723877" lon="110.5612411499">
        <ele>7498.08</ele>
        <time>2026-05-17T11:31:26</time>
      </trkpt>
      <trkpt lat="30.067720413208" lon="110.60018920898">
        <ele>7498.08</ele>
        <time>2026-05-17T11:31:40</time>
      </trkpt>
      <trkpt lat="30.061573028564" lon="110.66368865967">
        <ele>7498.08</ele>
        <time>2026-05-17T11:32:08</time>
      </trkpt>
      <trkpt lat="30.057430267334" lon="110.7067565918">
        <ele>7498.08</ele>
        <time>2026-05-17T11:32:24</time>
      </trkpt>
      <trkpt lat="30.053787231445" lon="110.74450683594">
        <ele>7498.08</ele>
        <time>2026-05-17T11:32:38</time>
      </trkpt>
      <trkpt lat="30.050960540771" lon="110.77410125732">
        <ele>7498.08</ele>
        <time>2026-05-17T11:32:53</time>
      </trkpt>
      <trkpt lat="30.047700881958" lon="110.80827331543">
        <ele>7498.08</ele>
        <time>2026-05-17T11:33:07</time>
      </trkpt>
      <trkpt lat="30.044357299805" lon="110.84316253662">
        <ele>7498.08</ele>
        <time>2026-05-17T11:33:23</time>
      </trkpt>
      <trkpt lat="30.03955078125" lon="110.89308929443">
        <ele>7498.08</ele>
        <time>2026-05-17T11:33:40</time>
      </trkpt>
      <trkpt lat="30.036346435547" lon="110.92680358887">
        <ele>7498.08</ele>
        <time>2026-05-17T11:33:53</time>
      </trkpt>
      <trkpt lat="30.033599853516" lon="110.95778656006">
        <ele>7498.08</ele>
        <time>2026-05-17T11:34:08</time>
      </trkpt>
      <trkpt lat="30.031686782837" lon="110.99756622314">
        <ele>7498.08</ele>
        <time>2026-05-17T11:34:23</time>
      </trkpt>
      <trkpt lat="30.031080245972" lon="111.04119110107">
        <ele>7498.08</ele>
        <time>2026-05-17T11:34:42</time>
      </trkpt>
      <trkpt lat="30.029979705811" lon="111.11782073975">
        <ele>7498.08</ele>
        <time>2026-05-17T11:35:14</time>
      </trkpt>
      <trkpt lat="30.029109954834" lon="111.16715240479">
        <ele>7498.08</ele>
        <time>2026-05-17T11:35:34</time>
      </trkpt>
      <trkpt lat="30.02897644043" lon="111.21007537842">
        <ele>7498.08</ele>
        <time>2026-05-17T11:35:49</time>
      </trkpt>
      <trkpt lat="30.030199050903" lon="111.2392578125">
        <ele>7498.08</ele>
        <time>2026-05-17T11:36:03</time>
      </trkpt>
      <trkpt lat="30.032680511475" lon="111.27841949463">
        <ele>7498.08</ele>
        <time>2026-05-17T11:36:18</time>
      </trkpt>
      <trkpt lat="30.035430908203" lon="111.32042694092">
        <ele>7498.08</ele>
        <time>2026-05-17T11:36:33</time>
      </trkpt>
      <trkpt lat="30.037599563599" lon="111.3550567627">
        <ele>7498.08</ele>
        <time>2026-05-17T11:36:48</time>
      </trkpt>
      <trkpt lat="30.040649414062" lon="111.40567779541">
        <ele>7498.08</ele>
        <time>2026-05-17T11:37:08</time>
      </trkpt>
      <trkpt lat="30.04508972168" lon="111.4790802002">
        <ele>7498.08</ele>
        <time>2026-05-17T11:37:38</time>
      </trkpt>
      <trkpt lat="30.048957824707" lon="111.52276611328">
        <ele>7498.08</ele>
        <time>2026-05-17T11:37:56</time>
      </trkpt>
      <trkpt lat="30.055059432983" lon="111.5671005249">
        <ele>7498.08</ele>
        <time>2026-05-17T11:38:11</time>
      </trkpt>
      <trkpt lat="30.061199188232" lon="111.60994720459">
        <ele>7498.08</ele>
        <time>2026-05-17T11:38:31</time>
      </trkpt>
      <trkpt lat="30.06715965271" lon="111.65196990967">
        <ele>7498.08</ele>
        <time>2026-05-17T11:38:46</time>
      </trkpt>
      <trkpt lat="30.071228027344" lon="111.68125152588">
        <ele>7498.08</ele>
        <time>2026-05-17T11:39:00</time>
      </trkpt>
      <trkpt lat="30.076400756836" lon="111.71846008301">
        <ele>7498.08</ele>
        <time>2026-05-17T11:39:14</time>
      </trkpt>
      <trkpt lat="30.081636428833" lon="111.75633239746">
        <ele>7498.08</ele>
        <time>2026-05-17T11:39:27</time>
      </trkpt>
      <trkpt lat="30.085826873779" lon="111.7865447998">
        <ele>7498.08</ele>
        <time>2026-05-17T11:39:41</time>
      </trkpt>
      <trkpt lat="30.091230392456" lon="111.82579040527">
        <ele>7498.08</ele>
        <time>2026-05-17T11:39:56</time>
      </trkpt>
      <trkpt lat="30.096220016479" lon="111.86231231689">
        <ele>7498.08</ele>
        <time>2026-05-17T11:40:11</time>
      </trkpt>
      <trkpt lat="30.101375579834" lon="111.89987182617">
        <ele>7498.08</ele>
        <time>2026-05-17T11:40:26</time>
      </trkpt>
      <trkpt lat="30.10654258728" lon="111.93717193604">
        <ele>7498.08</ele>
        <time>2026-05-17T11:40:41</time>
      </trkpt>
      <trkpt lat="30.111616134644" lon="111.97425079346">
        <ele>7498.08</ele>
        <time>2026-05-17T11:40:56</time>
      </trkpt>
      <trkpt lat="30.11678314209" lon="112.01176452637">
        <ele>7498.08</ele>
        <time>2026-05-17T11:41:11</time>
      </trkpt>
      <trkpt lat="30.121950149536" lon="112.0493927002">
        <ele>7490.46</ele>
        <time>2026-05-17T11:41:26</time>
      </trkpt>
      <trkpt lat="30.12744140625" lon="112.08935546875">
        <ele>7498.08</ele>
        <time>2026-05-17T11:41:41</time>
      </trkpt>
      <trkpt lat="30.134170532227" lon="112.13809967041">
        <ele>7498.08</ele>
        <time>2026-05-17T11:42:00</time>
      </trkpt>
      <trkpt lat="30.139205932617" lon="112.1746673584">
        <ele>7498.08</ele>
        <time>2026-05-17T11:42:15</time>
      </trkpt>
      <trkpt lat="30.144744873047" lon="112.2145690918">
        <ele>7498.08</ele>
        <time>2026-05-17T11:42:33</time>
      </trkpt>
      <trkpt lat="30.150512695312" lon="112.25620269775">
        <ele>7498.08</ele>
        <time>2026-05-17T11:42:48</time>
      </trkpt>
      <trkpt lat="30.158447265625" lon="112.29697418213">
        <ele>7498.08</ele>
        <time>2026-05-17T11:43:03</time>
      </trkpt>
      <trkpt lat="30.171436309814" lon="112.33745574951">
        <ele>7498.08</ele>
        <time>2026-05-17T11:43:21</time>
      </trkpt>
      <trkpt lat="30.182329177856" lon="112.36903381348">
        <ele>7498.08</ele>
        <time>2026-05-17T11:43:35</time>
      </trkpt>
      <trkpt lat="30.193920135498" lon="112.4030456543">
        <ele>7498.08</ele>
        <time>2026-05-17T11:43:50</time>
      </trkpt>
      <trkpt lat="30.20686340332" lon="112.44132995605">
        <ele>7498.08</ele>
        <time>2026-05-17T11:44:04</time>
      </trkpt>
      <trkpt lat="30.219339370728" lon="112.47852325439">
        <ele>7498.08</ele>
        <time>2026-05-17T11:44:23</time>
      </trkpt>
      <trkpt lat="30.231399536133" lon="112.51459503174">
        <ele>7498.08</ele>
        <time>2026-05-17T11:44:38</time>
      </trkpt>
      <trkpt lat="30.243209838867" lon="112.54998016357">
        <ele>7498.08</ele>
        <time>2026-05-17T11:44:52</time>
      </trkpt>
      <trkpt lat="30.255065917969" lon="112.5855178833">
        <ele>7498.08</ele>
        <time>2026-05-17T11:45:06</time>
      </trkpt>
      <trkpt lat="30.267110824585" lon="112.62143707275">
        <ele>7498.08</ele>
        <time>2026-05-17T11:45:21</time>
      </trkpt>
      <trkpt lat="30.279903411865" lon="112.65990447998">
        <ele>7498.08</ele>
        <time>2026-05-17T11:45:36</time>
      </trkpt>
      <trkpt lat="30.291730880737" lon="112.69532775879">
        <ele>7498.08</ele>
        <time>2026-05-17T11:45:51</time>
      </trkpt>
      <trkpt lat="30.30436706543" lon="112.73345947266">
        <ele>7498.08</ele>
        <time>2026-05-17T11:46:10</time>
      </trkpt>
      <trkpt lat="30.317184448242" lon="112.77207183838">
        <ele>7498.08</ele>
        <time>2026-05-17T11:46:24</time>
      </trkpt>
      <trkpt lat="30.328308105469" lon="112.81224822998">
        <ele>7498.08</ele>
        <time>2026-05-17T11:46:39</time>
      </trkpt>
      <trkpt lat="30.333345413208" lon="112.8497467041">
        <ele>7498.08</ele>
        <time>2026-05-17T11:46:54</time>
      </trkpt>
      <trkpt lat="30.336776733398" lon="112.89012145996">
        <ele>7498.08</ele>
        <time>2026-05-17T11:47:13</time>
      </trkpt>
      <trkpt lat="30.340141296387" lon="112.92846679688">
        <ele>7498.08</ele>
        <time>2026-05-17T11:47:27</time>
      </trkpt>
      <trkpt lat="30.344055175781" lon="112.96643066406">
        <ele>7498.08</ele>
        <time>2026-05-17T11:47:42</time>
      </trkpt>
      <trkpt lat="30.350051879883" lon="113.00591278076">
        <ele>7498.08</ele>
        <time>2026-05-17T11:47:57</time>
      </trkpt>
      <trkpt lat="30.357833862305" lon="113.04468536377">
        <ele>7498.08</ele>
        <time>2026-05-17T11:48:12</time>
      </trkpt>
      <trkpt lat="30.368270874023" lon="113.08604431152">
        <ele>7498.08</ele>
        <time>2026-05-17T11:48:32</time>
      </trkpt>
      <trkpt lat="30.379384994507" lon="113.12242889404">
        <ele>7498.08</ele>
        <time>2026-05-17T11:48:47</time>
      </trkpt>
      <trkpt lat="30.392669677734" lon="113.16219329834">
        <ele>7498.08</ele>
        <time>2026-05-17T11:49:02</time>
      </trkpt>
      <trkpt lat="30.404525756836" lon="113.19800567627">
        <ele>7498.08</ele>
        <time>2026-05-17T11:49:16</time>
      </trkpt>
      <trkpt lat="30.416486740112" lon="113.23460388184">
        <ele>7498.08</ele>
        <time>2026-05-17T11:49:30</time>
      </trkpt>
      <trkpt lat="30.428237915039" lon="113.27055358887">
        <ele>7498.08</ele>
        <time>2026-05-17T11:49:45</time>
      </trkpt>
      <trkpt lat="30.439910888672" lon="113.30615234375">
        <ele>7498.08</ele>
        <time>2026-05-17T11:50:00</time>
      </trkpt>
      <trkpt lat="30.451354980469" lon="113.34126281738">
        <ele>7498.08</ele>
        <time>2026-05-17T11:50:15</time>
      </trkpt>
      <trkpt lat="30.463256835938" lon="113.37761688232">
        <ele>7498.08</ele>
        <time>2026-05-17T11:50:30</time>
      </trkpt>
      <trkpt lat="30.475282669067" lon="113.41428375244">
        <ele>7498.08</ele>
        <time>2026-05-17T11:50:45</time>
      </trkpt>
      <trkpt lat="30.487380981445" lon="113.4514465332">
        <ele>7498.08</ele>
        <time>2026-05-17T11:51:00</time>
      </trkpt>
      <trkpt lat="30.4983253479" lon="113.48509216309">
        <ele>7505.7</ele>
        <time>2026-05-17T11:51:15</time>
      </trkpt>
      <trkpt lat="30.510177612305" lon="113.52167510986">
        <ele>7498.08</ele>
        <time>2026-05-17T11:51:30</time>
      </trkpt>
      <trkpt lat="30.518966674805" lon="113.54875946045">
        <ele>7498.08</ele>
        <time>2026-05-17T11:51:42</time>
      </trkpt>
      <trkpt lat="30.531005859375" lon="113.58581542969">
        <ele>7498.08</ele>
        <time>2026-05-17T11:52:00</time>
      </trkpt>
      <trkpt lat="30.542457580566" lon="113.62110137939">
        <ele>7498.08</ele>
        <time>2026-05-17T11:52:15</time>
      </trkpt>
      <trkpt lat="30.554515838623" lon="113.65828704834">
        <ele>7498.08</ele>
        <time>2026-05-17T11:52:30</time>
      </trkpt>
      <trkpt lat="30.566198348999" lon="113.69432067871">
        <ele>7498.08</ele>
        <time>2026-05-17T11:52:44</time>
      </trkpt>
      <trkpt lat="30.578521728516" lon="113.73235321045">
        <ele>7498.08</ele>
        <time>2026-05-17T11:53:01</time>
      </trkpt>
      <trkpt lat="30.589870452881" lon="113.76747131348">
        <ele>7498.08</ele>
        <time>2026-05-17T11:53:14</time>
      </trkpt>
      <trkpt lat="30.601673126221" lon="113.80397033691">
        <ele>7498.08</ele>
        <time>2026-05-17T11:53:29</time>
      </trkpt>
      <trkpt lat="30.613500595093" lon="113.84043884277">
        <ele>7498.08</ele>
        <time>2026-05-17T11:53:48</time>
      </trkpt>
      <trkpt lat="30.624900817871" lon="113.87586975098">
        <ele>7498.08</ele>
        <time>2026-05-17T11:54:03</time>
      </trkpt>
      <trkpt lat="30.636840820312" lon="113.9130859375">
        <ele>7498.08</ele>
        <time>2026-05-17T11:54:18</time>
      </trkpt>
      <trkpt lat="30.649761199951" lon="113.95338439941">
        <ele>7498.08</ele>
        <time>2026-05-17T11:54:33</time>
      </trkpt>
      <trkpt lat="30.661060333252" lon="113.98880767822">
        <ele>7498.08</ele>
        <time>2026-05-17T11:54:48</time>
      </trkpt>
      <trkpt lat="30.672271728516" lon="114.02397918701">
        <ele>7498.08</ele>
        <time>2026-05-17T11:55:03</time>
      </trkpt>
      <trkpt lat="30.68071937561" lon="114.05027770996">
        <ele>7498.08</ele>
        <time>2026-05-17T11:55:17</time>
      </trkpt>
      <trkpt lat="30.691610336304" lon="114.08428192139">
        <ele>7498.08</ele>
        <time>2026-05-17T11:55:32</time>
      </trkpt>
      <trkpt lat="30.704650878906" lon="114.12509918213">
        <ele>7498.08</ele>
        <time>2026-05-17T11:55:47</time>
      </trkpt>
      <trkpt lat="30.715999603271" lon="114.16069030762">
        <ele>7498.08</ele>
        <time>2026-05-17T11:56:01</time>
      </trkpt>
      <trkpt lat="30.72838973999" lon="114.19941711426">
        <ele>7498.08</ele>
        <time>2026-05-17T11:56:21</time>
      </trkpt>
      <trkpt lat="30.739374160767" lon="114.23374938965">
        <ele>7498.08</ele>
        <time>2026-05-17T11:56:36</time>
      </trkpt>
      <trkpt lat="30.750820159912" lon="114.26960754395">
        <ele>7498.08</ele>
        <time>2026-05-17T11:56:51</time>
      </trkpt>
      <trkpt lat="30.762180328369" lon="114.3048324585">
        <ele>7498.08</ele>
        <time>2026-05-17T11:57:06</time>
      </trkpt>
      <trkpt lat="30.77345085144" lon="114.33994293213">
        <ele>7498.08</ele>
        <time>2026-05-17T11:57:21</time>
      </trkpt>
      <trkpt lat="30.784994125366" lon="114.37574768066">
        <ele>7498.08</ele>
        <time>2026-05-17T11:57:36</time>
      </trkpt>
      <trkpt lat="30.79681968689" lon="114.41217041016">
        <ele>7498.08</ele>
        <time>2026-05-17T11:57:50</time>
      </trkpt>
      <trkpt lat="30.808090209961" lon="114.44721984863">
        <ele>7498.08</ele>
        <time>2026-05-17T11:58:05</time>
      </trkpt>
      <trkpt lat="30.819299697876" lon="114.48193359375">
        <ele>7498.08</ele>
        <time>2026-05-17T11:58:20</time>
      </trkpt>
      <trkpt lat="30.830570220947" lon="114.51702880859">
        <ele>7498.08</ele>
        <time>2026-05-17T11:58:35</time>
      </trkpt>
      <trkpt lat="30.842161178589" lon="114.55257415771">
        <ele>7498.08</ele>
        <time>2026-05-17T11:58:49</time>
      </trkpt>
      <trkpt lat="30.854120254517" lon="114.58927154541">
        <ele>7498.08</ele>
        <time>2026-05-17T11:59:07</time>
      </trkpt>
      <trkpt lat="30.865720748901" lon="114.62509918213">
        <ele>7498.08</ele>
        <time>2026-05-17T11:59:22</time>
      </trkpt>
      <trkpt lat="30.876529693604" lon="114.65843963623">
        <ele>7498.08</ele>
        <time>2026-05-17T11:59:36</time>
      </trkpt>
      <trkpt lat="30.888750076294" lon="114.69612884521">
        <ele>7498.08</ele>
        <time>2026-05-17T11:59:51</time>
      </trkpt>
      <trkpt lat="30.898639678955" lon="114.72666931152">
        <ele>7498.08</ele>
        <time>2026-05-17T12:00:06</time>
      </trkpt>
      <trkpt lat="30.909622192383" lon="114.76054382324">
        <ele>7498.08</ele>
        <time>2026-05-17T12:00:20</time>
      </trkpt>
      <trkpt lat="30.920740127563" lon="114.79492950439">
        <ele>7498.08</ele>
        <time>2026-05-17T12:00:35</time>
      </trkpt>
      <trkpt lat="30.933149337769" lon="114.83329772949">
        <ele>7498.08</ele>
        <time>2026-05-17T12:00:50</time>
      </trkpt>
      <trkpt lat="30.944860458374" lon="114.8696975708">
        <ele>7498.08</ele>
        <time>2026-05-17T12:01:05</time>
      </trkpt>
      <trkpt lat="30.956497192383" lon="114.90600585938">
        <ele>7498.08</ele>
        <time>2026-05-17T12:01:23</time>
      </trkpt>
      <trkpt lat="30.967710494995" lon="114.94088745117">
        <ele>7498.08</ele>
        <time>2026-05-17T12:01:38</time>
      </trkpt>
      <trkpt lat="30.97841835022" lon="114.97422790527">
        <ele>7498.08</ele>
        <time>2026-05-17T12:01:53</time>
      </trkpt>
      <trkpt lat="30.989456176758" lon="115.00870513916">
        <ele>7498.08</ele>
        <time>2026-05-17T12:02:08</time>
      </trkpt>
      <trkpt lat="31.001449584961" lon="115.04608154297">
        <ele>7498.08</ele>
        <time>2026-05-17T12:02:23</time>
      </trkpt>
      <trkpt lat="31.012119293213" lon="115.07958984375">
        <ele>7498.08</ele>
        <time>2026-05-17T12:02:38</time>
      </trkpt>
      <trkpt lat="31.023149490356" lon="115.11421203613">
        <ele>7498.08</ele>
        <time>2026-05-17T12:02:52</time>
      </trkpt>
      <trkpt lat="31.034269332886" lon="115.14904785156">
        <ele>7498.08</ele>
        <time>2026-05-17T12:03:07</time>
      </trkpt>
      <trkpt lat="31.046127319336" lon="115.18626403809">
        <ele>7498.08</ele>
        <time>2026-05-17T12:03:27</time>
      </trkpt>
      <trkpt lat="31.057790756226" lon="115.2230682373">
        <ele>7498.08</ele>
        <time>2026-05-17T12:03:42</time>
      </trkpt>
      <trkpt lat="31.069339752197" lon="115.25923919678">
        <ele>7498.08</ele>
        <time>2026-05-17T12:03:57</time>
      </trkpt>
      <trkpt lat="31.080320358276" lon="115.2940826416">
        <ele>7498.08</ele>
        <time>2026-05-17T12:04:12</time>
      </trkpt>
      <trkpt lat="31.091634750366" lon="115.32985687256">
        <ele>7498.08</ele>
        <time>2026-05-17T12:04:27</time>
      </trkpt>
      <trkpt lat="31.102760314941" lon="115.36447143555">
        <ele>7498.08</ele>
        <time>2026-05-17T12:04:42</time>
      </trkpt>
      <trkpt lat="31.113885879517" lon="115.3988494873">
        <ele>7498.08</ele>
        <time>2026-05-17T12:04:57</time>
      </trkpt>
      <trkpt lat="31.125337600708" lon="115.43406677246">
        <ele>7498.08</ele>
        <time>2026-05-17T12:05:12</time>
      </trkpt>
      <trkpt lat="31.136810302734" lon="115.46937561035">
        <ele>7498.08</ele>
        <time>2026-05-17T12:05:27</time>
      </trkpt>
      <trkpt lat="31.147750854492" lon="115.50287628174">
        <ele>7498.08</ele>
        <time>2026-05-17T12:05:42</time>
      </trkpt>
      <trkpt lat="31.158344268799" lon="115.53574371338">
        <ele>7498.08</ele>
        <time>2026-05-17T12:05:57</time>
      </trkpt>
      <trkpt lat="31.169702529907" lon="115.5710067749">
        <ele>7505.7</ele>
        <time>2026-05-17T12:06:12</time>
      </trkpt>
      <trkpt lat="31.181167602539" lon="115.60670471191">
        <ele>7498.08</ele>
        <time>2026-05-17T12:06:27</time>
      </trkpt>
      <trkpt lat="31.192520141602" lon="115.64203643799">
        <ele>7498.08</ele>
        <time>2026-05-17T12:06:42</time>
      </trkpt>
      <trkpt lat="31.202989578247" lon="115.67449951172">
        <ele>7498.08</ele>
        <time>2026-05-17T12:06:57</time>
      </trkpt>
      <trkpt lat="31.213760375977" lon="115.70774078369">
        <ele>7498.08</ele>
        <time>2026-05-17T12:07:11</time>
      </trkpt>
      <trkpt lat="31.224634170532" lon="115.74118804932">
        <ele>7498.08</ele>
        <time>2026-05-17T12:07:26</time>
      </trkpt>
      <trkpt lat="31.236465454102" lon="115.77462768555">
        <ele>7498.08</ele>
        <time>2026-05-17T12:07:41</time>
      </trkpt>
      <trkpt lat="31.249210357666" lon="115.80748748779">
        <ele>7498.08</ele>
        <time>2026-05-17T12:07:56</time>
      </trkpt>
      <trkpt lat="31.258987426758" lon="115.83197784424">
        <ele>7498.08</ele>
        <time>2026-05-17T12:08:10</time>
      </trkpt>
      <trkpt lat="31.271745681763" lon="115.86401367188">
        <ele>7467.6</ele>
        <time>2026-05-17T12:08:24</time>
      </trkpt>
      <trkpt lat="31.28466796875" lon="115.89660644531">
        <ele>7360.92</ele>
        <time>2026-05-17T12:08:38</time>
      </trkpt>
      <trkpt lat="31.297534942627" lon="115.92965698242">
        <ele>7223.76</ele>
        <time>2026-05-17T12:08:52</time>
      </trkpt>
      <trkpt lat="31.309499740601" lon="115.9608001709">
        <ele>7086.6</ele>
        <time>2026-05-17T12:09:07</time>
      </trkpt>
      <trkpt lat="31.321838378906" lon="115.9934387207">
        <ele>6941.82</ele>
        <time>2026-05-17T12:09:22</time>
      </trkpt>
      <trkpt lat="31.334451675415" lon="116.02683258057">
        <ele>6781.8</ele>
        <time>2026-05-17T12:09:37</time>
      </trkpt>
      <trkpt lat="31.347381591797" lon="116.06108093262">
        <ele>6614.16</ele>
        <time>2026-05-17T12:09:56</time>
      </trkpt>
      <trkpt lat="31.35969543457" lon="116.09355163574">
        <ele>6461.7603</ele>
        <time>2026-05-17T12:10:11</time>
      </trkpt>
      <trkpt lat="31.371643066406" lon="116.12506103516">
        <ele>6347.46</ele>
        <time>2026-05-17T12:10:25</time>
      </trkpt>
      <trkpt lat="31.383470535278" lon="116.15602874756">
        <ele>6278.88</ele>
        <time>2026-05-17T12:10:40</time>
      </trkpt>
      <trkpt lat="31.39520072937" lon="116.18690490723">
        <ele>6156.96</ele>
        <time>2026-05-17T12:10:54</time>
      </trkpt>
      <trkpt lat="31.406753540039" lon="116.21725463867">
        <ele>6012.18</ele>
        <time>2026-05-17T12:11:08</time>
      </trkpt>
      <trkpt lat="31.418243408203" lon="116.24752044678">
        <ele>5875.02</ele>
        <time>2026-05-17T12:11:23</time>
      </trkpt>
      <trkpt lat="31.429557800293" lon="116.27754211426">
        <ele>5730.24</ele>
        <time>2026-05-17T12:11:38</time>
      </trkpt>
      <trkpt lat="31.440444946289" lon="116.30638885498">
        <ele>5593.08</ele>
        <time>2026-05-17T12:11:53</time>
      </trkpt>
      <trkpt lat="31.452346801758" lon="116.33810424805">
        <ele>5433.06</ele>
        <time>2026-05-17T12:12:12</time>
      </trkpt>
      <trkpt lat="31.463167190552" lon="116.36685943604">
        <ele>5288.28</ele>
        <time>2026-05-17T12:12:27</time>
      </trkpt>
      <trkpt lat="31.47410774231" lon="116.39580535889">
        <ele>5135.88</ele>
        <time>2026-05-17T12:12:42</time>
      </trkpt>
      <trkpt lat="31.484907150269" lon="116.42442321777">
        <ele>4983.48</ele>
        <time>2026-05-17T12:12:57</time>
      </trkpt>
      <trkpt lat="31.492080688477" lon="116.44355010986">
        <ele>4884.42</ele>
        <time>2026-05-17T12:13:09</time>
      </trkpt>
      <trkpt lat="31.507719039917" lon="116.48534393311">
        <ele>4663.44</ele>
        <time>2026-05-17T12:13:27</time>
      </trkpt>
      <trkpt lat="31.514841079712" lon="116.50434875488">
        <ele>4572.0</ele>
        <time>2026-05-17T12:13:38</time>
      </trkpt>
      <trkpt lat="31.523345947266" lon="116.52708435059">
        <ele>4450.08</ele>
        <time>2026-05-17T12:13:52</time>
      </trkpt>
      <trkpt lat="31.533880233765" lon="116.55522155762">
        <ele>4305.3</ele>
        <time>2026-05-17T12:14:07</time>
      </trkpt>
      <trkpt lat="31.545181274414" lon="116.58529663086">
        <ele>4145.28</ele>
        <time>2026-05-17T12:14:21</time>
      </trkpt>
      <trkpt lat="31.556365966797" lon="116.61520385742">
        <ele>3992.88</ele>
        <time>2026-05-17T12:14:35</time>
      </trkpt>
      <trkpt lat="31.563995361328" lon="116.63549041748">
        <ele>3878.58</ele>
        <time>2026-05-17T12:14:49</time>
      </trkpt>
      <trkpt lat="31.573104858398" lon="116.66279602051">
        <ele>3726.18</ele>
        <time>2026-05-17T12:15:04</time>
      </trkpt>
      <trkpt lat="31.575592041016" lon="116.69435882568">
        <ele>3619.5</ele>
        <time>2026-05-17T12:15:18</time>
      </trkpt>
      <trkpt lat="31.574523925781" lon="116.72483825684">
        <ele>3596.64</ele>
        <time>2026-05-17T12:15:35</time>
      </trkpt>
      <trkpt lat="31.573820114136" lon="116.75241851807">
        <ele>3596.64</ele>
        <time>2026-05-17T12:15:49</time>
      </trkpt>
      <trkpt lat="31.573171615601" lon="116.78126525879">
        <ele>3596.64</ele>
        <time>2026-05-17T12:16:04</time>
      </trkpt>
      <trkpt lat="31.572555541992" lon="116.80728912354">
        <ele>3596.64</ele>
        <time>2026-05-17T12:16:19</time>
      </trkpt>
      <trkpt lat="31.571821212769" lon="116.83498382568">
        <ele>3596.64</ele>
        <time>2026-05-17T12:16:33</time>
      </trkpt>
      <trkpt lat="31.571140289307" lon="116.86254119873">
        <ele>3596.64</ele>
        <time>2026-05-17T12:16:48</time>
      </trkpt>
      <trkpt lat="31.570587158203" lon="116.88317108154">
        <ele>3596.64</ele>
        <time>2026-05-17T12:17:03</time>
      </trkpt>
      <trkpt lat="31.569820404053" lon="116.91062927246">
        <ele>3596.64</ele>
        <time>2026-05-17T12:17:18</time>
      </trkpt>
      <trkpt lat="31.569030761719" lon="116.93792724609">
        <ele>3596.64</ele>
        <time>2026-05-17T12:17:33</time>
      </trkpt>
      <trkpt lat="31.568206787109" lon="116.96551513672">
        <ele>3596.64</ele>
        <time>2026-05-17T12:17:48</time>
      </trkpt>
      <trkpt lat="31.567291259766" lon="116.99513244629">
        <ele>3596.64</ele>
        <time>2026-05-17T12:18:03</time>
      </trkpt>
      <trkpt lat="31.566513061523" lon="117.02200317383">
        <ele>3596.64</ele>
        <time>2026-05-17T12:18:18</time>
      </trkpt>
      <trkpt lat="31.565599441528" lon="117.05275726318">
        <ele>3596.64</ele>
        <time>2026-05-17T12:18:33</time>
      </trkpt>
      <trkpt lat="31.564819335938" lon="117.07828521729">
        <ele>3596.64</ele>
        <time>2026-05-17T12:18:48</time>
      </trkpt>
      <trkpt lat="31.563953399658" lon="117.10651397705">
        <ele>3596.64</ele>
        <time>2026-05-17T12:19:03</time>
      </trkpt>
      <trkpt lat="31.563068389893" lon="117.13430786133">
        <ele>3596.64</ele>
        <time>2026-05-17T12:19:18</time>
      </trkpt>
      <trkpt lat="31.562210083008" lon="117.16105651855">
        <ele>3596.64</ele>
        <time>2026-05-17T12:19:33</time>
      </trkpt>
      <trkpt lat="31.561346054077" lon="117.18841552734">
        <ele>3581.4</ele>
        <time>2026-05-17T12:19:48</time>
      </trkpt>
      <trkpt lat="31.560516357422" lon="117.21528625488">
        <ele>3528.06</ele>
        <time>2026-05-17T12:20:03</time>
      </trkpt>
      <trkpt lat="31.558135986328" lon="117.24280548096">
        <ele>3467.1</ele>
        <time>2026-05-17T12:20:18</time>
      </trkpt>
      <trkpt lat="31.54873085022" lon="117.26477050781">
        <ele>3413.76</ele>
        <time>2026-05-17T12:20:33</time>
      </trkpt>
      <trkpt lat="31.533325195312" lon="117.28104400635">
        <ele>3368.04</ele>
        <time>2026-05-17T12:20:48</time>
      </trkpt>
      <trkpt lat="31.518611907959" lon="117.29783630371">
        <ele>3322.32</ele>
        <time>2026-05-17T12:21:03</time>
      </trkpt>
      <trkpt lat="31.505340576172" lon="117.31546783447">
        <ele>3268.98</ele>
        <time>2026-05-17T12:21:18</time>
      </trkpt>
      <trkpt lat="31.491939544678" lon="117.33377075195">
        <ele>3215.64</ele>
        <time>2026-05-17T12:21:33</time>
      </trkpt>
      <trkpt lat="31.478580474854" lon="117.35211181641">
        <ele>3162.3</ele>
        <time>2026-05-17T12:21:48</time>
      </trkpt>
      <trkpt lat="31.465072631836" lon="117.37044525146">
        <ele>3108.96</ele>
        <time>2026-05-17T12:22:03</time>
      </trkpt>
      <trkpt lat="31.451570510864" lon="117.38874816895">
        <ele>3063.24</ele>
        <time>2026-05-17T12:22:18</time>
      </trkpt>
      <trkpt lat="31.436965942383" lon="117.40835571289">
        <ele>3002.28</ele>
        <time>2026-05-17T12:22:33</time>
      </trkpt>
      <trkpt lat="31.423692703247" lon="117.42604827881">
        <ele>2987.04</ele>
        <time>2026-05-17T12:22:48</time>
      </trkpt>
      <trkpt lat="31.409770965576" lon="117.44455718994">
        <ele>2987.04</ele>
        <time>2026-05-17T12:23:04</time>
      </trkpt>
      <trkpt lat="31.396877288818" lon="117.46175384521">
        <ele>2987.04</ele>
        <time>2026-05-17T12:23:18</time>
      </trkpt>
      <trkpt lat="31.383180618286" lon="117.47992706299">
        <ele>2987.04</ele>
        <time>2026-05-17T12:23:33</time>
      </trkpt>
      <trkpt lat="31.369689941406" lon="117.49778747559">
        <ele>2987.04</ele>
        <time>2026-05-17T12:23:48</time>
      </trkpt>
      <trkpt lat="31.3564453125" lon="117.5152053833">
        <ele>2987.04</ele>
        <time>2026-05-17T12:24:03</time>
      </trkpt>
      <trkpt lat="31.342969894409" lon="117.53289031982">
        <ele>2987.04</ele>
        <time>2026-05-17T12:24:18</time>
      </trkpt>
      <trkpt lat="31.328540802002" lon="117.55184173584">
        <ele>2987.04</ele>
        <time>2026-05-17T12:24:38</time>
      </trkpt>
      <trkpt lat="31.314830780029" lon="117.56976318359">
        <ele>2987.04</ele>
        <time>2026-05-17T12:24:53</time>
      </trkpt>
      <trkpt lat="31.30149269104" lon="117.58716583252">
        <ele>2987.04</ele>
        <time>2026-05-17T12:25:08</time>
      </trkpt>
      <trkpt lat="31.287872314453" lon="117.60482025146">
        <ele>2987.04</ele>
        <time>2026-05-17T12:25:23</time>
      </trkpt>
      <trkpt lat="31.273561477661" lon="117.62336730957">
        <ele>2987.04</ele>
        <time>2026-05-17T12:25:38</time>
      </trkpt>
      <trkpt lat="31.260129928589" lon="117.64069366455">
        <ele>2987.04</ele>
        <time>2026-05-17T12:25:53</time>
      </trkpt>
      <trkpt lat="31.247819900513" lon="117.66011047363">
        <ele>2987.04</ele>
        <time>2026-05-17T12:26:08</time>
      </trkpt>
      <trkpt lat="31.241905212402" lon="117.68324279785">
        <ele>2964.18</ele>
        <time>2026-05-17T12:26:23</time>
      </trkpt>
      <trkpt lat="31.237976074219" lon="117.70617675781">
        <ele>2910.84</ele>
        <time>2026-05-17T12:26:38</time>
      </trkpt>
      <trkpt lat="31.234085083008" lon="117.73067474365">
        <ele>2849.88</ele>
        <time>2026-05-17T12:26:53</time>
      </trkpt>
      <trkpt lat="31.230173110962" lon="117.75492858887">
        <ele>2788.92</ele>
        <time>2026-05-17T12:27:08</time>
      </trkpt>
      <trkpt lat="31.226165771484" lon="117.77909088135">
        <ele>2727.96</ele>
        <time>2026-05-17T12:27:23</time>
      </trkpt>
      <trkpt lat="31.223564147949" lon="117.794090271">
        <ele>2689.86</ele>
        <time>2026-05-17T12:27:34</time>
      </trkpt>
      <trkpt lat="31.219467163086" lon="117.81798553467">
        <ele>2628.9</ele>
        <time>2026-05-17T12:27:48</time>
      </trkpt>
      <trkpt lat="31.215454101562" lon="117.84075927734">
        <ele>2567.94</ele>
        <time>2026-05-17T12:28:03</time>
      </trkpt>
      <trkpt lat="31.211334228516" lon="117.86402130127">
        <ele>2506.98</ele>
        <time>2026-05-17T12:28:18</time>
      </trkpt>
      <trkpt lat="31.207168579102" lon="117.8875579834">
        <ele>2446.02</ele>
        <time>2026-05-17T12:28:33</time>
      </trkpt>
      <trkpt lat="31.203002929688" lon="117.91087341309">
        <ele>2415.54</ele>
        <time>2026-05-17T12:28:48</time>
      </trkpt>
      <trkpt lat="31.198844909668" lon="117.93444061279">
        <ele>2407.92</ele>
        <time>2026-05-17T12:29:03</time>
      </trkpt>
      <trkpt lat="31.194793701172" lon="117.95767974854">
        <ele>2400.3</ele>
        <time>2026-05-17T12:29:18</time>
      </trkpt>
      <trkpt lat="31.190605163574" lon="117.98135375977">
        <ele>2339.34</ele>
        <time>2026-05-17T12:29:33</time>
      </trkpt>
      <trkpt lat="31.186550140381" lon="118.0043182373">
        <ele>2286.0</ele>
        <time>2026-05-17T12:29:48</time>
      </trkpt>
      <trkpt lat="31.182495117188" lon="118.02741241455">
        <ele>2232.66</ele>
        <time>2026-05-17T12:30:03</time>
      </trkpt>
      <trkpt lat="31.178220748901" lon="118.0513381958">
        <ele>2171.7</ele>
        <time>2026-05-17T12:30:18</time>
      </trkpt>
      <trkpt lat="31.173845291138" lon="118.07566833496">
        <ele>2110.74</ele>
        <time>2026-05-17T12:30:33</time>
      </trkpt>
      <trkpt lat="31.169889450073" lon="118.09764099121">
        <ele>2042.16</ele>
        <time>2026-05-17T12:30:48</time>
      </trkpt>
      <trkpt lat="31.165649414062" lon="118.12133789062">
        <ele>1988.82</ele>
        <time>2026-05-17T12:31:03</time>
      </trkpt>
      <trkpt lat="31.161882400513" lon="118.14268493652">
        <ele>1927.86</ele>
        <time>2026-05-17T12:31:18</time>
      </trkpt>
      <trkpt lat="31.157785415649" lon="118.16554260254">
        <ele>1866.9</ele>
        <time>2026-05-17T12:31:33</time>
      </trkpt>
      <trkpt lat="31.15397644043" lon="118.18688201904">
        <ele>1813.56</ele>
        <time>2026-05-17T12:31:48</time>
      </trkpt>
      <trkpt lat="31.150289535522" lon="118.20722961426">
        <ele>1752.6</ele>
        <time>2026-05-17T12:32:03</time>
      </trkpt>
      <trkpt lat="31.146570205688" lon="118.22827148438">
        <ele>1691.64</ele>
        <time>2026-05-17T12:32:18</time>
      </trkpt>
      <trkpt lat="31.143169403076" lon="118.24725341797">
        <ele>1630.68</ele>
        <time>2026-05-17T12:32:33</time>
      </trkpt>
      <trkpt lat="31.13981628418" lon="118.26622772217">
        <ele>1569.72</ele>
        <time>2026-05-17T12:32:48</time>
      </trkpt>
      <trkpt lat="31.136417388916" lon="118.28512573242">
        <ele>1524.0</ele>
        <time>2026-05-17T12:33:03</time>
      </trkpt>
      <trkpt lat="31.133148193359" lon="118.30320739746">
        <ele>1524.0</ele>
        <time>2026-05-17T12:33:18</time>
      </trkpt>
      <trkpt lat="31.130081176758" lon="118.32049560547">
        <ele>1516.38</ele>
        <time>2026-05-17T12:33:33</time>
      </trkpt>
      <trkpt lat="31.125570297241" lon="118.3377532959">
        <ele>1516.38</ele>
        <time>2026-05-17T12:33:48</time>
      </trkpt>
      <trkpt lat="31.115661621094" lon="118.34957122803">
        <ele>1524.0</ele>
        <time>2026-05-17T12:34:03</time>
      </trkpt>
      <trkpt lat="31.104389190674" lon="118.35955810547">
        <ele>1478.28</ele>
        <time>2026-05-17T12:34:18</time>
      </trkpt>
      <trkpt lat="31.093734741211" lon="118.36923217773">
        <ele>1424.94</ele>
        <time>2026-05-17T12:34:33</time>
      </trkpt>
      <trkpt lat="31.083480834961" lon="118.37902832031">
        <ele>1394.46</ele>
        <time>2026-05-17T12:34:48</time>
      </trkpt>
      <trkpt lat="31.073759078979" lon="118.38850402832">
        <ele>1379.22</ele>
        <time>2026-05-17T12:35:03</time>
      </trkpt>
      <trkpt lat="31.06494140625" lon="118.39723205566">
        <ele>1325.88</ele>
        <time>2026-05-17T12:35:18</time>
      </trkpt>
      <trkpt lat="31.056518554688" lon="118.40552520752">
        <ele>1272.54</ele>
        <time>2026-05-17T12:35:33</time>
      </trkpt>
      <trkpt lat="31.047130584717" lon="118.4147644043">
        <ele>1219.2</ele>
        <time>2026-05-17T12:35:49</time>
      </trkpt>
      <trkpt lat="31.038377761841" lon="118.42327880859">
        <ele>1165.86</ele>
        <time>2026-05-17T12:36:02</time>
      </trkpt>
      <trkpt lat="31.030059814453" lon="118.43138122559">
        <ele>1120.14</ele>
        <time>2026-05-17T12:36:17</time>
      </trkpt>
      <trkpt lat="31.021499633789" lon="118.43967437744">
        <ele>1066.8</ele>
        <time>2026-05-17T12:36:32</time>
      </trkpt>
      <trkpt lat="31.013053894043" lon="118.4478302002">
        <ele>1013.46</ele>
        <time>2026-05-17T12:36:48</time>
      </trkpt>
      <trkpt lat="31.004400253296" lon="118.45623779297">
        <ele>960.12</ele>
        <time>2026-05-17T12:37:07</time>
      </trkpt>
    </trkseg>
  </trk>
</gpx>