<?xml version="1.0" encoding="UTF-8"?>
<gpx xmlns="http://www.topografix.com/GPX/1/1" xmlns:xsi="http://www.w3.org/2001/XMLSchema-instance" xsi:schemaLocation="http://www.topografix.com/GPX/1/1 http://www.topografix.com/GPX/1/1/gpx.xsd" version="1.1" creator="gpx.py -- https://github.com/tkrajina/gpxpy">
  <trk>
    <name>Variflight_HU7167_20260525.csv</name>
    <trkseg>
      <trkpt lat="40.171325683594" lon="116.50146484375">
        <ele>1424.94</ele>
        <time>2026-05-25T00:14:49</time>
      </trkpt>
      <trkpt lat="40.18342590332" lon="116.48735046387">
        <ele>1562.1</ele>
        <time>2026-05-25T00:15:04</time>
      </trkpt>
      <trkpt lat="40.196506500244" lon="116.47205352783">
        <ele>1699.26</ele>
        <time>2026-05-25T00:15:19</time>
      </trkpt>
      <trkpt lat="40.210193634033" lon="116.45601654053">
        <ele>1882.14</ele>
        <time>2026-05-25T00:15:34</time>
      </trkpt>
      <trkpt lat="40.221450805664" lon="116.43646240234">
        <ele>2065.02</ele>
        <time>2026-05-25T00:15:49</time>
      </trkpt>
      <trkpt lat="40.225650787354" lon="116.41219329834">
        <ele>2278.38</ele>
        <time>2026-05-25T00:16:04</time>
      </trkpt>
      <trkpt lat="40.225833892822" lon="116.38666534424">
        <ele>2506.98</ele>
        <time>2026-05-25T00:16:19</time>
      </trkpt>
      <trkpt lat="40.225891113281" lon="116.36010742188">
        <ele>2743.2</ele>
        <time>2026-05-25T00:16:34</time>
      </trkpt>
      <trkpt lat="40.225982666016" lon="116.33386230469">
        <ele>2994.66</ele>
        <time>2026-05-25T00:16:49</time>
      </trkpt>
      <trkpt lat="40.22607421875" lon="116.30725097656">
        <ele>3246.12</ele>
        <time>2026-05-25T00:17:04</time>
      </trkpt>
      <trkpt lat="40.226119995117" lon="116.28033447266">
        <ele>3451.86</ele>
        <time>2026-05-25T00:17:19</time>
      </trkpt>
      <trkpt lat="40.226165771484" lon="116.25317382812">
        <ele>3566.16</ele>
        <time>2026-05-25T00:17:34</time>
      </trkpt>
      <trkpt lat="40.225524902344" lon="116.2255859375">
        <ele>3596.64</ele>
        <time>2026-05-25T00:17:49</time>
      </trkpt>
      <trkpt lat="40.218475341797" lon="116.20062255859">
        <ele>3604.26</ele>
        <time>2026-05-25T00:18:04</time>
      </trkpt>
      <trkpt lat="40.204654693604" lon="116.18260192871">
        <ele>3703.32</ele>
        <time>2026-05-25T00:18:19</time>
      </trkpt>
      <trkpt lat="40.18766784668" lon="116.16784667969">
        <ele>3931.92</ele>
        <time>2026-05-25T00:18:34</time>
      </trkpt>
      <trkpt lat="40.175884246826" lon="116.15913391113">
        <ele>4069.08</ele>
        <time>2026-05-25T00:18:45</time>
      </trkpt>
      <trkpt lat="40.157779693604" lon="116.14708709717">
        <ele>4267.2</ele>
        <time>2026-05-25T00:18:59</time>
      </trkpt>
      <trkpt lat="40.13920211792" lon="116.13478851318">
        <ele>4480.56</ele>
        <time>2026-05-25T00:19:14</time>
      </trkpt>
      <trkpt lat="40.120468139648" lon="116.12225341797">
        <ele>4701.54</ele>
        <time>2026-05-25T00:19:29</time>
      </trkpt>
      <trkpt lat="40.104148864746" lon="116.10594940186">
        <ele>4907.28</ele>
        <time>2026-05-25T00:19:44</time>
      </trkpt>
      <trkpt lat="40.091297149658" lon="116.08322906494">
        <ele>5059.68</ele>
        <time>2026-05-25T00:19:59</time>
      </trkpt>
      <trkpt lat="40.078857421875" lon="116.05889892578">
        <ele>5135.88</ele>
        <time>2026-05-25T00:20:14</time>
      </trkpt>
      <trkpt lat="40.066066741943" lon="116.03422546387">
        <ele>5250.18</ele>
        <time>2026-05-25T00:20:29</time>
      </trkpt>
      <trkpt lat="40.05290222168" lon="116.00872802734">
        <ele>5364.48</ele>
        <time>2026-05-25T00:20:44</time>
      </trkpt>
      <trkpt lat="40.039947509766" lon="115.98358154297">
        <ele>5486.4</ele>
        <time>2026-05-25T00:20:59</time>
      </trkpt>
      <trkpt lat="40.026901245117" lon="115.95819091797">
        <ele>5623.56</ele>
        <time>2026-05-25T00:21:14</time>
      </trkpt>
      <trkpt lat="40.013511657715" lon="115.93216705322">
        <ele>5692.14</ele>
        <time>2026-05-25T00:21:29</time>
      </trkpt>
      <trkpt lat="40.000057220459" lon="115.90613555908">
        <ele>5699.76</ele>
        <time>2026-05-25T00:21:44</time>
      </trkpt>
      <trkpt lat="39.987075805664" lon="115.88098144531">
        <ele>5699.76</ele>
        <time>2026-05-25T00:21:59</time>
      </trkpt>
      <trkpt lat="39.97380065918" lon="115.85538482666">
        <ele>5699.76</ele>
        <time>2026-05-25T00:22:14</time>
      </trkpt>
      <trkpt lat="39.960479736328" lon="115.82958984375">
        <ele>5699.76</ele>
        <time>2026-05-25T00:22:29</time>
      </trkpt>
      <trkpt lat="39.947158813477" lon="115.80401611328">
        <ele>5699.76</ele>
        <time>2026-05-25T00:22:44</time>
      </trkpt>
      <trkpt lat="39.934139251709" lon="115.77886199951">
        <ele>5699.76</ele>
        <time>2026-05-25T00:22:59</time>
      </trkpt>
      <trkpt lat="39.919986724854" lon="115.75158691406">
        <ele>5768.34</ele>
        <time>2026-05-25T00:23:14</time>
      </trkpt>
      <trkpt lat="39.906814575195" lon="115.72625732422">
        <ele>5897.88</ele>
        <time>2026-05-25T00:23:29</time>
      </trkpt>
      <trkpt lat="39.893173217773" lon="115.70001220703">
        <ele>6088.38</ele>
        <time>2026-05-25T00:23:44</time>
      </trkpt>
      <trkpt lat="39.879627227783" lon="115.67395019531">
        <ele>6233.16</ele>
        <time>2026-05-25T00:23:59</time>
      </trkpt>
      <trkpt lat="39.866230010986" lon="115.6483001709">
        <ele>6309.36</ele>
        <time>2026-05-25T00:24:14</time>
      </trkpt>
      <trkpt lat="39.851577758789" lon="115.62017822266">
        <ele>6316.98</ele>
        <time>2026-05-25T00:24:29</time>
      </trkpt>
      <trkpt lat="39.838531494141" lon="115.59510040283">
        <ele>6316.98</ele>
        <time>2026-05-25T00:24:44</time>
      </trkpt>
      <trkpt lat="39.82479095459" lon="115.56884765625">
        <ele>6377.94</ele>
        <time>2026-05-25T00:24:59</time>
      </trkpt>
      <trkpt lat="39.810562133789" lon="115.54160308838">
        <ele>6515.1</ele>
        <time>2026-05-25T00:25:14</time>
      </trkpt>
      <trkpt lat="39.796436309814" lon="115.5146484375">
        <ele>6652.26</ele>
        <time>2026-05-25T00:25:29</time>
      </trkpt>
      <trkpt lat="39.782005310059" lon="115.48712158203">
        <ele>6797.04</ele>
        <time>2026-05-25T00:25:44</time>
      </trkpt>
      <trkpt lat="39.768173217773" lon="115.46022033691">
        <ele>6911.34</ele>
        <time>2026-05-25T00:25:59</time>
      </trkpt>
      <trkpt lat="39.754913330078" lon="115.43090820312">
        <ele>7040.88</ele>
        <time>2026-05-25T00:26:14</time>
      </trkpt>
      <trkpt lat="39.74299621582" lon="115.40092468262">
        <ele>7155.18</ele>
        <time>2026-05-25T00:26:29</time>
      </trkpt>
      <trkpt lat="39.731258392334" lon="115.37127685547">
        <ele>7193.28</ele>
        <time>2026-05-25T00:26:44</time>
      </trkpt>
      <trkpt lat="39.71955871582" lon="115.34175872803">
        <ele>7200.9</ele>
        <time>2026-05-25T00:26:59</time>
      </trkpt>
      <trkpt lat="39.707942962646" lon="115.31256103516">
        <ele>7239.0</ele>
        <time>2026-05-25T00:27:14</time>
      </trkpt>
      <trkpt lat="39.694255828857" lon="115.27825927734">
        <ele>7353.3</ele>
        <time>2026-05-25T00:27:29</time>
      </trkpt>
      <trkpt lat="39.681838989258" lon="115.24687957764">
        <ele>7505.7</ele>
        <time>2026-05-25T00:27:44</time>
      </trkpt>
      <trkpt lat="39.670139312744" lon="115.21752929688">
        <ele>7650.48</ele>
        <time>2026-05-25T00:27:59</time>
      </trkpt>
      <trkpt lat="39.660549163818" lon="115.19348144531">
        <ele>7749.54</ele>
        <time>2026-05-25T00:28:13</time>
      </trkpt>
      <trkpt lat="39.64835357666" lon="115.16284179688">
        <ele>7886.7</ele>
        <time>2026-05-25T00:28:28</time>
      </trkpt>
      <trkpt lat="39.636154174805" lon="115.13230133057">
        <ele>7985.76</ele>
        <time>2026-05-25T00:28:43</time>
      </trkpt>
      <trkpt lat="39.623657226562" lon="115.10095214844">
        <ele>8077.2</ele>
        <time>2026-05-25T00:28:58</time>
      </trkpt>
      <trkpt lat="39.611530303955" lon="115.07050323486">
        <ele>8153.4</ele>
        <time>2026-05-25T00:29:12</time>
      </trkpt>
      <trkpt lat="39.599197387695" lon="115.03961181641">
        <ele>8252.46</ele>
        <time>2026-05-25T00:29:27</time>
      </trkpt>
      <trkpt lat="39.586814880371" lon="115.00872802734">
        <ele>8366.76</ele>
        <time>2026-05-25T00:29:42</time>
      </trkpt>
      <trkpt lat="39.57421875" lon="114.97747802734">
        <ele>8412.48</ele>
        <time>2026-05-25T00:29:57</time>
      </trkpt>
      <trkpt lat="39.562141418457" lon="114.94738769531">
        <ele>8412.48</ele>
        <time>2026-05-25T00:30:12</time>
      </trkpt>
      <trkpt lat="39.549911499023" lon="114.9169921875">
        <ele>8427.72</ele>
        <time>2026-05-25T00:30:27</time>
      </trkpt>
      <trkpt lat="39.537506103516" lon="114.88618469238">
        <ele>8496.3</ele>
        <time>2026-05-25T00:30:42</time>
      </trkpt>
      <trkpt lat="39.525009155273" lon="114.85501098633">
        <ele>8580.12</ele>
        <time>2026-05-25T00:30:57</time>
      </trkpt>
      <trkpt lat="39.510768890381" lon="114.81954956055">
        <ele>8625.84</ele>
        <time>2026-05-25T00:31:17</time>
      </trkpt>
      <trkpt lat="39.497859954834" lon="114.78759765625">
        <ele>8709.66</ele>
        <time>2026-05-25T00:31:32</time>
      </trkpt>
      <trkpt lat="39.483047485352" lon="114.75085449219">
        <ele>8793.48</ele>
        <time>2026-05-25T00:31:47</time>
      </trkpt>
      <trkpt lat="39.470672607422" lon="114.72025299072">
        <ele>8862.06</ele>
        <time>2026-05-25T00:32:02</time>
      </trkpt>
      <trkpt lat="39.457809448242" lon="114.68836975098">
        <ele>8930.64</ele>
        <time>2026-05-25T00:32:17</time>
      </trkpt>
      <trkpt lat="39.444076538086" lon="114.65439605713">
        <ele>8999.22</ele>
        <time>2026-05-25T00:32:32</time>
      </trkpt>
      <trkpt lat="39.430847167969" lon="114.62191772461">
        <ele>9090.66</ele>
        <time>2026-05-25T00:32:47</time>
      </trkpt>
      <trkpt lat="39.417781829834" lon="114.58966064453">
        <ele>9166.86</ele>
        <time>2026-05-25T00:33:02</time>
      </trkpt>
      <trkpt lat="39.404979705811" lon="114.55816650391">
        <ele>9250.68</ele>
        <time>2026-05-25T00:33:17</time>
      </trkpt>
      <trkpt lat="39.39185333252" lon="114.52587890625">
        <ele>9349.74</ele>
        <time>2026-05-25T00:33:32</time>
      </trkpt>
      <trkpt lat="39.378818511963" lon="114.49389648438">
        <ele>9448.8</ele>
        <time>2026-05-25T00:33:47</time>
      </trkpt>
      <trkpt lat="39.365844726562" lon="114.4621963501">
        <ele>9563.1</ele>
        <time>2026-05-25T00:34:02</time>
      </trkpt>
      <trkpt lat="39.352794647217" lon="114.43023681641">
        <ele>9707.88</ele>
        <time>2026-05-25T00:34:17</time>
      </trkpt>
      <trkpt lat="39.334300994873" lon="114.38510894775">
        <ele>9784.08</ele>
        <time>2026-05-25T00:34:42</time>
      </trkpt>
      <trkpt lat="39.320892333984" lon="114.35244750977">
        <ele>9784.08</ele>
        <time>2026-05-25T00:34:57</time>
      </trkpt>
      <trkpt lat="39.308029174805" lon="114.32235717773">
        <ele>9784.08</ele>
        <time>2026-05-25T00:35:12</time>
      </trkpt>
      <trkpt lat="39.292236328125" lon="114.29267883301">
        <ele>9784.08</ele>
        <time>2026-05-25T00:35:27</time>
      </trkpt>
      <trkpt lat="39.274341583252" lon="114.26616668701">
        <ele>9784.08</ele>
        <time>2026-05-25T00:35:42</time>
      </trkpt>
      <trkpt lat="39.254104614258" lon="114.24228668213">
        <ele>9784.08</ele>
        <time>2026-05-25T00:35:57</time>
      </trkpt>
      <trkpt lat="39.230922698975" lon="114.22082519531">
        <ele>9784.08</ele>
        <time>2026-05-25T00:36:12</time>
      </trkpt>
      <trkpt lat="39.207138061523" lon="114.20383453369">
        <ele>9784.08</ele>
        <time>2026-05-25T00:36:27</time>
      </trkpt>
      <trkpt lat="39.178970336914" lon="114.18878173828">
        <ele>9784.08</ele>
        <time>2026-05-25T00:36:42</time>
      </trkpt>
      <trkpt lat="39.153121948242" lon="114.1761932373">
        <ele>9784.08</ele>
        <time>2026-05-25T00:36:57</time>
      </trkpt>
      <trkpt lat="39.126708984375" lon="114.16341400146">
        <ele>9784.08</ele>
        <time>2026-05-25T00:37:12</time>
      </trkpt>
      <trkpt lat="39.100761413574" lon="114.15069580078">
        <ele>9784.08</ele>
        <time>2026-05-25T00:37:27</time>
      </trkpt>
      <trkpt lat="39.074878692627" lon="114.13787841797">
        <ele>9784.08</ele>
        <time>2026-05-25T00:37:42</time>
      </trkpt>
      <trkpt lat="39.048614501953" lon="114.12496185303">
        <ele>9784.08</ele>
        <time>2026-05-25T00:37:57</time>
      </trkpt>
      <trkpt lat="39.02311706543" lon="114.11236572266">
        <ele>9784.08</ele>
        <time>2026-05-25T00:38:12</time>
      </trkpt>
      <trkpt lat="38.997554779053" lon="114.09979248047">
        <ele>9776.46</ele>
        <time>2026-05-25T00:38:27</time>
      </trkpt>
      <trkpt lat="38.971996307373" lon="114.08721923828">
        <ele>9768.84</ele>
        <time>2026-05-25T00:38:42</time>
      </trkpt>
      <trkpt lat="38.946441650391" lon="114.0746307373">
        <ele>9776.46</ele>
        <time>2026-05-25T00:38:57</time>
      </trkpt>
      <trkpt lat="38.9208984375" lon="114.06221008301">
        <ele>9784.08</ele>
        <time>2026-05-25T00:39:12</time>
      </trkpt>
      <trkpt lat="38.89574432373" lon="114.04986572266">
        <ele>9784.08</ele>
        <time>2026-05-25T00:39:27</time>
      </trkpt>
      <trkpt lat="38.86994934082" lon="114.0372467041">
        <ele>9784.08</ele>
        <time>2026-05-25T00:39:42</time>
      </trkpt>
      <trkpt lat="38.844863891602" lon="114.02494812012">
        <ele>9784.08</ele>
        <time>2026-05-25T00:39:57</time>
      </trkpt>
      <trkpt lat="38.817070007324" lon="114.01135253906">
        <ele>9784.08</ele>
        <time>2026-05-25T00:40:12</time>
      </trkpt>
      <trkpt lat="38.792541503906" lon="113.99938964844">
        <ele>9784.08</ele>
        <time>2026-05-25T00:40:27</time>
      </trkpt>
      <trkpt lat="38.766628265381" lon="113.98680114746">
        <ele>9784.08</ele>
        <time>2026-05-25T00:40:42</time>
      </trkpt>
      <trkpt lat="38.741458892822" lon="113.97456359863">
        <ele>9784.08</ele>
        <time>2026-05-25T00:40:57</time>
      </trkpt>
      <trkpt lat="38.719482421875" lon="113.96380615234">
        <ele>9784.08</ele>
        <time>2026-05-25T00:41:12</time>
      </trkpt>
      <trkpt lat="38.694671630859" lon="113.95175170898">
        <ele>9784.08</ele>
        <time>2026-05-25T00:41:27</time>
      </trkpt>
      <trkpt lat="38.663959503174" lon="113.93688964844">
        <ele>9776.46</ele>
        <time>2026-05-25T00:41:42</time>
      </trkpt>
      <trkpt lat="38.637100219727" lon="113.92181396484">
        <ele>9776.46</ele>
        <time>2026-05-25T00:41:57</time>
      </trkpt>
      <trkpt lat="38.617900848389" lon="113.90528869629">
        <ele>9776.46</ele>
        <time>2026-05-25T00:42:12</time>
      </trkpt>
      <trkpt lat="38.59725189209" lon="113.88269042969">
        <ele>9784.08</ele>
        <time>2026-05-25T00:42:27</time>
      </trkpt>
      <trkpt lat="38.578163146973" lon="113.85717773438">
        <ele>9791.7</ele>
        <time>2026-05-25T00:42:41</time>
      </trkpt>
      <trkpt lat="38.560199737549" lon="113.82891845703">
        <ele>9791.7</ele>
        <time>2026-05-25T00:42:56</time>
      </trkpt>
      <trkpt lat="38.542278289795" lon="113.80075073242">
        <ele>9799.32</ele>
        <time>2026-05-25T00:43:11</time>
      </trkpt>
      <trkpt lat="38.522228240967" lon="113.76927947998">
        <ele>9799.32</ele>
        <time>2026-05-25T00:43:31</time>
      </trkpt>
      <trkpt lat="38.50191116333" lon="113.73722076416">
        <ele>9799.32</ele>
        <time>2026-05-25T00:43:46</time>
      </trkpt>
      <trkpt lat="38.484970092773" lon="113.71070861816">
        <ele>9799.32</ele>
        <time>2026-05-25T00:44:01</time>
      </trkpt>
      <trkpt lat="38.460300445557" lon="113.66956329346">
        <ele>9791.7</ele>
        <time>2026-05-25T00:44:26</time>
      </trkpt>
      <trkpt lat="38.443069458008" lon="113.63604736328">
        <ele>9791.7</ele>
        <time>2026-05-25T00:44:41</time>
      </trkpt>
      <trkpt lat="38.423473358154" lon="113.59423828125">
        <ele>9791.7</ele>
        <time>2026-05-25T00:45:06</time>
      </trkpt>
      <trkpt lat="38.401378631592" lon="113.54750061035">
        <ele>9791.7</ele>
        <time>2026-05-25T00:45:26</time>
      </trkpt>
      <trkpt lat="38.390899658203" lon="113.52517700195">
        <ele>9784.08</ele>
        <time>2026-05-25T00:45:41</time>
      </trkpt>
      <trkpt lat="38.375518798828" lon="113.49256896973">
        <ele>9784.08</ele>
        <time>2026-05-25T00:45:56</time>
      </trkpt>
      <trkpt lat="38.365749359131" lon="113.47174835205">
        <ele>9784.08</ele>
        <time>2026-05-25T00:46:07</time>
      </trkpt>
      <trkpt lat="38.350109100342" lon="113.43856811523">
        <ele>9776.46</ele>
        <time>2026-05-25T00:46:21</time>
      </trkpt>
      <trkpt lat="38.335121154785" lon="113.40673065186">
        <ele>9776.46</ele>
        <time>2026-05-25T00:46:41</time>
      </trkpt>
      <trkpt lat="38.321380615234" lon="113.37758636475">
        <ele>9776.46</ele>
        <time>2026-05-25T00:46:56</time>
      </trkpt>
      <trkpt lat="38.308769226074" lon="113.35077667236">
        <ele>9768.84</ele>
        <time>2026-05-25T00:47:11</time>
      </trkpt>
      <trkpt lat="38.292110443115" lon="113.31555938721">
        <ele>9768.84</ele>
        <time>2026-05-25T00:47:26</time>
      </trkpt>
      <trkpt lat="38.279388427734" lon="113.28861999512">
        <ele>9768.84</ele>
        <time>2026-05-25T00:47:41</time>
      </trkpt>
      <trkpt lat="38.264011383057" lon="113.25607299805">
        <ele>9776.46</ele>
        <time>2026-05-25T00:47:56</time>
      </trkpt>
      <trkpt lat="38.251880645752" lon="113.23040771484">
        <ele>9776.46</ele>
        <time>2026-05-25T00:48:11</time>
      </trkpt>
      <trkpt lat="38.238140106201" lon="113.20149230957">
        <ele>9776.46</ele>
        <time>2026-05-25T00:48:26</time>
      </trkpt>
      <trkpt lat="38.225555419922" lon="113.17501831055">
        <ele>9776.46</ele>
        <time>2026-05-25T00:48:41</time>
      </trkpt>
      <trkpt lat="38.211009979248" lon="113.14443206787">
        <ele>9776.46</ele>
        <time>2026-05-25T00:48:56</time>
      </trkpt>
      <trkpt lat="38.194110870361" lon="113.10897064209">
        <ele>9776.46</ele>
        <time>2026-05-25T00:49:16</time>
      </trkpt>
      <trkpt lat="38.172557830811" lon="113.06352996826">
        <ele>9776.46</ele>
        <time>2026-05-25T00:49:36</time>
      </trkpt>
      <trkpt lat="38.149837493896" lon="113.01582336426">
        <ele>9784.08</ele>
        <time>2026-05-25T00:50:02</time>
      </trkpt>
      <trkpt lat="38.13570022583" lon="112.98615264893">
        <ele>9784.08</ele>
        <time>2026-05-25T00:50:16</time>
      </trkpt>
      <trkpt lat="38.122470855713" lon="112.95838165283">
        <ele>9784.08</ele>
        <time>2026-05-25T00:50:31</time>
      </trkpt>
      <trkpt lat="38.109378814697" lon="112.93103790283">
        <ele>9784.08</ele>
        <time>2026-05-25T00:50:45</time>
      </trkpt>
      <trkpt lat="38.098339080811" lon="112.90801239014">
        <ele>9784.08</ele>
        <time>2026-05-25T00:51:00</time>
      </trkpt>
      <trkpt lat="38.08411026001" lon="112.87827301025">
        <ele>9784.08</ele>
        <time>2026-05-25T00:51:15</time>
      </trkpt>
      <trkpt lat="38.067302703857" lon="112.84308624268">
        <ele>9784.08</ele>
        <time>2026-05-25T00:51:30</time>
      </trkpt>
      <trkpt lat="38.051750183105" lon="112.81072235107">
        <ele>9784.08</ele>
        <time>2026-05-25T00:51:50</time>
      </trkpt>
      <trkpt lat="38.035511016846" lon="112.77687072754">
        <ele>9784.08</ele>
        <time>2026-05-25T00:52:05</time>
      </trkpt>
      <trkpt lat="38.024459838867" lon="112.75373840332">
        <ele>9784.08</ele>
        <time>2026-05-25T00:52:20</time>
      </trkpt>
      <trkpt lat="38.005828857422" lon="112.71504974365">
        <ele>9784.08</ele>
        <time>2026-05-25T00:52:40</time>
      </trkpt>
      <trkpt lat="37.990955352783" lon="112.68408203125">
        <ele>9784.08</ele>
        <time>2026-05-25T00:52:55</time>
      </trkpt>
      <trkpt lat="37.976245880127" lon="112.65357208252">
        <ele>9784.08</ele>
        <time>2026-05-25T00:53:10</time>
      </trkpt>
      <trkpt lat="37.962341308594" lon="112.62471008301">
        <ele>9784.08</ele>
        <time>2026-05-25T00:53:25</time>
      </trkpt>
      <trkpt lat="37.950439453125" lon="112.60009765625">
        <ele>9784.08</ele>
        <time>2026-05-25T00:53:40</time>
      </trkpt>
      <trkpt lat="37.93424987793" lon="112.56656646729">
        <ele>9791.7</ele>
        <time>2026-05-25T00:53:54</time>
      </trkpt>
      <trkpt lat="37.918212890625" lon="112.5334854126">
        <ele>9791.7</ele>
        <time>2026-05-25T00:54:14</time>
      </trkpt>
      <trkpt lat="37.902320861816" lon="112.50054168701">
        <ele>9791.7</ele>
        <time>2026-05-25T00:54:29</time>
      </trkpt>
      <trkpt lat="37.886081695557" lon="112.4672164917">
        <ele>9791.7</ele>
        <time>2026-05-25T00:54:49</time>
      </trkpt>
      <trkpt lat="37.869960784912" lon="112.43402099609">
        <ele>9791.7</ele>
        <time>2026-05-25T00:55:07</time>
      </trkpt>
      <trkpt lat="37.855861663818" lon="112.4047088623">
        <ele>9784.08</ele>
        <time>2026-05-25T00:55:22</time>
      </trkpt>
      <trkpt lat="37.838878631592" lon="112.36950683594">
        <ele>9784.08</ele>
        <time>2026-05-25T00:55:37</time>
      </trkpt>
      <trkpt lat="37.824298858643" lon="112.33943939209">
        <ele>9776.46</ele>
        <time>2026-05-25T00:55:57</time>
      </trkpt>
      <trkpt lat="37.806190490723" lon="112.30219268799">
        <ele>9776.46</ele>
        <time>2026-05-25T00:56:17</time>
      </trkpt>
      <trkpt lat="37.786739349365" lon="112.26226806641">
        <ele>9768.84</ele>
        <time>2026-05-25T00:56:37</time>
      </trkpt>
      <trkpt lat="37.770355224609" lon="112.22867584229">
        <ele>9768.84</ele>
        <time>2026-05-25T00:56:52</time>
      </trkpt>
      <trkpt lat="37.75606918335" lon="112.19940185547">
        <ele>9768.84</ele>
        <time>2026-05-25T00:57:07</time>
      </trkpt>
      <trkpt lat="37.741809844971" lon="112.17017364502">
        <ele>9776.46</ele>
        <time>2026-05-25T00:57:22</time>
      </trkpt>
      <trkpt lat="37.729160308838" lon="112.14434814453">
        <ele>9776.46</ele>
        <time>2026-05-25T00:57:37</time>
      </trkpt>
      <trkpt lat="37.713638305664" lon="112.11267089844">
        <ele>9791.7</ele>
        <time>2026-05-25T00:57:52</time>
      </trkpt>
      <trkpt lat="37.699718475342" lon="112.08437347412">
        <ele>9791.7</ele>
        <time>2026-05-25T00:58:07</time>
      </trkpt>
      <trkpt lat="37.687110900879" lon="112.05857849121">
        <ele>9799.32</ele>
        <time>2026-05-25T00:58:22</time>
      </trkpt>
      <trkpt lat="37.665321350098" lon="112.01415252686">
        <ele>9799.32</ele>
        <time>2026-05-25T00:58:46</time>
      </trkpt>
      <trkpt lat="37.653129577637" lon="111.98937225342">
        <ele>9799.32</ele>
        <time>2026-05-25T00:58:57</time>
      </trkpt>
      <trkpt lat="37.638149261475" lon="111.95892333984">
        <ele>9799.32</ele>
        <time>2026-05-25T00:59:11</time>
      </trkpt>
      <trkpt lat="37.625991821289" lon="111.93408203125">
        <ele>9791.7</ele>
        <time>2026-05-25T00:59:26</time>
      </trkpt>
      <trkpt lat="37.611789703369" lon="111.90528106689">
        <ele>9784.08</ele>
        <time>2026-05-25T00:59:41</time>
      </trkpt>
      <trkpt lat="37.593070983887" lon="111.8673324585">
        <ele>9776.46</ele>
        <time>2026-05-25T01:00:01</time>
      </trkpt>
      <trkpt lat="37.5764503479" lon="111.83374786377">
        <ele>9768.84</ele>
        <time>2026-05-25T01:00:16</time>
      </trkpt>
      <trkpt lat="37.56005859375" lon="111.80062103271">
        <ele>9768.84</ele>
        <time>2026-05-25T01:00:36</time>
      </trkpt>
      <trkpt lat="37.543121337891" lon="111.76637268066">
        <ele>9768.84</ele>
        <time>2026-05-25T01:00:51</time>
      </trkpt>
      <trkpt lat="37.532318115234" lon="111.74456787109">
        <ele>9768.84</ele>
        <time>2026-05-25T01:01:06</time>
      </trkpt>
      <trkpt lat="37.514511108398" lon="111.70863342285">
        <ele>9768.84</ele>
        <time>2026-05-25T01:01:22</time>
      </trkpt>
      <trkpt lat="37.5029296875" lon="111.68525695801">
        <ele>9768.84</ele>
        <time>2026-05-25T01:01:37</time>
      </trkpt>
      <trkpt lat="37.48791885376" lon="111.65509796143">
        <ele>9776.46</ele>
        <time>2026-05-25T01:01:52</time>
      </trkpt>
      <trkpt lat="37.468868255615" lon="111.61859130859">
        <ele>9776.46</ele>
        <time>2026-05-25T01:02:12</time>
      </trkpt>
      <trkpt lat="37.452941894531" lon="111.58818817139">
        <ele>9776.46</ele>
        <time>2026-05-25T01:02:27</time>
      </trkpt>
      <trkpt lat="37.436378479004" lon="111.55661010742">
        <ele>9776.46</ele>
        <time>2026-05-25T01:02:42</time>
      </trkpt>
      <trkpt lat="37.422740936279" lon="111.53057861328">
        <ele>9776.46</ele>
        <time>2026-05-25T01:02:57</time>
      </trkpt>
      <trkpt lat="37.406108856201" lon="111.49871826172">
        <ele>9784.08</ele>
        <time>2026-05-25T01:03:12</time>
      </trkpt>
      <trkpt lat="37.390689849854" lon="111.46897888184">
        <ele>9784.08</ele>
        <time>2026-05-25T01:03:27</time>
      </trkpt>
      <trkpt lat="37.374561309814" lon="111.43802642822">
        <ele>9784.08</ele>
        <time>2026-05-25T01:03:47</time>
      </trkpt>
      <trkpt lat="37.357269287109" lon="111.4049911499">
        <ele>9784.08</ele>
        <time>2026-05-25T01:04:02</time>
      </trkpt>
      <trkpt lat="37.341609954834" lon="111.37506866455">
        <ele>9784.08</ele>
        <time>2026-05-25T01:04:17</time>
      </trkpt>
      <trkpt lat="37.32719039917" lon="111.34736633301">
        <ele>9784.08</ele>
        <time>2026-05-25T01:04:32</time>
      </trkpt>
      <trkpt lat="37.311538696289" lon="111.31739044189">
        <ele>9791.7</ele>
        <time>2026-05-25T01:04:47</time>
      </trkpt>
      <trkpt lat="37.294719696045" lon="111.28540802002">
        <ele>9784.08</ele>
        <time>2026-05-25T01:05:07</time>
      </trkpt>
      <trkpt lat="37.27986907959" lon="111.25717163086">
        <ele>9784.08</ele>
        <time>2026-05-25T01:05:22</time>
      </trkpt>
      <trkpt lat="37.26416015625" lon="111.22734069824">
        <ele>9784.08</ele>
        <time>2026-05-25T01:05:37</time>
      </trkpt>
      <trkpt lat="37.249938964844" lon="111.2003326416">
        <ele>9784.08</ele>
        <time>2026-05-25T01:05:52</time>
      </trkpt>
      <trkpt lat="37.23450088501" lon="111.17082977295">
        <ele>9784.08</ele>
        <time>2026-05-25T01:06:07</time>
      </trkpt>
      <trkpt lat="37.219631195068" lon="111.14253234863">
        <ele>9784.08</ele>
        <time>2026-05-25T01:06:22</time>
      </trkpt>
      <trkpt lat="37.202411651611" lon="111.10987091064">
        <ele>9791.7</ele>
        <time>2026-05-25T01:06:37</time>
      </trkpt>
      <trkpt lat="37.190120697021" lon="111.08659362793">
        <ele>9791.7</ele>
        <time>2026-05-25T01:06:52</time>
      </trkpt>
      <trkpt lat="37.174621582031" lon="111.05726623535">
        <ele>9784.08</ele>
        <time>2026-05-25T01:07:07</time>
      </trkpt>
      <trkpt lat="37.157138824463" lon="111.02403259277">
        <ele>9784.08</ele>
        <time>2026-05-25T01:07:22</time>
      </trkpt>
      <trkpt lat="37.140071868896" lon="110.9917678833">
        <ele>9784.08</ele>
        <time>2026-05-25T01:07:42</time>
      </trkpt>
      <trkpt lat="37.125221252441" lon="110.96376800537">
        <ele>9784.08</ele>
        <time>2026-05-25T01:07:57</time>
      </trkpt>
      <trkpt lat="37.109340667725" lon="110.93369293213">
        <ele>9784.08</ele>
        <time>2026-05-25T01:08:12</time>
      </trkpt>
      <trkpt lat="37.093288421631" lon="110.9034576416">
        <ele>9784.08</ele>
        <time>2026-05-25T01:08:27</time>
      </trkpt>
      <trkpt lat="37.080768585205" lon="110.87982177734">
        <ele>9784.08</ele>
        <time>2026-05-25T01:08:42</time>
      </trkpt>
      <trkpt lat="37.066379547119" lon="110.85270690918">
        <ele>9784.08</ele>
        <time>2026-05-25T01:08:57</time>
      </trkpt>
      <trkpt lat="37.05004119873" lon="110.82202148438">
        <ele>9784.08</ele>
        <time>2026-05-25T01:09:12</time>
      </trkpt>
      <trkpt lat="37.034908294678" lon="110.79354858398">
        <ele>9784.08</ele>
        <time>2026-05-25T01:09:27</time>
      </trkpt>
      <trkpt lat="37.017150878906" lon="110.76019287109">
        <ele>9784.08</ele>
        <time>2026-05-25T01:09:42</time>
      </trkpt>
      <trkpt lat="37.003540039062" lon="110.73471832275">
        <ele>9784.08</ele>
        <time>2026-05-25T01:09:57</time>
      </trkpt>
      <trkpt lat="36.981079101562" lon="110.69262695312">
        <ele>9784.08</ele>
        <time>2026-05-25T01:10:17</time>
      </trkpt>
      <trkpt lat="36.960201263428" lon="110.65357971191">
        <ele>9791.7</ele>
        <time>2026-05-25T01:10:42</time>
      </trkpt>
      <trkpt lat="36.935901641846" lon="110.60796356201">
        <ele>9799.32</ele>
        <time>2026-05-25T01:11:06</time>
      </trkpt>
      <trkpt lat="36.918621063232" lon="110.57572174072">
        <ele>9799.32</ele>
        <time>2026-05-25T01:11:21</time>
      </trkpt>
      <trkpt lat="36.903678894043" lon="110.54789733887">
        <ele>9791.7</ele>
        <time>2026-05-25T01:11:36</time>
      </trkpt>
      <trkpt lat="36.886131286621" lon="110.51529693604">
        <ele>9784.08</ele>
        <time>2026-05-25T01:11:51</time>
      </trkpt>
      <trkpt lat="36.871898651123" lon="110.48873901367">
        <ele>9776.46</ele>
        <time>2026-05-25T01:12:06</time>
      </trkpt>
      <trkpt lat="36.848598480225" lon="110.44521331787">
        <ele>9776.46</ele>
        <time>2026-05-25T01:12:31</time>
      </trkpt>
      <trkpt lat="36.833221435547" lon="110.41654968262">
        <ele>9776.46</ele>
        <time>2026-05-25T01:12:46</time>
      </trkpt>
      <trkpt lat="36.817371368408" lon="110.38712310791">
        <ele>9776.46</ele>
        <time>2026-05-25T01:13:01</time>
      </trkpt>
      <trkpt lat="36.802341461182" lon="110.3592376709">
        <ele>9776.46</ele>
        <time>2026-05-25T01:13:16</time>
      </trkpt>
      <trkpt lat="36.787170410156" lon="110.33111572266">
        <ele>9776.46</ele>
        <time>2026-05-25T01:13:31</time>
      </trkpt>
      <trkpt lat="36.772060394287" lon="110.30307769775">
        <ele>9776.46</ele>
        <time>2026-05-25T01:13:46</time>
      </trkpt>
      <trkpt lat="36.754943847656" lon="110.27126312256">
        <ele>9776.46</ele>
        <time>2026-05-25T01:14:06</time>
      </trkpt>
      <trkpt lat="36.738971710205" lon="110.2416229248">
        <ele>9776.46</ele>
        <time>2026-05-25T01:14:21</time>
      </trkpt>
      <trkpt lat="36.722309112549" lon="110.21083831787">
        <ele>9776.46</ele>
        <time>2026-05-25T01:14:36</time>
      </trkpt>
      <trkpt lat="36.706150054932" lon="110.18096923828">
        <ele>9776.46</ele>
        <time>2026-05-25T01:14:51</time>
      </trkpt>
      <trkpt lat="36.690570831299" lon="110.15225982666">
        <ele>9784.08</ele>
        <time>2026-05-25T01:15:06</time>
      </trkpt>
      <trkpt lat="36.675758361816" lon="110.12502288818">
        <ele>9784.08</ele>
        <time>2026-05-25T01:15:21</time>
      </trkpt>
      <trkpt lat="36.660049438477" lon="110.09610748291">
        <ele>9784.08</ele>
        <time>2026-05-25T01:15:36</time>
      </trkpt>
      <trkpt lat="36.645130157471" lon="110.06858825684">
        <ele>9784.08</ele>
        <time>2026-05-25T01:15:51</time>
      </trkpt>
      <trkpt lat="36.629161834717" lon="110.03917694092">
        <ele>9776.46</ele>
        <time>2026-05-25T01:16:06</time>
      </trkpt>
      <trkpt lat="36.614231109619" lon="110.01165008545">
        <ele>9784.08</ele>
        <time>2026-05-25T01:16:21</time>
      </trkpt>
      <trkpt lat="36.598762512207" lon="109.98313903809">
        <ele>9784.08</ele>
        <time>2026-05-25T01:16:36</time>
      </trkpt>
      <trkpt lat="36.583309173584" lon="109.9548034668">
        <ele>9791.7</ele>
        <time>2026-05-25T01:16:51</time>
      </trkpt>
      <trkpt lat="36.567989349365" lon="109.92662811279">
        <ele>9799.32</ele>
        <time>2026-05-25T01:17:06</time>
      </trkpt>
      <trkpt lat="36.552440643311" lon="109.89810943604">
        <ele>9799.32</ele>
        <time>2026-05-25T01:17:21</time>
      </trkpt>
      <trkpt lat="36.536087036133" lon="109.86820220947">
        <ele>9799.32</ele>
        <time>2026-05-25T01:17:36</time>
      </trkpt>
      <trkpt lat="36.520324707031" lon="109.83926391602">
        <ele>9799.32</ele>
        <time>2026-05-25T01:17:51</time>
      </trkpt>
      <trkpt lat="36.504230499268" lon="109.80983734131">
        <ele>9799.32</ele>
        <time>2026-05-25T01:18:10</time>
      </trkpt>
      <trkpt lat="36.488849639893" lon="109.78176116943">
        <ele>9791.7</ele>
        <time>2026-05-25T01:18:25</time>
      </trkpt>
      <trkpt lat="36.473121643066" lon="109.7530670166">
        <ele>9791.7</ele>
        <time>2026-05-25T01:18:40</time>
      </trkpt>
      <trkpt lat="36.457717895508" lon="109.72509765625">
        <ele>9784.08</ele>
        <time>2026-05-25T01:18:55</time>
      </trkpt>
      <trkpt lat="36.442520141602" lon="109.69739532471">
        <ele>9784.08</ele>
        <time>2026-05-25T01:19:10</time>
      </trkpt>
      <trkpt lat="36.426845550537" lon="109.668800354">
        <ele>9776.46</ele>
        <time>2026-05-25T01:19:24</time>
      </trkpt>
      <trkpt lat="36.411350250244" lon="109.64064025879">
        <ele>9776.46</ele>
        <time>2026-05-25T01:19:39</time>
      </trkpt>
      <trkpt lat="36.396102905273" lon="109.61294555664">
        <ele>9776.46</ele>
        <time>2026-05-25T01:19:54</time>
      </trkpt>
      <trkpt lat="36.380401611328" lon="109.58450317383">
        <ele>9776.46</ele>
        <time>2026-05-25T01:20:08</time>
      </trkpt>
      <trkpt lat="36.364978790283" lon="109.55654144287">
        <ele>9776.46</ele>
        <time>2026-05-25T01:20:23</time>
      </trkpt>
      <trkpt lat="36.349639892578" lon="109.5286026001">
        <ele>9784.08</ele>
        <time>2026-05-25T01:20:38</time>
      </trkpt>
      <trkpt lat="36.334030151367" lon="109.5002746582">
        <ele>9791.7</ele>
        <time>2026-05-25T01:20:53</time>
      </trkpt>
      <trkpt lat="36.316635131836" lon="109.46966552734">
        <ele>9784.08</ele>
        <time>2026-05-25T01:21:13</time>
      </trkpt>
      <trkpt lat="36.298919677734" lon="109.44329071045">
        <ele>9784.08</ele>
        <time>2026-05-25T01:21:28</time>
      </trkpt>
      <trkpt lat="36.278949737549" lon="109.41833496094">
        <ele>9784.08</ele>
        <time>2026-05-25T01:21:43</time>
      </trkpt>
      <trkpt lat="36.258499145508" lon="109.3967666626">
        <ele>9784.08</ele>
        <time>2026-05-25T01:21:58</time>
      </trkpt>
      <trkpt lat="36.236389160156" lon="109.37702178955">
        <ele>9776.46</ele>
        <time>2026-05-25T01:22:13</time>
      </trkpt>
      <trkpt lat="36.212100982666" lon="109.35919952393">
        <ele>9776.46</ele>
        <time>2026-05-25T01:22:28</time>
      </trkpt>
      <trkpt lat="36.187381744385" lon="109.34400177002">
        <ele>9776.46</ele>
        <time>2026-05-25T01:22:43</time>
      </trkpt>
      <trkpt lat="36.154655456543" lon="109.32424926758">
        <ele>9768.84</ele>
        <time>2026-05-25T01:23:02</time>
      </trkpt>
      <trkpt lat="36.129638671875" lon="109.3091583252">
        <ele>9768.84</ele>
        <time>2026-05-25T01:23:17</time>
      </trkpt>
      <trkpt lat="36.104011535645" lon="109.293800354">
        <ele>9776.46</ele>
        <time>2026-05-25T01:23:32</time>
      </trkpt>
      <trkpt lat="36.079330444336" lon="109.27899932861">
        <ele>9776.46</ele>
        <time>2026-05-25T01:23:47</time>
      </trkpt>
      <trkpt lat="36.054428100586" lon="109.26406097412">
        <ele>9784.08</ele>
        <time>2026-05-25T01:24:02</time>
      </trkpt>
      <trkpt lat="36.028823852539" lon="109.24880981445">
        <ele>9784.08</ele>
        <time>2026-05-25T01:24:17</time>
      </trkpt>
      <trkpt lat="36.003433227539" lon="109.23362731934">
        <ele>9791.7</ele>
        <time>2026-05-25T01:24:32</time>
      </trkpt>
      <trkpt lat="35.977935791016" lon="109.21840667725">
        <ele>9791.7</ele>
        <time>2026-05-25T01:24:47</time>
      </trkpt>
      <trkpt lat="35.952011108398" lon="109.20292663574">
        <ele>9799.32</ele>
        <time>2026-05-25T01:25:01</time>
      </trkpt>
      <trkpt lat="35.926689147949" lon="109.18785858154">
        <ele>9799.32</ele>
        <time>2026-05-25T01:25:16</time>
      </trkpt>
      <trkpt lat="35.900249481201" lon="109.17211914062">
        <ele>9799.32</ele>
        <time>2026-05-25T01:25:31</time>
      </trkpt>
      <trkpt lat="35.874881744385" lon="109.15699768066">
        <ele>9799.32</ele>
        <time>2026-05-25T01:25:46</time>
      </trkpt>
      <trkpt lat="35.852779388428" lon="109.14418792725">
        <ele>9799.32</ele>
        <time>2026-05-25T01:26:02</time>
      </trkpt>
      <trkpt lat="35.826778411865" lon="109.13131713867">
        <ele>9791.7</ele>
        <time>2026-05-25T01:26:16</time>
      </trkpt>
      <trkpt lat="35.800392150879" lon="109.11959838867">
        <ele>9784.08</ele>
        <time>2026-05-25T01:26:31</time>
      </trkpt>
      <trkpt lat="35.772811889648" lon="109.1072845459">
        <ele>9784.08</ele>
        <time>2026-05-25T01:26:46</time>
      </trkpt>
      <trkpt lat="35.747089385986" lon="109.095703125">
        <ele>9784.08</ele>
        <time>2026-05-25T01:27:01</time>
      </trkpt>
      <trkpt lat="35.720211029053" lon="109.0837097168">
        <ele>9784.08</ele>
        <time>2026-05-25T01:27:16</time>
      </trkpt>
      <trkpt lat="35.693481445312" lon="109.07180786133">
        <ele>9776.46</ele>
        <time>2026-05-25T01:27:31</time>
      </trkpt>
      <trkpt lat="35.665054321289" lon="109.05921936035">
        <ele>9776.46</ele>
        <time>2026-05-25T01:27:46</time>
      </trkpt>
      <trkpt lat="35.637729644775" lon="109.04708862305">
        <ele>9768.84</ele>
        <time>2026-05-25T01:28:01</time>
      </trkpt>
      <trkpt lat="35.601104736328" lon="109.03077697754">
        <ele>9776.46</ele>
        <time>2026-05-25T01:28:21</time>
      </trkpt>
      <trkpt lat="35.575313568115" lon="109.01937866211">
        <ele>9776.46</ele>
        <time>2026-05-25T01:28:36</time>
      </trkpt>
      <trkpt lat="35.547225952148" lon="109.00691986084">
        <ele>9776.46</ele>
        <time>2026-05-25T01:28:50</time>
      </trkpt>
      <trkpt lat="35.521224975586" lon="108.99536132812">
        <ele>9784.08</ele>
        <time>2026-05-25T01:29:05</time>
      </trkpt>
      <trkpt lat="35.494548797607" lon="108.98361968994">
        <ele>9791.7</ele>
        <time>2026-05-25T01:29:20</time>
      </trkpt>
      <trkpt lat="35.476249694824" lon="108.97554779053">
        <ele>9791.7</ele>
        <time>2026-05-25T01:29:31</time>
      </trkpt>
      <trkpt lat="35.449081420898" lon="108.96354675293">
        <ele>9791.7</ele>
        <time>2026-05-25T01:29:45</time>
      </trkpt>
      <trkpt lat="35.414108276367" lon="108.94815063477">
        <ele>9799.32</ele>
        <time>2026-05-25T01:30:05</time>
      </trkpt>
      <trkpt lat="35.385311126709" lon="108.93550872803">
        <ele>9799.32</ele>
        <time>2026-05-25T01:30:20</time>
      </trkpt>
      <trkpt lat="35.3551902771" lon="108.92223358154">
        <ele>9799.32</ele>
        <time>2026-05-25T01:30:40</time>
      </trkpt>
      <trkpt lat="35.328369140625" lon="108.91033172607">
        <ele>9791.7</ele>
        <time>2026-05-25T01:30:55</time>
      </trkpt>
      <trkpt lat="35.301773071289" lon="108.89864349365">
        <ele>9776.46</ele>
        <time>2026-05-25T01:31:10</time>
      </trkpt>
      <trkpt lat="35.274810791016" lon="108.88681030273">
        <ele>9776.46</ele>
        <time>2026-05-25T01:31:25</time>
      </trkpt>
      <trkpt lat="35.248096466064" lon="108.87503814697">
        <ele>9776.46</ele>
        <time>2026-05-25T01:31:40</time>
      </trkpt>
      <trkpt lat="35.221118927002" lon="108.86325073242">
        <ele>9776.46</ele>
        <time>2026-05-25T01:31:55</time>
      </trkpt>
      <trkpt lat="35.19953918457" lon="108.85373687744">
        <ele>9776.46</ele>
        <time>2026-05-25T01:32:06</time>
      </trkpt>
      <trkpt lat="35.173511505127" lon="108.84233856201">
        <ele>9776.46</ele>
        <time>2026-05-25T01:32:20</time>
      </trkpt>
      <trkpt lat="35.145309448242" lon="108.82998657227">
        <ele>9776.46</ele>
        <time>2026-05-25T01:32:35</time>
      </trkpt>
      <trkpt lat="35.11701965332" lon="108.81767272949">
        <ele>9776.46</ele>
        <time>2026-05-25T01:32:50</time>
      </trkpt>
      <trkpt lat="35.091930389404" lon="108.80668640137">
        <ele>9776.46</ele>
        <time>2026-05-25T01:33:05</time>
      </trkpt>
      <trkpt lat="35.064262390137" lon="108.79457855225">
        <ele>9776.46</ele>
        <time>2026-05-25T01:33:20</time>
      </trkpt>
      <trkpt lat="35.038101196289" lon="108.78307342529">
        <ele>9776.46</ele>
        <time>2026-05-25T01:33:35</time>
      </trkpt>
      <trkpt lat="35.008800506592" lon="108.77030944824">
        <ele>9776.46</ele>
        <time>2026-05-25T01:33:50</time>
      </trkpt>
      <trkpt lat="34.983169555664" lon="108.75916290283">
        <ele>9784.08</ele>
        <time>2026-05-25T01:34:05</time>
      </trkpt>
      <trkpt lat="34.9541015625" lon="108.74649047852">
        <ele>9776.46</ele>
        <time>2026-05-25T01:34:24</time>
      </trkpt>
      <trkpt lat="34.927307128906" lon="108.73484039307">
        <ele>9784.08</ele>
        <time>2026-05-25T01:34:39</time>
      </trkpt>
      <trkpt lat="34.900630950928" lon="108.7232208252">
        <ele>9784.08</ele>
        <time>2026-05-25T01:34:54</time>
      </trkpt>
      <trkpt lat="34.87345123291" lon="108.71131896973">
        <ele>9791.7</ele>
        <time>2026-05-25T01:35:09</time>
      </trkpt>
      <trkpt lat="34.846019744873" lon="108.69940185547">
        <ele>9791.7</ele>
        <time>2026-05-25T01:35:24</time>
      </trkpt>
      <trkpt lat="34.819885253906" lon="108.68807983398">
        <ele>9791.7</ele>
        <time>2026-05-25T01:35:39</time>
      </trkpt>
      <trkpt lat="34.792819976807" lon="108.67630004883">
        <ele>9791.7</ele>
        <time>2026-05-25T01:35:54</time>
      </trkpt>
      <trkpt lat="34.766929626465" lon="108.66507720947">
        <ele>9791.7</ele>
        <time>2026-05-25T01:36:09</time>
      </trkpt>
      <trkpt lat="34.739639282227" lon="108.65327453613">
        <ele>9791.7</ele>
        <time>2026-05-25T01:36:24</time>
      </trkpt>
      <trkpt lat="34.712928771973" lon="108.64167785645">
        <ele>9791.7</ele>
        <time>2026-05-25T01:36:39</time>
      </trkpt>
      <trkpt lat="34.686538696289" lon="108.63024139404">
        <ele>9791.7</ele>
        <time>2026-05-25T01:36:54</time>
      </trkpt>
      <trkpt lat="34.660263061523" lon="108.6188583374">
        <ele>9784.08</ele>
        <time>2026-05-25T01:37:09</time>
      </trkpt>
      <trkpt lat="34.633350372314" lon="108.60724639893">
        <ele>9784.08</ele>
        <time>2026-05-25T01:37:24</time>
      </trkpt>
      <trkpt lat="34.605194091797" lon="108.5951461792">
        <ele>9776.46</ele>
        <time>2026-05-25T01:37:39</time>
      </trkpt>
      <trkpt lat="34.579010009766" lon="108.58377075195">
        <ele>9776.46</ele>
        <time>2026-05-25T01:37:54</time>
      </trkpt>
      <trkpt lat="34.550899505615" lon="108.57160186768">
        <ele>9776.46</ele>
        <time>2026-05-25T01:38:09</time>
      </trkpt>
      <trkpt lat="34.523509979248" lon="108.55979919434">
        <ele>9768.84</ele>
        <time>2026-05-25T01:38:24</time>
      </trkpt>
      <trkpt lat="34.497531890869" lon="108.54862213135">
        <ele>9776.46</ele>
        <time>2026-05-25T01:38:39</time>
      </trkpt>
      <trkpt lat="34.470119476318" lon="108.53679656982">
        <ele>9776.46</ele>
        <time>2026-05-25T01:38:54</time>
      </trkpt>
      <trkpt lat="34.443698883057" lon="108.52546691895">
        <ele>9776.46</ele>
        <time>2026-05-25T01:39:09</time>
      </trkpt>
      <trkpt lat="34.422130584717" lon="108.51622009277">
        <ele>9776.46</ele>
        <time>2026-05-25T01:39:24</time>
      </trkpt>
      <trkpt lat="34.39421081543" lon="108.50417327881">
        <ele>9776.46</ele>
        <time>2026-05-25T01:39:39</time>
      </trkpt>
      <trkpt lat="34.367248535156" lon="108.49262237549">
        <ele>9776.46</ele>
        <time>2026-05-25T01:39:54</time>
      </trkpt>
      <trkpt lat="34.340419769287" lon="108.48113250732">
        <ele>9784.08</ele>
        <time>2026-05-25T01:40:09</time>
      </trkpt>
      <trkpt lat="34.312770843506" lon="108.46922302246">
        <ele>9784.08</ele>
        <time>2026-05-25T01:40:24</time>
      </trkpt>
      <trkpt lat="34.286270141602" lon="108.4578704834">
        <ele>9784.08</ele>
        <time>2026-05-25T01:40:39</time>
      </trkpt>
      <trkpt lat="34.258026123047" lon="108.44576263428">
        <ele>9784.08</ele>
        <time>2026-05-25T01:40:54</time>
      </trkpt>
      <trkpt lat="34.227718353271" lon="108.432762146">
        <ele>9784.08</ele>
        <time>2026-05-25T01:41:09</time>
      </trkpt>
      <trkpt lat="34.197460174561" lon="108.41983795166">
        <ele>9791.7</ele>
        <time>2026-05-25T01:41:29</time>
      </trkpt>
      <trkpt lat="34.147090911865" lon="108.39837646484">
        <ele>9791.7</ele>
        <time>2026-05-25T01:41:53</time>
      </trkpt>
      <trkpt lat="34.119369506836" lon="108.3865737915">
        <ele>9784.08</ele>
        <time>2026-05-25T01:42:08</time>
      </trkpt>
      <trkpt lat="34.089519500732" lon="108.37384796143">
        <ele>9784.08</ele>
        <time>2026-05-25T01:42:28</time>
      </trkpt>
      <trkpt lat="34.061416625977" lon="108.36185455322">
        <ele>9784.08</ele>
        <time>2026-05-25T01:42:43</time>
      </trkpt>
      <trkpt lat="34.036418914795" lon="108.35119628906">
        <ele>9791.7</ele>
        <time>2026-05-25T01:42:58</time>
      </trkpt>
      <trkpt lat="34.005428314209" lon="108.33801269531">
        <ele>9791.7</ele>
        <time>2026-05-25T01:43:13</time>
      </trkpt>
      <trkpt lat="33.976139068604" lon="108.32559204102">
        <ele>9799.32</ele>
        <time>2026-05-25T01:43:28</time>
      </trkpt>
      <trkpt lat="33.945140838623" lon="108.31242370605">
        <ele>9799.32</ele>
        <time>2026-05-25T01:43:48</time>
      </trkpt>
      <trkpt lat="33.903579711914" lon="108.29476165771">
        <ele>9791.7</ele>
        <time>2026-05-25T01:44:08</time>
      </trkpt>
      <trkpt lat="33.874599456787" lon="108.28247833252">
        <ele>9791.7</ele>
        <time>2026-05-25T01:44:23</time>
      </trkpt>
      <trkpt lat="33.846405029297" lon="108.27054595947">
        <ele>9791.7</ele>
        <time>2026-05-25T01:44:38</time>
      </trkpt>
      <trkpt lat="33.819599151611" lon="108.25916290283">
        <ele>9784.08</ele>
        <time>2026-05-25T01:44:54</time>
      </trkpt>
      <trkpt lat="33.791110992432" lon="108.24716949463">
        <ele>9784.08</ele>
        <time>2026-05-25T01:45:08</time>
      </trkpt>
      <trkpt lat="33.765151977539" lon="108.23612976074">
        <ele>9784.08</ele>
        <time>2026-05-25T01:45:23</time>
      </trkpt>
      <trkpt lat="33.737991333008" lon="108.22466278076">
        <ele>9784.08</ele>
        <time>2026-05-25T01:45:38</time>
      </trkpt>
      <trkpt lat="33.71960067749" lon="108.2169342041">
        <ele>9784.08</ele>
        <time>2026-05-25T01:45:49</time>
      </trkpt>
      <trkpt lat="33.692596435547" lon="108.20552062988">
        <ele>9784.08</ele>
        <time>2026-05-25T01:46:03</time>
      </trkpt>
      <trkpt lat="33.665130615234" lon="108.1939163208">
        <ele>9776.46</ele>
        <time>2026-05-25T01:46:18</time>
      </trkpt>
      <trkpt lat="33.637580871582" lon="108.18225860596">
        <ele>9776.46</ele>
        <time>2026-05-25T01:46:33</time>
      </trkpt>
      <trkpt lat="33.610198974609" lon="108.17071533203">
        <ele>9776.46</ele>
        <time>2026-05-25T01:46:48</time>
      </trkpt>
      <trkpt lat="33.582412719727" lon="108.15902709961">
        <ele>9776.46</ele>
        <time>2026-05-25T01:47:03</time>
      </trkpt>
      <trkpt lat="33.544979095459" lon="108.14328765869">
        <ele>9776.46</ele>
        <time>2026-05-25T01:47:28</time>
      </trkpt>
      <trkpt lat="33.517238616943" lon="108.13165283203">
        <ele>9776.46</ele>
        <time>2026-05-25T01:47:43</time>
      </trkpt>
      <trkpt lat="33.489631652832" lon="108.12004089355">
        <ele>9776.46</ele>
        <time>2026-05-25T01:47:58</time>
      </trkpt>
      <trkpt lat="33.461799621582" lon="108.10838317871">
        <ele>9776.46</ele>
        <time>2026-05-25T01:48:12</time>
      </trkpt>
      <trkpt lat="33.433399200439" lon="108.09638977051">
        <ele>9776.46</ele>
        <time>2026-05-25T01:48:27</time>
      </trkpt>
      <trkpt lat="33.402626037598" lon="108.08422851562">
        <ele>9784.08</ele>
        <time>2026-05-25T01:48:42</time>
      </trkpt>
      <trkpt lat="33.370410919189" lon="108.07279205322">
        <ele>9784.08</ele>
        <time>2026-05-25T01:49:01</time>
      </trkpt>
      <trkpt lat="33.343780517578" lon="108.06323242188">
        <ele>9784.08</ele>
        <time>2026-05-25T01:49:16</time>
      </trkpt>
      <trkpt lat="33.31229019165" lon="108.05197143555">
        <ele>9791.7</ele>
        <time>2026-05-25T01:49:30</time>
      </trkpt>
      <trkpt lat="33.284477233887" lon="108.04201507568">
        <ele>9791.7</ele>
        <time>2026-05-25T01:49:45</time>
      </trkpt>
      <trkpt lat="33.255710601807" lon="108.03175354004">
        <ele>9791.7</ele>
        <time>2026-05-25T01:50:00</time>
      </trkpt>
      <trkpt lat="33.22843170166" lon="108.02194976807">
        <ele>9791.7</ele>
        <time>2026-05-25T01:50:15</time>
      </trkpt>
      <trkpt lat="33.200130462646" lon="108.01191711426">
        <ele>9784.08</ele>
        <time>2026-05-25T01:50:30</time>
      </trkpt>
      <trkpt lat="33.171619415283" lon="108.00176239014">
        <ele>9784.08</ele>
        <time>2026-05-25T01:50:44</time>
      </trkpt>
      <trkpt lat="33.143329620361" lon="107.99167633057">
        <ele>9784.08</ele>
        <time>2026-05-25T01:50:59</time>
      </trkpt>
      <trkpt lat="33.115169525146" lon="107.981590271">
        <ele>9784.08</ele>
        <time>2026-05-25T01:51:14</time>
      </trkpt>
      <trkpt lat="33.086349487305" lon="107.97132873535">
        <ele>9784.08</ele>
        <time>2026-05-25T01:51:29</time>
      </trkpt>
      <trkpt lat="33.057079315186" lon="107.9609375">
        <ele>9784.08</ele>
        <time>2026-05-25T01:51:44</time>
      </trkpt>
      <trkpt lat="33.035480499268" lon="107.95330810547">
        <ele>9784.08</ele>
        <time>2026-05-25T01:51:58</time>
      </trkpt>
      <trkpt lat="33.005958557129" lon="107.9428024292">
        <ele>9784.08</ele>
        <time>2026-05-25T01:52:13</time>
      </trkpt>
      <trkpt lat="32.977939605713" lon="107.93286895752">
        <ele>9784.08</ele>
        <time>2026-05-25T01:52:28</time>
      </trkpt>
      <trkpt lat="32.950088500977" lon="107.92301940918">
        <ele>9784.08</ele>
        <time>2026-05-25T01:52:43</time>
      </trkpt>
      <trkpt lat="32.920761108398" lon="107.91259002686">
        <ele>9784.08</ele>
        <time>2026-05-25T01:52:58</time>
      </trkpt>
      <trkpt lat="32.890411376953" lon="107.90189361572">
        <ele>9784.08</ele>
        <time>2026-05-25T01:53:13</time>
      </trkpt>
      <trkpt lat="32.860019683838" lon="107.89112854004">
        <ele>9784.08</ele>
        <time>2026-05-25T01:53:28</time>
      </trkpt>
      <trkpt lat="32.831340789795" lon="107.88098144531">
        <ele>9784.08</ele>
        <time>2026-05-25T01:53:43</time>
      </trkpt>
      <trkpt lat="32.802989959717" lon="107.87100219727">
        <ele>9791.7</ele>
        <time>2026-05-25T01:53:58</time>
      </trkpt>
      <trkpt lat="32.774688720703" lon="107.86096954346">
        <ele>9791.7</ele>
        <time>2026-05-25T01:54:13</time>
      </trkpt>
      <trkpt lat="32.745819091797" lon="107.85082244873">
        <ele>9784.08</ele>
        <time>2026-05-25T01:54:28</time>
      </trkpt>
      <trkpt lat="32.715408325195" lon="107.84008789062">
        <ele>9784.08</ele>
        <time>2026-05-25T01:54:47</time>
      </trkpt>
      <trkpt lat="32.671291351318" lon="107.82459259033">
        <ele>9776.46</ele>
        <time>2026-05-25T01:55:07</time>
      </trkpt>
      <trkpt lat="32.642810821533" lon="107.81455230713">
        <ele>9776.46</ele>
        <time>2026-05-25T01:55:22</time>
      </trkpt>
      <trkpt lat="32.614681243896" lon="107.8046875">
        <ele>9776.46</ele>
        <time>2026-05-25T01:55:37</time>
      </trkpt>
      <trkpt lat="32.582019805908" lon="107.79318237305">
        <ele>9776.46</ele>
        <time>2026-05-25T01:55:57</time>
      </trkpt>
      <trkpt lat="32.555561065674" lon="107.78388977051">
        <ele>9776.46</ele>
        <time>2026-05-25T01:56:12</time>
      </trkpt>
      <trkpt lat="32.525531768799" lon="107.7733001709">
        <ele>9776.46</ele>
        <time>2026-05-25T01:56:27</time>
      </trkpt>
      <trkpt lat="32.498260498047" lon="107.76371765137">
        <ele>9776.46</ele>
        <time>2026-05-25T01:56:42</time>
      </trkpt>
      <trkpt lat="32.464649200439" lon="107.75193786621">
        <ele>9776.46</ele>
        <time>2026-05-25T01:56:57</time>
      </trkpt>
      <trkpt lat="32.440338134766" lon="107.74340820312">
        <ele>9776.46</ele>
        <time>2026-05-25T01:57:12</time>
      </trkpt>
      <trkpt lat="32.385410308838" lon="107.7241897583">
        <ele>9784.08</ele>
        <time>2026-05-25T01:57:40</time>
      </trkpt>
      <trkpt lat="32.271648406982" lon="107.68431091309">
        <ele>9791.7</ele>
        <time>2026-05-25T01:58:38</time>
      </trkpt>
      <trkpt lat="32.200420379639" lon="107.65058135986">
        <ele>9791.7</ele>
        <time>2026-05-25T01:59:14</time>
      </trkpt>
      <trkpt lat="32.153270721436" lon="107.61975860596">
        <ele>9791.7</ele>
        <time>2026-05-25T01:59:45</time>
      </trkpt>
      <trkpt lat="32.114761352539" lon="107.58855438232">
        <ele>9791.7</ele>
        <time>2026-05-25T02:00:06</time>
      </trkpt>
      <trkpt lat="32.090091705322" lon="107.56674957275">
        <ele>9791.7</ele>
        <time>2026-05-25T02:00:24</time>
      </trkpt>
      <trkpt lat="32.060569763184" lon="107.54067993164">
        <ele>9776.46</ele>
        <time>2026-05-25T02:00:43</time>
      </trkpt>
      <trkpt lat="32.013748168945" lon="107.49941253662">
        <ele>9532.62</ele>
        <time>2026-05-25T02:01:14</time>
      </trkpt>
      <trkpt lat="31.634490966797" lon="107.22090911865">
        <ele>7734.3</ele>
        <time>2026-05-25T02:05:15</time>
      </trkpt>
      <trkpt lat="31.566829681396" lon="107.1859588623">
        <ele>7536.18</ele>
        <time>2026-05-25T02:05:55</time>
      </trkpt>
      <trkpt lat="31.074371337891" lon="106.93343353271">
        <ele>7421.88</ele>
        <time>2026-05-25T02:11:01</time>
      </trkpt>
      <trkpt lat="31.007860183716" lon="106.89961242676">
        <ele>5768.34</ele>
        <time>2026-05-25T02:11:44</time>
      </trkpt>
      <trkpt lat="30.987300872803" lon="106.88916015625">
        <ele>5699.76</ele>
        <time>2026-05-25T02:11:58</time>
      </trkpt>
      <trkpt lat="30.965059280396" lon="106.87779998779">
        <ele>5615.94</ele>
        <time>2026-05-25T02:12:13</time>
      </trkpt>
      <trkpt lat="30.939729690552" lon="106.8649520874">
        <ele>5532.12</ele>
        <time>2026-05-25T02:12:28</time>
      </trkpt>
      <trkpt lat="30.832479476929" lon="106.81056976318">
        <ele>5158.74</ele>
        <time>2026-05-25T02:13:39</time>
      </trkpt>
      <trkpt lat="30.814819335938" lon="106.80159759521">
        <ele>5097.78</ele>
        <time>2026-05-25T02:13:54</time>
      </trkpt>
      <trkpt lat="30.789319992065" lon="106.78861999512">
        <ele>5013.96</ele>
        <time>2026-05-25T02:14:09</time>
      </trkpt>
      <trkpt lat="30.739187240601" lon="106.76326751709">
        <ele>4831.08</ele>
        <time>2026-05-25T02:14:47</time>
      </trkpt>
      <trkpt lat="30.70050239563" lon="106.74376678467">
        <ele>4701.54</ele>
        <time>2026-05-25T02:15:14</time>
      </trkpt>
      <trkpt lat="30.672912597656" lon="106.72985839844">
        <ele>4602.48</ele>
        <time>2026-05-25T02:15:30</time>
      </trkpt>
      <trkpt lat="30.655609130859" lon="106.72103118896">
        <ele>4549.14</ele>
        <time>2026-05-25T02:15:43</time>
      </trkpt>
      <trkpt lat="30.609558105469" lon="106.70078277588">
        <ele>4381.5</ele>
        <time>2026-05-25T02:16:14</time>
      </trkpt>
      <trkpt lat="30.517822265625" lon="106.70541381836">
        <ele>4091.94</ele>
        <time>2026-05-25T02:17:12</time>
      </trkpt>
      <trkpt lat="30.489761352539" lon="106.70800018311">
        <ele>3992.8801</ele>
        <time>2026-05-25T02:17:31</time>
      </trkpt>
      <trkpt lat="30.463272094727" lon="106.71047973633">
        <ele>3909.06</ele>
        <time>2026-05-25T02:17:47</time>
      </trkpt>
      <trkpt lat="30.409790039062" lon="106.71548461914">
        <ele>3718.56</ele>
        <time>2026-05-25T02:18:19</time>
      </trkpt>
      <trkpt lat="30.386322021484" lon="106.71767425537">
        <ele>3634.74</ele>
        <time>2026-05-25T02:18:39</time>
      </trkpt>
      <trkpt lat="30.329635620117" lon="106.72124481201">
        <ele>3596.64</ele>
        <time>2026-05-25T02:19:18</time>
      </trkpt>
      <trkpt lat="30.284000396729" lon="106.7077331543">
        <ele>3596.64</ele>
        <time>2026-05-25T02:19:50</time>
      </trkpt>
      <trkpt lat="30.264629364014" lon="106.70104980469">
        <ele>3596.64</ele>
        <time>2026-05-25T02:20:05</time>
      </trkpt>
      <trkpt lat="30.241516113281" lon="106.69302368164">
        <ele>3596.64</ele>
        <time>2026-05-25T02:20:20</time>
      </trkpt>
      <trkpt lat="30.226320266724" lon="106.68773651123">
        <ele>3596.64</ele>
        <time>2026-05-25T02:20:34</time>
      </trkpt>
      <trkpt lat="30.198299407959" lon="106.6780166626">
        <ele>3596.64</ele>
        <time>2026-05-25T02:20:54</time>
      </trkpt>
      <trkpt lat="30.175720214844" lon="106.67021179199">
        <ele>3596.64</ele>
        <time>2026-05-25T02:21:09</time>
      </trkpt>
      <trkpt lat="30.148040771484" lon="106.66060638428">
        <ele>3596.64</ele>
        <time>2026-05-25T02:21:29</time>
      </trkpt>
      <trkpt lat="30.125019073486" lon="106.65258026123">
        <ele>3596.64</ele>
        <time>2026-05-25T02:21:44</time>
      </trkpt>
      <trkpt lat="30.104349136353" lon="106.64539337158">
        <ele>3596.64</ele>
        <time>2026-05-25T02:21:59</time>
      </trkpt>
      <trkpt lat="30.083358764648" lon="106.63809204102">
        <ele>3596.64</ele>
        <time>2026-05-25T02:22:19</time>
      </trkpt>
      <trkpt lat="30.063079833984" lon="106.63109588623">
        <ele>3573.78</ele>
        <time>2026-05-25T02:22:34</time>
      </trkpt>
      <trkpt lat="30.041742324829" lon="106.62368774414">
        <ele>3474.72</ele>
        <time>2026-05-25T02:22:49</time>
      </trkpt>
      <trkpt lat="30.021259307861" lon="106.61660003662">
        <ele>3345.18</ele>
        <time>2026-05-25T02:23:04</time>
      </trkpt>
      <trkpt lat="30.001281738281" lon="106.6096572876">
        <ele>3230.88</ele>
        <time>2026-05-25T02:23:19</time>
      </trkpt>
      <trkpt lat="29.981359481812" lon="106.60276031494">
        <ele>3124.2</ele>
        <time>2026-05-25T02:23:34</time>
      </trkpt>
      <trkpt lat="29.959760665894" lon="106.5952911377">
        <ele>3070.86</ele>
        <time>2026-05-25T02:23:49</time>
      </trkpt>
      <trkpt lat="29.944339752197" lon="106.58995056152">
        <ele>3032.76</ele>
        <time>2026-05-25T02:24:04</time>
      </trkpt>
      <trkpt lat="29.910789489746" lon="106.57832336426">
        <ele>2834.64</ele>
        <time>2026-05-25T02:24:28</time>
      </trkpt>
      <trkpt lat="29.884630203247" lon="106.56932067871">
        <ele>2667.0</ele>
        <time>2026-05-25T02:24:49</time>
      </trkpt>
      <trkpt lat="29.868709564209" lon="106.56376647949">
        <ele>2575.56</ele>
        <time>2026-05-25T02:25:04</time>
      </trkpt>
      <trkpt lat="29.85383605957" lon="106.55867004395">
        <ele>2499.36</ele>
        <time>2026-05-25T02:25:16</time>
      </trkpt>
      <trkpt lat="29.834537506104" lon="106.55192565918">
        <ele>2400.3</ele>
        <time>2026-05-25T02:25:31</time>
      </trkpt>
      <trkpt lat="29.817031860352" lon="106.54588317871">
        <ele>2301.24</ele>
        <time>2026-05-25T02:25:46</time>
      </trkpt>
      <trkpt lat="29.798273086548" lon="106.53942871094">
        <ele>2225.04</ele>
        <time>2026-05-25T02:26:01</time>
      </trkpt>
      <trkpt lat="29.780136108398" lon="106.53315734863">
        <ele>2209.8</ele>
        <time>2026-05-25T02:26:16</time>
      </trkpt>
      <trkpt lat="29.761730194092" lon="106.52683258057">
        <ele>2209.8</ele>
        <time>2026-05-25T02:26:31</time>
      </trkpt>
      <trkpt lat="29.7421875" lon="106.52011108398">
        <ele>2217.42</ele>
        <time>2026-05-25T02:26:46</time>
      </trkpt>
      <trkpt lat="29.723600387573" lon="106.51368713379">
        <ele>2194.56</ele>
        <time>2026-05-25T02:27:06</time>
      </trkpt>
      <trkpt lat="29.705629348755" lon="106.50749969482">
        <ele>2118.36</ele>
        <time>2026-05-25T02:27:21</time>
      </trkpt>
      <trkpt lat="29.687620162964" lon="106.50131225586">
        <ele>2019.3</ele>
        <time>2026-05-25T02:27:36</time>
      </trkpt>
      <trkpt lat="29.667230606079" lon="106.49424743652">
        <ele>1920.24</ele>
        <time>2026-05-25T02:27:51</time>
      </trkpt>
      <trkpt lat="29.63703918457" lon="106.4838180542">
        <ele>1752.6</ele>
        <time>2026-05-25T02:28:16</time>
      </trkpt>
      <trkpt lat="29.610479354858" lon="106.4747467041">
        <ele>1668.78</ele>
        <time>2026-05-25T02:28:41</time>
      </trkpt>
      <trkpt lat="29.583019256592" lon="106.46523284912">
        <ele>1607.82</ele>
        <time>2026-05-25T02:29:03</time>
      </trkpt>
      <trkpt lat="29.556949615479" lon="106.58558654785">
        <ele>1295.4</ele>
        <time>2026-05-25T02:34:12</time>
      </trkpt>
      <trkpt lat="29.568700790405" lon="106.58966827393">
        <ele>1295.4</ele>
        <time>2026-05-25T02:34:27</time>
      </trkpt>
      <trkpt lat="29.585859298706" lon="106.59558868408">
        <ele>1226.82</ele>
        <time>2026-05-25T02:34:47</time>
      </trkpt>
      <trkpt lat="29.594509124756" lon="106.59854888916">
        <ele>1173.48</ele>
        <time>2026-05-25T02:35:00</time>
      </trkpt>
      <trkpt lat="29.605829238892" lon="106.60243988037">
        <ele>1104.9</ele>
        <time>2026-05-25T02:35:15</time>
      </trkpt>
      <trkpt lat="29.616849899292" lon="106.60626220703">
        <ele>1036.32</ele>
        <time>2026-05-25T02:35:30</time>
      </trkpt>
      <trkpt lat="29.627840042114" lon="106.61006164551">
        <ele>975.36</ele>
        <time>2026-05-25T02:35:45</time>
      </trkpt>
      <trkpt lat="29.642900466919" lon="106.61524200439">
        <ele>891.54</ele>
        <time>2026-05-25T02:36:10</time>
      </trkpt>
      <trkpt lat="29.654008865356" lon="106.61907958984">
        <ele>822.96</ele>
        <time>2026-05-25T02:36:30</time>
      </trkpt>
      <trkpt lat="29.662710189819" lon="106.62210083008">
        <ele>777.24</ele>
        <time>2026-05-25T02:36:45</time>
      </trkpt>
      <trkpt lat="29.671970367432" lon="106.62526702881">
        <ele>723.9</ele>
        <time>2026-05-25T02:37:00</time>
      </trkpt>
      <trkpt lat="29.681169509888" lon="106.62844085693">
        <ele>670.56</ele>
        <time>2026-05-25T02:37:14</time>
      </trkpt>
      <trkpt lat="29.690599441528" lon="106.631690979">
        <ele>609.6</ele>
        <time>2026-05-25T02:37:29</time>
      </trkpt>
      <trkpt lat="29.700649261475" lon="106.63519287109">
        <ele>556.26</ele>
        <time>2026-05-25T02:37:44</time>
      </trkpt>
      <trkpt lat="29.718330383301" lon="106.64128112793">
        <ele>556.26</ele>
        <time>2026-05-25T02:38:20</time>
      </trkpt>
      <trkpt lat="29.724840164185" lon="106.64727020264">
        <ele>556.26</ele>
        <time>2026-05-25T02:40:04</time>
      </trkpt>
      <trkpt lat="29.723739624023" lon="106.64929962158">
        <ele>556.26</ele>
        <time>2026-05-25T02:40:47</time>
      </trkpt>
      <trkpt lat="29.722650527954" lon="106.64891815186">
        <ele>556.26</ele>
        <time>2026-05-25T02:41:04</time>
      </trkpt>
      <trkpt lat="29.719909667969" lon="106.64797973633">
        <ele>556.26</ele>
        <time>2026-05-25T02:41:46</time>
      </trkpt>
      <trkpt lat="29.71681022644" lon="106.6480178833">
        <ele>556.26</ele>
        <time>2026-05-25T02:42:44</time>
      </trkpt>
      <trkpt lat="29.716859817505" lon="106.64869689941">
        <ele>556.26</ele>
        <time>2026-05-25T02:43:01</time>
      </trkpt>
    </trkseg>
  </trk>
</gpx>