<?xml version="1.0" encoding="UTF-8"?>
<gpx xmlns="http://www.topografix.com/GPX/1/1" xmlns:xsi="http://www.w3.org/2001/XMLSchema-instance" xsi:schemaLocation="http://www.topografix.com/GPX/1/1 http://www.topografix.com/GPX/1/1/gpx.xsd" version="1.1" creator="gpx.py -- https://github.com/tkrajina/gpxpy">
  <trk>
    <name>Variflight_G52845_20260617.csv</name>
    <trkseg>
      <trkpt lat="29.922958374023" lon="122.36351776123">
        <ele>152.4</ele>
        <time>2026-06-16T23:07:51</time>
      </trkpt>
      <trkpt lat="29.913070678711" lon="122.36396789551">
        <ele>335.28</ele>
        <time>2026-06-16T23:08:06</time>
      </trkpt>
      <trkpt lat="29.9033203125" lon="122.36234283447">
        <ele>548.64</ele>
        <time>2026-06-16T23:08:21</time>
      </trkpt>
      <trkpt lat="29.893020629883" lon="122.36022949219">
        <ele>716.28</ele>
        <time>2026-06-16T23:08:36</time>
      </trkpt>
      <trkpt lat="29.882719039917" lon="122.35403442383">
        <ele>891.54</ele>
        <time>2026-06-16T23:08:51</time>
      </trkpt>
      <trkpt lat="29.878297805786" lon="122.3406829834">
        <ele>1089.66</ele>
        <time>2026-06-16T23:09:06</time>
      </trkpt>
      <trkpt lat="29.882253646851" lon="122.32614135742">
        <ele>1303.02</ele>
        <time>2026-06-16T23:09:21</time>
      </trkpt>
      <trkpt lat="29.889656066895" lon="122.31170654297">
        <ele>1455.42</ele>
        <time>2026-06-16T23:09:36</time>
      </trkpt>
      <trkpt lat="29.897895812988" lon="122.29619598389">
        <ele>1577.34</ele>
        <time>2026-06-16T23:09:51</time>
      </trkpt>
      <trkpt lat="29.906227111816" lon="122.28057861328">
        <ele>1737.36</ele>
        <time>2026-06-16T23:10:06</time>
      </trkpt>
      <trkpt lat="29.914890289307" lon="122.26432037354">
        <ele>1882.14</ele>
        <time>2026-06-16T23:10:21</time>
      </trkpt>
      <trkpt lat="29.923830032349" lon="122.24508666992">
        <ele>2004.06</ele>
        <time>2026-06-16T23:10:36</time>
      </trkpt>
      <trkpt lat="29.927503585815" lon="122.22383117676">
        <ele>2125.98</ele>
        <time>2026-06-16T23:10:51</time>
      </trkpt>
      <trkpt lat="29.927349090576" lon="122.20211029053">
        <ele>2240.28</ele>
        <time>2026-06-16T23:11:06</time>
      </trkpt>
      <trkpt lat="29.9267578125" lon="122.1798324585">
        <ele>2354.58</ele>
        <time>2026-06-16T23:11:21</time>
      </trkpt>
      <trkpt lat="29.9260597229" lon="122.15824890137">
        <ele>2461.26</ele>
        <time>2026-06-16T23:11:36</time>
      </trkpt>
      <trkpt lat="29.925338745117" lon="122.1362991333">
        <ele>2583.18</ele>
        <time>2026-06-16T23:11:51</time>
      </trkpt>
      <trkpt lat="29.924615859985" lon="122.1131439209">
        <ele>2697.48</ele>
        <time>2026-06-16T23:12:06</time>
      </trkpt>
      <trkpt lat="29.923824310303" lon="122.09150695801">
        <ele>2743.2</ele>
        <time>2026-06-16T23:12:21</time>
      </trkpt>
      <trkpt lat="29.923139572144" lon="122.06931304932">
        <ele>2750.82</ele>
        <time>2026-06-16T23:12:36</time>
      </trkpt>
      <trkpt lat="29.922409057617" lon="122.04685211182">
        <ele>2750.82</ele>
        <time>2026-06-16T23:12:51</time>
      </trkpt>
      <trkpt lat="29.921680450439" lon="122.02477264404">
        <ele>2743.2</ele>
        <time>2026-06-16T23:13:06</time>
      </trkpt>
      <trkpt lat="29.92094039917" lon="122.00257110596">
        <ele>2750.82</ele>
        <time>2026-06-16T23:13:21</time>
      </trkpt>
      <trkpt lat="29.920166015625" lon="121.98007202148">
        <ele>2743.2</ele>
        <time>2026-06-16T23:13:36</time>
      </trkpt>
      <trkpt lat="29.919342041016" lon="121.95599365234">
        <ele>2750.82</ele>
        <time>2026-06-16T23:13:51</time>
      </trkpt>
      <trkpt lat="29.918565750122" lon="121.93390655518">
        <ele>2750.82</ele>
        <time>2026-06-16T23:14:06</time>
      </trkpt>
      <trkpt lat="29.917770385742" lon="121.91204071045">
        <ele>2743.2</ele>
        <time>2026-06-16T23:14:21</time>
      </trkpt>
      <trkpt lat="29.916982650757" lon="121.88946533203">
        <ele>2743.2</ele>
        <time>2026-06-16T23:14:36</time>
      </trkpt>
      <trkpt lat="29.916229248047" lon="121.8678894043">
        <ele>2750.82</ele>
        <time>2026-06-16T23:14:51</time>
      </trkpt>
      <trkpt lat="29.915399551392" lon="121.84574127197">
        <ele>2743.2</ele>
        <time>2026-06-16T23:15:06</time>
      </trkpt>
      <trkpt lat="29.914608001709" lon="121.82371520996">
        <ele>2750.82</ele>
        <time>2026-06-16T23:15:21</time>
      </trkpt>
      <trkpt lat="29.913803100586" lon="121.80126953125">
        <ele>2750.82</ele>
        <time>2026-06-16T23:15:36</time>
      </trkpt>
      <trkpt lat="29.913024902344" lon="121.7794342041">
        <ele>2743.2</ele>
        <time>2026-06-16T23:15:51</time>
      </trkpt>
      <trkpt lat="29.912233352661" lon="121.75779724121">
        <ele>2743.2</ele>
        <time>2026-06-16T23:16:06</time>
      </trkpt>
      <trkpt lat="29.911420822144" lon="121.73535919189">
        <ele>2750.82</ele>
        <time>2026-06-16T23:16:21</time>
      </trkpt>
      <trkpt lat="29.910598754883" lon="121.713722229">
        <ele>2781.3</ele>
        <time>2026-06-16T23:16:36</time>
      </trkpt>
      <trkpt lat="29.90938949585" lon="121.69109344482">
        <ele>2956.56</ele>
        <time>2026-06-16T23:16:51</time>
      </trkpt>
      <trkpt lat="29.904190063477" lon="121.66931152344">
        <ele>3162.3</ele>
        <time>2026-06-16T23:17:06</time>
      </trkpt>
      <trkpt lat="29.896820068359" lon="121.64754486084">
        <ele>3337.56</ele>
        <time>2026-06-16T23:17:21</time>
      </trkpt>
      <trkpt lat="29.888957977295" lon="121.62511444092">
        <ele>3459.48</ele>
        <time>2026-06-16T23:17:36</time>
      </trkpt>
      <trkpt lat="29.880569458008" lon="121.60148620605">
        <ele>3581.4</ele>
        <time>2026-06-16T23:17:51</time>
      </trkpt>
      <trkpt lat="29.87228012085" lon="121.57808685303">
        <ele>3596.64</ele>
        <time>2026-06-16T23:18:06</time>
      </trkpt>
      <trkpt lat="29.863819122314" lon="121.55419158936">
        <ele>3596.64</ele>
        <time>2026-06-16T23:18:21</time>
      </trkpt>
      <trkpt lat="29.855533599854" lon="121.53092193604">
        <ele>3596.64</ele>
        <time>2026-06-16T23:18:36</time>
      </trkpt>
      <trkpt lat="29.847059249878" lon="121.5071182251">
        <ele>3596.64</ele>
        <time>2026-06-16T23:18:51</time>
      </trkpt>
      <trkpt lat="29.838359832764" lon="121.48280334473">
        <ele>3596.64</ele>
        <time>2026-06-16T23:19:06</time>
      </trkpt>
      <trkpt lat="29.83025932312" lon="121.45999908447">
        <ele>3596.64</ele>
        <time>2026-06-16T23:19:21</time>
      </trkpt>
      <trkpt lat="29.821830749512" lon="121.43630218506">
        <ele>3596.64</ele>
        <time>2026-06-16T23:19:36</time>
      </trkpt>
      <trkpt lat="29.813499450684" lon="121.41293334961">
        <ele>3596.64</ele>
        <time>2026-06-16T23:19:51</time>
      </trkpt>
      <trkpt lat="29.805080413818" lon="121.38941955566">
        <ele>3596.64</ele>
        <time>2026-06-16T23:20:06</time>
      </trkpt>
      <trkpt lat="29.796459197998" lon="121.36521148682">
        <ele>3596.64</ele>
        <time>2026-06-16T23:20:21</time>
      </trkpt>
      <trkpt lat="29.788190841675" lon="121.34204101562">
        <ele>3596.64</ele>
        <time>2026-06-16T23:20:36</time>
      </trkpt>
      <trkpt lat="29.779769897461" lon="121.31848144531">
        <ele>3596.64</ele>
        <time>2026-06-16T23:20:51</time>
      </trkpt>
      <trkpt lat="29.771270751953" lon="121.29476928711">
        <ele>3596.64</ele>
        <time>2026-06-16T23:21:06</time>
      </trkpt>
      <trkpt lat="29.762880325317" lon="121.2712097168">
        <ele>3596.64</ele>
        <time>2026-06-16T23:21:21</time>
      </trkpt>
      <trkpt lat="29.754043579102" lon="121.24659729004">
        <ele>3596.64</ele>
        <time>2026-06-16T23:21:36</time>
      </trkpt>
      <trkpt lat="29.745670318604" lon="121.22314453125">
        <ele>3672.84</ele>
        <time>2026-06-16T23:21:51</time>
      </trkpt>
      <trkpt lat="29.736919403076" lon="121.19873809814">
        <ele>3817.62</ele>
        <time>2026-06-16T23:22:06</time>
      </trkpt>
      <trkpt lat="29.727769851685" lon="121.17339324951">
        <ele>3939.54</ele>
        <time>2026-06-16T23:22:21</time>
      </trkpt>
      <trkpt lat="29.718338012695" lon="121.14719390869">
        <ele>4061.46</ele>
        <time>2026-06-16T23:22:36</time>
      </trkpt>
      <trkpt lat="29.70964050293" lon="121.12305450439">
        <ele>4175.76</ele>
        <time>2026-06-16T23:22:51</time>
      </trkpt>
      <trkpt lat="29.701169967651" lon="121.09938812256">
        <ele>4206.24</ele>
        <time>2026-06-16T23:23:06</time>
      </trkpt>
      <trkpt lat="29.692319869995" lon="121.07488250732">
        <ele>4206.24</ele>
        <time>2026-06-16T23:23:21</time>
      </trkpt>
      <trkpt lat="29.685789108276" lon="121.05677032471">
        <ele>4206.24</ele>
        <time>2026-06-16T23:23:35</time>
      </trkpt>
      <trkpt lat="29.676864624023" lon="121.03201293945">
        <ele>4206.24</ele>
        <time>2026-06-16T23:23:50</time>
      </trkpt>
      <trkpt lat="29.668029785156" lon="121.00759124756">
        <ele>4206.24</ele>
        <time>2026-06-16T23:24:05</time>
      </trkpt>
      <trkpt lat="29.658689498901" lon="120.98171234131">
        <ele>4206.24</ele>
        <time>2026-06-16T23:24:20</time>
      </trkpt>
      <trkpt lat="29.64940071106" lon="120.95603179932">
        <ele>4206.24</ele>
        <time>2026-06-16T23:24:35</time>
      </trkpt>
      <trkpt lat="29.640321731567" lon="120.93082427979">
        <ele>4206.24</ele>
        <time>2026-06-16T23:24:50</time>
      </trkpt>
      <trkpt lat="29.631317138672" lon="120.90591430664">
        <ele>4206.24</ele>
        <time>2026-06-16T23:25:05</time>
      </trkpt>
      <trkpt lat="29.622756958008" lon="120.88230133057">
        <ele>4206.24</ele>
        <time>2026-06-16T23:25:20</time>
      </trkpt>
      <trkpt lat="29.613370895386" lon="120.85636901855">
        <ele>4206.24</ele>
        <time>2026-06-16T23:25:35</time>
      </trkpt>
      <trkpt lat="29.604709625244" lon="120.83151245117">
        <ele>4206.24</ele>
        <time>2026-06-16T23:25:50</time>
      </trkpt>
      <trkpt lat="29.599910736084" lon="120.80359649658">
        <ele>4206.24</ele>
        <time>2026-06-16T23:26:10</time>
      </trkpt>
      <trkpt lat="29.599822998047" lon="120.77798461914">
        <ele>4206.24</ele>
        <time>2026-06-16T23:26:25</time>
      </trkpt>
      <trkpt lat="29.600427627563" lon="120.7515411377">
        <ele>4274.82</ele>
        <time>2026-06-16T23:26:40</time>
      </trkpt>
      <trkpt lat="29.601217269897" lon="120.72326660156">
        <ele>4480.56</ele>
        <time>2026-06-16T23:26:55</time>
      </trkpt>
      <trkpt lat="29.601974487305" lon="120.69728088379">
        <ele>4686.3</ele>
        <time>2026-06-16T23:27:10</time>
      </trkpt>
      <trkpt lat="29.602708816528" lon="120.67027282715">
        <ele>4861.56</ele>
        <time>2026-06-16T23:27:25</time>
      </trkpt>
      <trkpt lat="29.603530883789" lon="120.64318847656">
        <ele>5006.34</ele>
        <time>2026-06-16T23:27:40</time>
      </trkpt>
      <trkpt lat="29.604290008545" lon="120.61447906494">
        <ele>5158.74</ele>
        <time>2026-06-16T23:27:55</time>
      </trkpt>
      <trkpt lat="29.605041503906" lon="120.58673095703">
        <ele>5341.62</ele>
        <time>2026-06-16T23:28:10</time>
      </trkpt>
      <trkpt lat="29.605819702148" lon="120.5583114624">
        <ele>5524.5</ele>
        <time>2026-06-16T23:28:25</time>
      </trkpt>
      <trkpt lat="29.606664657593" lon="120.52831268311">
        <ele>5684.52</ele>
        <time>2026-06-16T23:28:40</time>
      </trkpt>
      <trkpt lat="29.607503890991" lon="120.49826049805">
        <ele>5867.4</ele>
        <time>2026-06-16T23:28:55</time>
      </trkpt>
      <trkpt lat="29.608291625977" lon="120.46904754639">
        <ele>5981.7</ele>
        <time>2026-06-16T23:29:10</time>
      </trkpt>
      <trkpt lat="29.609115600586" lon="120.43952178955">
        <ele>6004.56</ele>
        <time>2026-06-16T23:29:25</time>
      </trkpt>
      <trkpt lat="29.609848022461" lon="120.41194915771">
        <ele>6004.56</ele>
        <time>2026-06-16T23:29:40</time>
      </trkpt>
      <trkpt lat="29.610626220703" lon="120.38385009766">
        <ele>6004.56</ele>
        <time>2026-06-16T23:29:55</time>
      </trkpt>
      <trkpt lat="29.611358642578" lon="120.35527801514">
        <ele>6004.56</ele>
        <time>2026-06-16T23:30:10</time>
      </trkpt>
      <trkpt lat="29.612060546875" lon="120.32834625244">
        <ele>6004.56</ele>
        <time>2026-06-16T23:30:25</time>
      </trkpt>
      <trkpt lat="29.612810134888" lon="120.29959106445">
        <ele>6004.56</ele>
        <time>2026-06-16T23:30:40</time>
      </trkpt>
      <trkpt lat="29.613554000854" lon="120.27196502686">
        <ele>6004.56</ele>
        <time>2026-06-16T23:30:55</time>
      </trkpt>
      <trkpt lat="29.614242553711" lon="120.24414825439">
        <ele>6004.56</ele>
        <time>2026-06-16T23:31:10</time>
      </trkpt>
      <trkpt lat="29.614974975586" lon="120.2161026001">
        <ele>6012.18</ele>
        <time>2026-06-16T23:31:25</time>
      </trkpt>
      <trkpt lat="29.615707397461" lon="120.18741607666">
        <ele>6149.34</ele>
        <time>2026-06-16T23:31:39</time>
      </trkpt>
      <trkpt lat="29.616441726685" lon="120.15956878662">
        <ele>6332.22</ele>
        <time>2026-06-16T23:31:54</time>
      </trkpt>
      <trkpt lat="29.617139816284" lon="120.1311340332">
        <ele>6499.86</ele>
        <time>2026-06-16T23:32:09</time>
      </trkpt>
      <trkpt lat="29.617858886719" lon="120.10243225098">
        <ele>6675.12</ele>
        <time>2026-06-16T23:32:24</time>
      </trkpt>
      <trkpt lat="29.618591308594" lon="120.07348632812">
        <ele>6842.76</ele>
        <time>2026-06-16T23:32:39</time>
      </trkpt>
      <trkpt lat="29.619277954102" lon="120.04496765137">
        <ele>6957.06</ele>
        <time>2026-06-16T23:32:54</time>
      </trkpt>
      <trkpt lat="29.620010375977" lon="120.01522827148">
        <ele>7071.36</ele>
        <time>2026-06-16T23:33:09</time>
      </trkpt>
      <trkpt lat="29.620723724365" lon="119.98594665527">
        <ele>7170.42</ele>
        <time>2026-06-16T23:33:24</time>
      </trkpt>
      <trkpt lat="29.621429443359" lon="119.95523071289">
        <ele>7193.28</ele>
        <time>2026-06-16T23:33:39</time>
      </trkpt>
      <trkpt lat="29.62216758728" lon="119.92476654053">
        <ele>7193.28</ele>
        <time>2026-06-16T23:33:54</time>
      </trkpt>
      <trkpt lat="29.62286567688" lon="119.89417266846">
        <ele>7193.28</ele>
        <time>2026-06-16T23:34:09</time>
      </trkpt>
      <trkpt lat="29.623563766479" lon="119.8636932373">
        <ele>7193.28</ele>
        <time>2026-06-16T23:34:24</time>
      </trkpt>
      <trkpt lat="29.624269485474" lon="119.83348083496">
        <ele>7193.28</ele>
        <time>2026-06-16T23:34:39</time>
      </trkpt>
      <trkpt lat="29.624954223633" lon="119.80310821533">
        <ele>7193.28</ele>
        <time>2026-06-16T23:34:54</time>
      </trkpt>
      <trkpt lat="29.625658035278" lon="119.77208709717">
        <ele>7193.28</ele>
        <time>2026-06-16T23:35:09</time>
      </trkpt>
      <trkpt lat="29.626310348511" lon="119.7417678833">
        <ele>7193.28</ele>
        <time>2026-06-16T23:35:24</time>
      </trkpt>
      <trkpt lat="29.626968383789" lon="119.71199798584">
        <ele>7193.28</ele>
        <time>2026-06-16T23:35:39</time>
      </trkpt>
      <trkpt lat="29.627660751343" lon="119.68163299561">
        <ele>7193.28</ele>
        <time>2026-06-16T23:35:54</time>
      </trkpt>
      <trkpt lat="29.628309249878" lon="119.65065002441">
        <ele>7193.28</ele>
        <time>2026-06-16T23:36:09</time>
      </trkpt>
      <trkpt lat="29.628980636597" lon="119.62050628662">
        <ele>7193.28</ele>
        <time>2026-06-16T23:36:24</time>
      </trkpt>
      <trkpt lat="29.629619598389" lon="119.59024810791">
        <ele>7193.28</ele>
        <time>2026-06-16T23:36:39</time>
      </trkpt>
      <trkpt lat="29.630220413208" lon="119.56021881104">
        <ele>7193.28</ele>
        <time>2026-06-16T23:36:54</time>
      </trkpt>
      <trkpt lat="29.63087272644" lon="119.53001403809">
        <ele>7193.28</ele>
        <time>2026-06-16T23:37:09</time>
      </trkpt>
      <trkpt lat="29.631477355957" lon="119.49936676025">
        <ele>7193.28</ele>
        <time>2026-06-16T23:37:24</time>
      </trkpt>
      <trkpt lat="29.632730484009" lon="119.46952819824">
        <ele>7193.28</ele>
        <time>2026-06-16T23:37:39</time>
      </trkpt>
      <trkpt lat="29.634704589844" lon="119.43907928467">
        <ele>7193.28</ele>
        <time>2026-06-16T23:37:54</time>
      </trkpt>
      <trkpt lat="29.636627197266" lon="119.40797424316">
        <ele>7193.28</ele>
        <time>2026-06-16T23:38:09</time>
      </trkpt>
      <trkpt lat="29.638366699219" lon="119.3776550293">
        <ele>7193.28</ele>
        <time>2026-06-16T23:38:24</time>
      </trkpt>
      <trkpt lat="29.640043258667" lon="119.34706878662">
        <ele>7193.28</ele>
        <time>2026-06-16T23:38:39</time>
      </trkpt>
      <trkpt lat="29.6390209198" lon="119.31831359863">
        <ele>7193.28</ele>
        <time>2026-06-16T23:38:54</time>
      </trkpt>
      <trkpt lat="29.631755828857" lon="119.28820037842">
        <ele>7193.28</ele>
        <time>2026-06-16T23:39:09</time>
      </trkpt>
      <trkpt lat="29.622072219849" lon="119.25933837891">
        <ele>7193.28</ele>
        <time>2026-06-16T23:39:24</time>
      </trkpt>
      <trkpt lat="29.612760543823" lon="119.23220062256">
        <ele>7193.28</ele>
        <time>2026-06-16T23:39:39</time>
      </trkpt>
      <trkpt lat="29.602800369263" lon="119.20359802246">
        <ele>7193.28</ele>
        <time>2026-06-16T23:39:54</time>
      </trkpt>
      <trkpt lat="29.593090057373" lon="119.17566680908">
        <ele>7193.28</ele>
        <time>2026-06-16T23:40:09</time>
      </trkpt>
      <trkpt lat="29.582830429077" lon="119.14624023438">
        <ele>7193.28</ele>
        <time>2026-06-16T23:40:24</time>
      </trkpt>
      <trkpt lat="29.572629928589" lon="119.11699676514">
        <ele>7193.28</ele>
        <time>2026-06-16T23:40:39</time>
      </trkpt>
      <trkpt lat="29.562490463257" lon="119.08786773682">
        <ele>7193.28</ele>
        <time>2026-06-16T23:40:54</time>
      </trkpt>
      <trkpt lat="29.552570343018" lon="119.05959320068">
        <ele>7193.28</ele>
        <time>2026-06-16T23:41:09</time>
      </trkpt>
      <trkpt lat="29.542369842529" lon="119.030418396">
        <ele>7193.28</ele>
        <time>2026-06-16T23:41:24</time>
      </trkpt>
      <trkpt lat="29.533069610596" lon="119.00395965576">
        <ele>7193.28</ele>
        <time>2026-06-16T23:41:39</time>
      </trkpt>
      <trkpt lat="29.522779464722" lon="118.97458648682">
        <ele>7193.28</ele>
        <time>2026-06-16T23:41:59</time>
      </trkpt>
      <trkpt lat="29.512859344482" lon="118.94634246826">
        <ele>7193.28</ele>
        <time>2026-06-16T23:42:14</time>
      </trkpt>
      <trkpt lat="29.50359916687" lon="118.91638946533">
        <ele>7193.28</ele>
        <time>2026-06-16T23:42:29</time>
      </trkpt>
      <trkpt lat="29.49806022644" lon="118.88522338867">
        <ele>7193.28</ele>
        <time>2026-06-16T23:42:44</time>
      </trkpt>
      <trkpt lat="29.494449615479" lon="118.85549163818">
        <ele>7193.28</ele>
        <time>2026-06-16T23:42:59</time>
      </trkpt>
      <trkpt lat="29.490970611572" lon="118.82495880127">
        <ele>7193.28</ele>
        <time>2026-06-16T23:43:14</time>
      </trkpt>
      <trkpt lat="29.487396240234" lon="118.79368591309">
        <ele>7193.28</ele>
        <time>2026-06-16T23:43:29</time>
      </trkpt>
      <trkpt lat="29.483825683594" lon="118.7624206543">
        <ele>7193.28</ele>
        <time>2026-06-16T23:43:49</time>
      </trkpt>
      <trkpt lat="29.480459213257" lon="118.73291015625">
        <ele>7193.28</ele>
        <time>2026-06-16T23:44:04</time>
      </trkpt>
      <trkpt lat="29.477100372314" lon="118.70342254639">
        <ele>7193.28</ele>
        <time>2026-06-16T23:44:19</time>
      </trkpt>
      <trkpt lat="29.473760604858" lon="118.67404937744">
        <ele>7193.28</ele>
        <time>2026-06-16T23:44:34</time>
      </trkpt>
      <trkpt lat="29.470499038696" lon="118.64572143555">
        <ele>7193.28</ele>
        <time>2026-06-16T23:44:49</time>
      </trkpt>
      <trkpt lat="29.467147827148" lon="118.61658477783">
        <ele>7193.28</ele>
        <time>2026-06-16T23:45:04</time>
      </trkpt>
      <trkpt lat="29.463729858398" lon="118.58642578125">
        <ele>7193.28</ele>
        <time>2026-06-16T23:45:19</time>
      </trkpt>
      <trkpt lat="29.460439682007" lon="118.55787658691">
        <ele>7193.28</ele>
        <time>2026-06-16T23:45:34</time>
      </trkpt>
      <trkpt lat="29.457000732422" lon="118.52822113037">
        <ele>7193.28</ele>
        <time>2026-06-16T23:45:49</time>
      </trkpt>
      <trkpt lat="29.451370239258" lon="118.49870300293">
        <ele>7193.28</ele>
        <time>2026-06-16T23:46:04</time>
      </trkpt>
      <trkpt lat="29.442760467529" lon="118.47132873535">
        <ele>7193.28</ele>
        <time>2026-06-16T23:46:19</time>
      </trkpt>
      <trkpt lat="29.430740356445" lon="118.43659973145">
        <ele>7193.28</ele>
        <time>2026-06-16T23:46:39</time>
      </trkpt>
      <trkpt lat="29.420036315918" lon="118.40606689453">
        <ele>7170.42</ele>
        <time>2026-06-16T23:46:54</time>
      </trkpt>
      <trkpt lat="29.409469604492" lon="118.37634277344">
        <ele>7078.98</ele>
        <time>2026-06-16T23:47:09</time>
      </trkpt>
      <trkpt lat="29.399179458618" lon="118.34731292725">
        <ele>7002.78</ele>
        <time>2026-06-16T23:47:24</time>
      </trkpt>
      <trkpt lat="29.389209747314" lon="118.3190612793">
        <ele>6918.96</ele>
        <time>2026-06-16T23:47:39</time>
      </trkpt>
      <trkpt lat="29.379909515381" lon="118.29296875">
        <ele>6850.38</ele>
        <time>2026-06-16T23:47:54</time>
      </trkpt>
      <trkpt lat="29.369850158691" lon="118.26480865479">
        <ele>6774.18</ele>
        <time>2026-06-16T23:48:09</time>
      </trkpt>
      <trkpt lat="29.360000610352" lon="118.23708343506">
        <ele>6690.36</ele>
        <time>2026-06-16T23:48:29</time>
      </trkpt>
      <trkpt lat="29.350070953369" lon="118.20909118652">
        <ele>6606.54</ele>
        <time>2026-06-16T23:48:44</time>
      </trkpt>
      <trkpt lat="29.340389251709" lon="118.18197631836">
        <ele>6530.34</ele>
        <time>2026-06-16T23:48:59</time>
      </trkpt>
      <trkpt lat="29.33046913147" lon="118.15419006348">
        <ele>6454.14</ele>
        <time>2026-06-16T23:49:14</time>
      </trkpt>
      <trkpt lat="29.320039749146" lon="118.125">
        <ele>6370.32</ele>
        <time>2026-06-16T23:49:29</time>
      </trkpt>
      <trkpt lat="29.308040618896" lon="118.09150695801">
        <ele>6271.26</ele>
        <time>2026-06-16T23:49:49</time>
      </trkpt>
      <trkpt lat="29.297470092773" lon="118.06198883057">
        <ele>6187.44</ele>
        <time>2026-06-16T23:50:04</time>
      </trkpt>
      <trkpt lat="29.288959503174" lon="118.03816986084">
        <ele>6118.86</ele>
        <time>2026-06-16T23:50:19</time>
      </trkpt>
      <trkpt lat="29.279260635376" lon="118.01114654541">
        <ele>6042.66</ele>
        <time>2026-06-16T23:50:34</time>
      </trkpt>
      <trkpt lat="29.2698097229" lon="117.98481750488">
        <ele>5966.46</ele>
        <time>2026-06-16T23:50:49</time>
      </trkpt>
      <trkpt lat="29.259899139404" lon="117.95729827881">
        <ele>5882.64</ele>
        <time>2026-06-16T23:51:04</time>
      </trkpt>
      <trkpt lat="29.249040603638" lon="117.9270324707">
        <ele>5791.2</ele>
        <time>2026-06-16T23:51:24</time>
      </trkpt>
      <trkpt lat="29.239610671997" lon="117.90088653564">
        <ele>5715.0</ele>
        <time>2026-06-16T23:51:39</time>
      </trkpt>
      <trkpt lat="29.230361938477" lon="117.87522125244">
        <ele>5638.8</ele>
        <time>2026-06-16T23:51:54</time>
      </trkpt>
      <trkpt lat="29.221160888672" lon="117.84960174561">
        <ele>5562.6</ele>
        <time>2026-06-16T23:52:09</time>
      </trkpt>
      <trkpt lat="29.212369918823" lon="117.82524871826">
        <ele>5486.4</ele>
        <time>2026-06-16T23:52:24</time>
      </trkpt>
      <trkpt lat="29.202575683594" lon="117.79821014404">
        <ele>5402.58</ele>
        <time>2026-06-16T23:52:39</time>
      </trkpt>
      <trkpt lat="29.193878173828" lon="117.77401733398">
        <ele>5334.0</ele>
        <time>2026-06-16T23:52:54</time>
      </trkpt>
      <trkpt lat="29.184482574463" lon="117.74801635742">
        <ele>5257.8</ele>
        <time>2026-06-16T23:53:09</time>
      </trkpt>
      <trkpt lat="29.175476074219" lon="117.72315216064">
        <ele>5173.98</ele>
        <time>2026-06-16T23:53:24</time>
      </trkpt>
      <trkpt lat="29.166513442993" lon="117.69831085205">
        <ele>5097.78</ele>
        <time>2026-06-16T23:53:39</time>
      </trkpt>
      <trkpt lat="29.157480239868" lon="117.67337799072">
        <ele>5029.2</ele>
        <time>2026-06-16T23:53:54</time>
      </trkpt>
      <trkpt lat="29.148376464844" lon="117.64830780029">
        <ele>4953.0</ele>
        <time>2026-06-16T23:54:09</time>
      </trkpt>
      <trkpt lat="29.139093399048" lon="117.62269592285">
        <ele>4869.18</ele>
        <time>2026-06-16T23:54:24</time>
      </trkpt>
      <trkpt lat="29.130342483521" lon="117.59862518311">
        <ele>4800.6</ele>
        <time>2026-06-16T23:54:39</time>
      </trkpt>
      <trkpt lat="29.12109375" lon="117.57315063477">
        <ele>4716.78</ele>
        <time>2026-06-16T23:54:54</time>
      </trkpt>
      <trkpt lat="29.11408996582" lon="117.55381774902">
        <ele>4663.44</ele>
        <time>2026-06-16T23:55:09</time>
      </trkpt>
      <trkpt lat="29.105667114258" lon="117.53063201904">
        <ele>4587.24</ele>
        <time>2026-06-16T23:55:24</time>
      </trkpt>
      <trkpt lat="29.096824645996" lon="117.50637054443">
        <ele>4511.04</ele>
        <time>2026-06-16T23:55:39</time>
      </trkpt>
      <trkpt lat="29.085977554321" lon="117.48197937012">
        <ele>4427.22</ele>
        <time>2026-06-16T23:55:54</time>
      </trkpt>
      <trkpt lat="29.067720413208" lon="117.46350097656">
        <ele>4343.4</ele>
        <time>2026-06-16T23:56:09</time>
      </trkpt>
      <trkpt lat="29.045520782471" lon="117.45514678955">
        <ele>4267.2</ele>
        <time>2026-06-16T23:56:24</time>
      </trkpt>
      <trkpt lat="29.02271270752" lon="117.45677185059">
        <ele>4213.86</ele>
        <time>2026-06-16T23:56:38</time>
      </trkpt>
      <trkpt lat="28.998550415039" lon="117.47045135498">
        <ele>4206.24</ele>
        <time>2026-06-16T23:56:53</time>
      </trkpt>
      <trkpt lat="28.979509353638" lon="117.4866104126">
        <ele>4206.24</ele>
        <time>2026-06-16T23:57:08</time>
      </trkpt>
      <trkpt lat="28.95922088623" lon="117.50427246094">
        <ele>4206.24</ele>
        <time>2026-06-16T23:57:23</time>
      </trkpt>
      <trkpt lat="28.942640304565" lon="117.51880645752">
        <ele>4183.38</ele>
        <time>2026-06-16T23:57:38</time>
      </trkpt>
      <trkpt lat="28.923137664795" lon="117.53588867188">
        <ele>4069.08</ele>
        <time>2026-06-16T23:57:54</time>
      </trkpt>
      <trkpt lat="28.901819229126" lon="117.55429077148">
        <ele>3931.92</ele>
        <time>2026-06-16T23:58:08</time>
      </trkpt>
      <trkpt lat="28.883470535278" lon="117.57019042969">
        <ele>3909.06</ele>
        <time>2026-06-16T23:58:23</time>
      </trkpt>
      <trkpt lat="28.836639404297" lon="117.61064147949">
        <ele>3848.1</ele>
        <time>2026-06-16T23:59:01</time>
      </trkpt>
      <trkpt lat="28.812379837036" lon="117.63156890869">
        <ele>3749.04</ele>
        <time>2026-06-16T23:59:21</time>
      </trkpt>
      <trkpt lat="28.792650222778" lon="117.64856719971">
        <ele>3665.22</ele>
        <time>2026-06-16T23:59:35</time>
      </trkpt>
      <trkpt lat="28.688749313354" lon="117.73761749268">
        <ele>3307.08</ele>
        <time>2026-06-17T00:01:03</time>
      </trkpt>
      <trkpt lat="28.653810501099" lon="117.76751708984">
        <ele>3131.82</ele>
        <time>2026-06-17T00:01:36</time>
      </trkpt>
      <trkpt lat="28.643409729004" lon="117.776512146">
        <ele>3086.1</ele>
        <time>2026-06-17T00:01:47</time>
      </trkpt>
      <trkpt lat="28.61547088623" lon="117.80030822754">
        <ele>2941.32</ele>
        <time>2026-06-17T00:02:15</time>
      </trkpt>
      <trkpt lat="28.600519180298" lon="117.81304931641">
        <ele>2865.12</ele>
        <time>2026-06-17T00:02:30</time>
      </trkpt>
      <trkpt lat="28.584659576416" lon="117.82653808594">
        <ele>2766.06</ele>
        <time>2026-06-17T00:02:45</time>
      </trkpt>
      <trkpt lat="28.572460174561" lon="117.83692932129">
        <ele>2758.44</ele>
        <time>2026-06-17T00:03:00</time>
      </trkpt>
      <trkpt lat="28.557329177856" lon="117.84986114502">
        <ele>2743.2</ele>
        <time>2026-06-17T00:03:19</time>
      </trkpt>
    </trkseg>
  </trk>
</gpx>