<?xml version="1.0" encoding="UTF-8"?>
<gpx xmlns="http://www.topografix.com/GPX/1/1" xmlns:xsi="http://www.w3.org/2001/XMLSchema-instance" xsi:schemaLocation="http://www.topografix.com/GPX/1/1 http://www.topografix.com/GPX/1/1/gpx.xsd" version="1.1" creator="gpx.py -- https://github.com/tkrajina/gpxpy">
  <trk>
    <name>Variflight_G52882_20260617.csv</name>
    <trkseg>
      <trkpt lat="21.47971534729" lon="110.59143066406">
        <ele>0.0</ele>
        <time>2026-06-17T13:14:23</time>
      </trkpt>
      <trkpt lat="21.479713439941" lon="110.59142303467">
        <ele>0.0</ele>
        <time>2026-06-17T13:14:29</time>
      </trkpt>
      <trkpt lat="21.47971534729" lon="110.59143066406">
        <ele>0.0</ele>
        <time>2026-06-17T13:14:39</time>
      </trkpt>
      <trkpt lat="21.479713439941" lon="110.59142303467">
        <ele>0.0</ele>
        <time>2026-06-17T13:14:44</time>
      </trkpt>
      <trkpt lat="21.479713439941" lon="110.59142303467">
        <ele>0.0</ele>
        <time>2026-06-17T13:14:49</time>
      </trkpt>
      <trkpt lat="21.479713439941" lon="110.59142303467">
        <ele>0.0</ele>
        <time>2026-06-17T13:14:54</time>
      </trkpt>
      <trkpt lat="21.479724884033" lon="110.59142303467">
        <ele>0.0</ele>
        <time>2026-06-17T13:14:59</time>
      </trkpt>
      <trkpt lat="21.479724884033" lon="110.59142303467">
        <ele>0.0</ele>
        <time>2026-06-17T13:15:04</time>
      </trkpt>
      <trkpt lat="21.47971534729" lon="110.59143066406">
        <ele>0.0</ele>
        <time>2026-06-17T13:15:09</time>
      </trkpt>
      <trkpt lat="21.479713439941" lon="110.59142303467">
        <ele>0.0</ele>
        <time>2026-06-17T13:15:14</time>
      </trkpt>
      <trkpt lat="21.479713439941" lon="110.59142303467">
        <ele>0.0</ele>
        <time>2026-06-17T13:15:19</time>
      </trkpt>
      <trkpt lat="21.47971534729" lon="110.59143066406">
        <ele>0.0</ele>
        <time>2026-06-17T13:15:24</time>
      </trkpt>
      <trkpt lat="21.479713439941" lon="110.59142303467">
        <ele>0.0</ele>
        <time>2026-06-17T13:15:29</time>
      </trkpt>
      <trkpt lat="21.47971534729" lon="110.59143066406">
        <ele>0.0</ele>
        <time>2026-06-17T13:15:35</time>
      </trkpt>
      <trkpt lat="21.479713439941" lon="110.59142303467">
        <ele>0.0</ele>
        <time>2026-06-17T13:15:40</time>
      </trkpt>
      <trkpt lat="21.47971534729" lon="110.59143066406">
        <ele>0.0</ele>
        <time>2026-06-17T13:15:45</time>
      </trkpt>
      <trkpt lat="21.479713439941" lon="110.59142303467">
        <ele>0.0</ele>
        <time>2026-06-17T13:15:49</time>
      </trkpt>
      <trkpt lat="21.47971534729" lon="110.59143066406">
        <ele>0.0</ele>
        <time>2026-06-17T13:15:54</time>
      </trkpt>
      <trkpt lat="21.479713439941" lon="110.59142303467">
        <ele>0.0</ele>
        <time>2026-06-17T13:15:59</time>
      </trkpt>
      <trkpt lat="21.47971534729" lon="110.59143066406">
        <ele>0.0</ele>
        <time>2026-06-17T13:16:04</time>
      </trkpt>
      <trkpt lat="21.479713439941" lon="110.59142303467">
        <ele>0.0</ele>
        <time>2026-06-17T13:16:09</time>
      </trkpt>
      <trkpt lat="21.47971534729" lon="110.59143066406">
        <ele>0.0</ele>
        <time>2026-06-17T13:16:14</time>
      </trkpt>
      <trkpt lat="21.47971534729" lon="110.59143066406">
        <ele>0.0</ele>
        <time>2026-06-17T13:16:19</time>
      </trkpt>
      <trkpt lat="21.479713439941" lon="110.59142303467">
        <ele>0.0</ele>
        <time>2026-06-17T13:16:24</time>
      </trkpt>
      <trkpt lat="21.479713439941" lon="110.59142303467">
        <ele>0.0</ele>
        <time>2026-06-17T13:16:29</time>
      </trkpt>
      <trkpt lat="21.479713439941" lon="110.59142303467">
        <ele>0.0</ele>
        <time>2026-06-17T13:16:34</time>
      </trkpt>
      <trkpt lat="21.479713439941" lon="110.59142303467">
        <ele>0.0</ele>
        <time>2026-06-17T13:16:39</time>
      </trkpt>
      <trkpt lat="21.479713439941" lon="110.59142303467">
        <ele>0.0</ele>
        <time>2026-06-17T13:16:45</time>
      </trkpt>
      <trkpt lat="21.47971534729" lon="110.59143066406">
        <ele>0.0</ele>
        <time>2026-06-17T13:16:49</time>
      </trkpt>
      <trkpt lat="21.47971534729" lon="110.59143066406">
        <ele>0.0</ele>
        <time>2026-06-17T13:16:54</time>
      </trkpt>
      <trkpt lat="21.479724884033" lon="110.59142303467">
        <ele>0.0</ele>
        <time>2026-06-17T13:16:59</time>
      </trkpt>
      <trkpt lat="21.47971534729" lon="110.59143066406">
        <ele>0.0</ele>
        <time>2026-06-17T13:17:04</time>
      </trkpt>
      <trkpt lat="21.47971534729" lon="110.59143066406">
        <ele>0.0</ele>
        <time>2026-06-17T13:17:09</time>
      </trkpt>
      <trkpt lat="21.47971534729" lon="110.59143066406">
        <ele>0.0</ele>
        <time>2026-06-17T13:17:14</time>
      </trkpt>
      <trkpt lat="21.47971534729" lon="110.59143066406">
        <ele>0.0</ele>
        <time>2026-06-17T13:17:19</time>
      </trkpt>
      <trkpt lat="21.479633331299" lon="110.59147644043">
        <ele>0.0</ele>
        <time>2026-06-17T13:17:29</time>
      </trkpt>
      <trkpt lat="21.479562759399" lon="110.59152984619">
        <ele>0.0</ele>
        <time>2026-06-17T13:17:34</time>
      </trkpt>
      <trkpt lat="21.479469299316" lon="110.59163665771">
        <ele>0.0</ele>
        <time>2026-06-17T13:17:39</time>
      </trkpt>
      <trkpt lat="21.479427337646" lon="110.59177398682">
        <ele>0.0</ele>
        <time>2026-06-17T13:17:44</time>
      </trkpt>
      <trkpt lat="21.479446411133" lon="110.59196472168">
        <ele>0.0</ele>
        <time>2026-06-17T13:17:49</time>
      </trkpt>
      <trkpt lat="21.479528427124" lon="110.59217071533">
        <ele>0.0</ele>
        <time>2026-06-17T13:17:54</time>
      </trkpt>
      <trkpt lat="21.479656219482" lon="110.59242248535">
        <ele>0.0</ele>
        <time>2026-06-17T13:17:59</time>
      </trkpt>
      <trkpt lat="21.479747772217" lon="110.59261322021">
        <ele>0.0</ele>
        <time>2026-06-17T13:18:04</time>
      </trkpt>
      <trkpt lat="21.479877471924" lon="110.59281921387">
        <ele>0.0</ele>
        <time>2026-06-17T13:18:09</time>
      </trkpt>
      <trkpt lat="21.480068206787" lon="110.59299468994">
        <ele>0.0</ele>
        <time>2026-06-17T13:18:14</time>
      </trkpt>
      <trkpt lat="21.480297088623" lon="110.59301757812">
        <ele>0.0</ele>
        <time>2026-06-17T13:18:19</time>
      </trkpt>
      <trkpt lat="21.480525970459" lon="110.59293365479">
        <ele>0.0</ele>
        <time>2026-06-17T13:18:24</time>
      </trkpt>
      <trkpt lat="21.480766296387" lon="110.59281158447">
        <ele>0.0</ele>
        <time>2026-06-17T13:18:29</time>
      </trkpt>
      <trkpt lat="21.480983734131" lon="110.59268951416">
        <ele>0.0</ele>
        <time>2026-06-17T13:18:34</time>
      </trkpt>
      <trkpt lat="21.481216430664" lon="110.59259033203">
        <ele>0.0</ele>
        <time>2026-06-17T13:18:39</time>
      </trkpt>
      <trkpt lat="21.481452941895" lon="110.59261322021">
        <ele>0.0</ele>
        <time>2026-06-17T13:18:44</time>
      </trkpt>
      <trkpt lat="21.481624603271" lon="110.59273529053">
        <ele>0.0</ele>
        <time>2026-06-17T13:18:49</time>
      </trkpt>
      <trkpt lat="21.481821060181" lon="110.59284210205">
        <ele>0.0</ele>
        <time>2026-06-17T13:18:54</time>
      </trkpt>
      <trkpt lat="21.482151031494" lon="110.59281158447">
        <ele>0.0</ele>
        <time>2026-06-17T13:19:04</time>
      </trkpt>
      <trkpt lat="21.482391357422" lon="110.59265899658">
        <ele>0.0</ele>
        <time>2026-06-17T13:19:09</time>
      </trkpt>
      <trkpt lat="21.48263168335" lon="110.59252166748">
        <ele>0.0</ele>
        <time>2026-06-17T13:19:14</time>
      </trkpt>
      <trkpt lat="21.482849121094" lon="110.59238433838">
        <ele>0.0</ele>
        <time>2026-06-17T13:19:18</time>
      </trkpt>
      <trkpt lat="21.483112335205" lon="110.5922164917">
        <ele>0.0</ele>
        <time>2026-06-17T13:19:23</time>
      </trkpt>
      <trkpt lat="21.483392715454" lon="110.59204101562">
        <ele>0.0</ele>
        <time>2026-06-17T13:19:28</time>
      </trkpt>
      <trkpt lat="21.483694076538" lon="110.59186553955">
        <ele>0.0</ele>
        <time>2026-06-17T13:19:33</time>
      </trkpt>
      <trkpt lat="21.484004974365" lon="110.5916595459">
        <ele>0.0</ele>
        <time>2026-06-17T13:19:38</time>
      </trkpt>
      <trkpt lat="21.484394073486" lon="110.59142303467">
        <ele>0.0</ele>
        <time>2026-06-17T13:19:43</time>
      </trkpt>
      <trkpt lat="21.484731674194" lon="110.59121704102">
        <ele>0.0</ele>
        <time>2026-06-17T13:19:47</time>
      </trkpt>
      <trkpt lat="21.485092163086" lon="110.59098815918">
        <ele>0.0</ele>
        <time>2026-06-17T13:19:52</time>
      </trkpt>
      <trkpt lat="21.485441207886" lon="110.59076690674">
        <ele>0.0</ele>
        <time>2026-06-17T13:19:57</time>
      </trkpt>
      <trkpt lat="21.485883712769" lon="110.59049987793">
        <ele>0.0</ele>
        <time>2026-06-17T13:20:06</time>
      </trkpt>
      <trkpt lat="21.486534118652" lon="110.59010314941">
        <ele>0.0</ele>
        <time>2026-06-17T13:20:12</time>
      </trkpt>
      <trkpt lat="21.486980438232" lon="110.58981323242">
        <ele>0.0</ele>
        <time>2026-06-17T13:20:17</time>
      </trkpt>
      <trkpt lat="21.487552642822" lon="110.58946228027">
        <ele>0.0</ele>
        <time>2026-06-17T13:20:26</time>
      </trkpt>
      <trkpt lat="21.487966537476" lon="110.58920288086">
        <ele>0.0</ele>
        <time>2026-06-17T13:20:30</time>
      </trkpt>
      <trkpt lat="21.488548278809" lon="110.58885192871">
        <ele>0.0</ele>
        <time>2026-06-17T13:20:35</time>
      </trkpt>
      <trkpt lat="21.48904800415" lon="110.58854675293">
        <ele>0.0</ele>
        <time>2026-06-17T13:20:39</time>
      </trkpt>
      <trkpt lat="21.489501953125" lon="110.58824920654">
        <ele>0.0</ele>
        <time>2026-06-17T13:20:44</time>
      </trkpt>
      <trkpt lat="21.489944458008" lon="110.58797454834">
        <ele>0.0</ele>
        <time>2026-06-17T13:20:49</time>
      </trkpt>
      <trkpt lat="21.490503311157" lon="110.58763885498">
        <ele>0.0</ele>
        <time>2026-06-17T13:20:54</time>
      </trkpt>
      <trkpt lat="21.490934371948" lon="110.58736419678">
        <ele>0.0</ele>
        <time>2026-06-17T13:20:59</time>
      </trkpt>
      <trkpt lat="21.491411209106" lon="110.58706665039">
        <ele>0.0</ele>
        <time>2026-06-17T13:21:04</time>
      </trkpt>
      <trkpt lat="21.491830825806" lon="110.58681488037">
        <ele>0.0</ele>
        <time>2026-06-17T13:21:09</time>
      </trkpt>
      <trkpt lat="21.492221832275" lon="110.58657073975">
        <ele>0.0</ele>
        <time>2026-06-17T13:21:14</time>
      </trkpt>
      <trkpt lat="21.492553710938" lon="110.5863571167">
        <ele>0.0</ele>
        <time>2026-06-17T13:21:19</time>
      </trkpt>
      <trkpt lat="21.492923736572" lon="110.58612823486">
        <ele>0.0</ele>
        <time>2026-06-17T13:21:24</time>
      </trkpt>
      <trkpt lat="21.493251800537" lon="110.58592224121">
        <ele>0.0</ele>
        <time>2026-06-17T13:21:29</time>
      </trkpt>
      <trkpt lat="21.493640899658" lon="110.58567047119">
        <ele>0.0</ele>
        <time>2026-06-17T13:21:34</time>
      </trkpt>
      <trkpt lat="21.494018554688" lon="110.58544158936">
        <ele>0.0</ele>
        <time>2026-06-17T13:21:39</time>
      </trkpt>
      <trkpt lat="21.494344711304" lon="110.5852355957">
        <ele>0.0</ele>
        <time>2026-06-17T13:21:44</time>
      </trkpt>
      <trkpt lat="21.494646072388" lon="110.58506011963">
        <ele>0.0</ele>
        <time>2026-06-17T13:21:49</time>
      </trkpt>
      <trkpt lat="21.494855880737" lon="110.58493041992">
        <ele>0.0</ele>
        <time>2026-06-17T13:21:54</time>
      </trkpt>
      <trkpt lat="21.495140075684" lon="110.5848236084">
        <ele>0.0</ele>
        <time>2026-06-17T13:22:02</time>
      </trkpt>
      <trkpt lat="21.49568939209" lon="110.58531951904">
        <ele>0.0</ele>
        <time>2026-06-17T13:22:17</time>
      </trkpt>
      <trkpt lat="21.495906829834" lon="110.58594512939">
        <ele>0.0</ele>
        <time>2026-06-17T13:22:32</time>
      </trkpt>
      <trkpt lat="21.495624542236" lon="110.58638000488">
        <ele>0.0</ele>
        <time>2026-06-17T13:22:47</time>
      </trkpt>
      <trkpt lat="21.49556350708" lon="110.58641815186">
        <ele>0.0</ele>
        <time>2026-06-17T13:23:02</time>
      </trkpt>
      <trkpt lat="21.49556350708" lon="110.58641815186">
        <ele>0.0</ele>
        <time>2026-06-17T13:23:12</time>
      </trkpt>
      <trkpt lat="21.495344161987" lon="110.58654785156">
        <ele>0.0</ele>
        <time>2026-06-17T13:23:31</time>
      </trkpt>
      <trkpt lat="21.492504119873" lon="110.5883026123">
        <ele>0.0</ele>
        <time>2026-06-17T13:23:45</time>
      </trkpt>
      <trkpt lat="21.487243652344" lon="110.5915222168">
        <ele>68.58</ele>
        <time>2026-06-17T13:24:00</time>
      </trkpt>
      <trkpt lat="21.478271484375" lon="110.59711456299">
        <ele>68.58</ele>
        <time>2026-06-17T13:24:15</time>
      </trkpt>
      <trkpt lat="21.467750549316" lon="110.60388946533">
        <ele>205.74</ele>
        <time>2026-06-17T13:24:30</time>
      </trkpt>
      <trkpt lat="21.457990646362" lon="110.61019897461">
        <ele>441.96</ele>
        <time>2026-06-17T13:24:45</time>
      </trkpt>
      <trkpt lat="21.447599411011" lon="110.6164932251">
        <ele>571.5</ele>
        <time>2026-06-17T13:25:00</time>
      </trkpt>
      <trkpt lat="21.435653686523" lon="110.6238861084">
        <ele>655.32</ele>
        <time>2026-06-17T13:25:15</time>
      </trkpt>
      <trkpt lat="21.423160552979" lon="110.63157653809">
        <ele>784.86</ele>
        <time>2026-06-17T13:25:30</time>
      </trkpt>
      <trkpt lat="21.410209655762" lon="110.63960266113">
        <ele>914.4</ele>
        <time>2026-06-17T13:25:45</time>
      </trkpt>
      <trkpt lat="21.396570205688" lon="110.6488494873">
        <ele>1082.04</ele>
        <time>2026-06-17T13:26:00</time>
      </trkpt>
      <trkpt lat="21.386659622192" lon="110.66381072998">
        <ele>1264.92</ele>
        <time>2026-06-17T13:26:15</time>
      </trkpt>
      <trkpt lat="21.384380340576" lon="110.68190765381">
        <ele>1447.8</ele>
        <time>2026-06-17T13:26:30</time>
      </trkpt>
      <trkpt lat="21.390659332275" lon="110.7003326416">
        <ele>1615.44</ele>
        <time>2026-06-17T13:26:45</time>
      </trkpt>
      <trkpt lat="21.404670715332" lon="110.71391296387">
        <ele>1790.7</ele>
        <time>2026-06-17T13:27:00</time>
      </trkpt>
      <trkpt lat="21.422559738159" lon="110.72151184082">
        <ele>1882.14</ele>
        <time>2026-06-17T13:27:15</time>
      </trkpt>
      <trkpt lat="21.442007064819" lon="110.72840118408">
        <ele>2034.54</ele>
        <time>2026-06-17T13:27:30</time>
      </trkpt>
      <trkpt lat="21.461469650269" lon="110.73522186279">
        <ele>2194.56</ele>
        <time>2026-06-17T13:27:45</time>
      </trkpt>
      <trkpt lat="21.481250762939" lon="110.74234008789">
        <ele>2385.06</ele>
        <time>2026-06-17T13:28:00</time>
      </trkpt>
      <trkpt lat="21.501619338989" lon="110.74967956543">
        <ele>2560.32</ele>
        <time>2026-06-17T13:28:15</time>
      </trkpt>
      <trkpt lat="21.522169113159" lon="110.75714111328">
        <ele>2727.96</ele>
        <time>2026-06-17T13:28:30</time>
      </trkpt>
      <trkpt lat="21.542539596558" lon="110.76455688477">
        <ele>2918.46</ele>
        <time>2026-06-17T13:28:45</time>
      </trkpt>
      <trkpt lat="21.563140869141" lon="110.77198791504">
        <ele>3116.58</ele>
        <time>2026-06-17T13:29:00</time>
      </trkpt>
      <trkpt lat="21.583599090576" lon="110.77938842773">
        <ele>3284.22</ele>
        <time>2026-06-17T13:29:15</time>
      </trkpt>
      <trkpt lat="21.604290008545" lon="110.78893280029">
        <ele>3459.48</ele>
        <time>2026-06-17T13:29:30</time>
      </trkpt>
      <trkpt lat="21.623329162598" lon="110.79981231689">
        <ele>3649.98</ele>
        <time>2026-06-17T13:29:45</time>
      </trkpt>
      <trkpt lat="21.642879486084" lon="110.81089782715">
        <ele>3817.62</ele>
        <time>2026-06-17T13:30:00</time>
      </trkpt>
      <trkpt lat="21.661449432373" lon="110.82357025146">
        <ele>3985.26</ele>
        <time>2026-06-17T13:30:15</time>
      </trkpt>
      <trkpt lat="21.680450439453" lon="110.83679199219">
        <ele>4168.14</ele>
        <time>2026-06-17T13:30:30</time>
      </trkpt>
      <trkpt lat="21.699020385742" lon="110.84951019287">
        <ele>4328.16</ele>
        <time>2026-06-17T13:30:45</time>
      </trkpt>
      <trkpt lat="21.717910766602" lon="110.86389160156">
        <ele>4450.08</ele>
        <time>2026-06-17T13:31:00</time>
      </trkpt>
      <trkpt lat="21.734300613403" lon="110.88401031494">
        <ele>4579.62</ele>
        <time>2026-06-17T13:31:15</time>
      </trkpt>
      <trkpt lat="21.749500274658" lon="110.90389251709">
        <ele>4671.06</ele>
        <time>2026-06-17T13:31:30</time>
      </trkpt>
      <trkpt lat="21.76469039917" lon="110.92360687256">
        <ele>4831.08</ele>
        <time>2026-06-17T13:31:45</time>
      </trkpt>
      <trkpt lat="21.780532836914" lon="110.94403839111">
        <ele>5044.44</ele>
        <time>2026-06-17T13:32:00</time>
      </trkpt>
      <trkpt lat="21.795289993286" lon="110.96292877197">
        <ele>5181.6</ele>
        <time>2026-06-17T13:32:15</time>
      </trkpt>
      <trkpt lat="21.811065673828" lon="110.9829864502">
        <ele>5280.66</ele>
        <time>2026-06-17T13:32:30</time>
      </trkpt>
      <trkpt lat="21.826389312744" lon="111.00250244141">
        <ele>5433.06</ele>
        <time>2026-06-17T13:32:45</time>
      </trkpt>
      <trkpt lat="21.842729568481" lon="111.02320098877">
        <ele>5516.88</ele>
        <time>2026-06-17T13:33:00</time>
      </trkpt>
      <trkpt lat="21.861120223999" lon="111.04039764404">
        <ele>5615.94</ele>
        <time>2026-06-17T13:33:15</time>
      </trkpt>
      <trkpt lat="21.88392829895" lon="111.05153656006">
        <ele>5699.76</ele>
        <time>2026-06-17T13:33:30</time>
      </trkpt>
      <trkpt lat="21.907299041748" lon="111.06144714355">
        <ele>5699.76</ele>
        <time>2026-06-17T13:33:45</time>
      </trkpt>
      <trkpt lat="21.931129455566" lon="111.07137298584">
        <ele>5699.76</ele>
        <time>2026-06-17T13:34:00</time>
      </trkpt>
      <trkpt lat="21.956502914429" lon="111.07971191406">
        <ele>5699.76</ele>
        <time>2026-06-17T13:34:15</time>
      </trkpt>
      <trkpt lat="21.981994628906" lon="111.08501434326">
        <ele>5699.76</ele>
        <time>2026-06-17T13:34:30</time>
      </trkpt>
      <trkpt lat="22.008220672607" lon="111.08995056152">
        <ele>5707.38</ele>
        <time>2026-06-17T13:34:45</time>
      </trkpt>
      <trkpt lat="22.036479949951" lon="111.09517669678">
        <ele>5699.76</ele>
        <time>2026-06-17T13:35:00</time>
      </trkpt>
      <trkpt lat="22.063390731812" lon="111.10005950928">
        <ele>5707.38</ele>
        <time>2026-06-17T13:35:15</time>
      </trkpt>
      <trkpt lat="22.090440750122" lon="111.10478973389">
        <ele>5829.3</ele>
        <time>2026-06-17T13:35:30</time>
      </trkpt>
      <trkpt lat="22.116550445557" lon="111.10916137695">
        <ele>5981.7</ele>
        <time>2026-06-17T13:35:45</time>
      </trkpt>
      <trkpt lat="22.143539428711" lon="111.11347961426">
        <ele>6141.72</ele>
        <time>2026-06-17T13:36:00</time>
      </trkpt>
      <trkpt lat="22.17008972168" lon="111.11752319336">
        <ele>6301.74</ele>
        <time>2026-06-17T13:36:15</time>
      </trkpt>
      <trkpt lat="22.196014404297" lon="111.12467193604">
        <ele>6416.04</ele>
        <time>2026-06-17T13:36:30</time>
      </trkpt>
      <trkpt lat="22.218929290771" lon="111.13864135742">
        <ele>6568.44</ele>
        <time>2026-06-17T13:36:45</time>
      </trkpt>
      <trkpt lat="22.242010116577" lon="111.15406799316">
        <ele>6629.4</ele>
        <time>2026-06-17T13:37:00</time>
      </trkpt>
      <trkpt lat="22.264585494995" lon="111.16912841797">
        <ele>6736.08</ele>
        <time>2026-06-17T13:37:15</time>
      </trkpt>
      <trkpt lat="22.287860870361" lon="111.18444061279">
        <ele>6827.52</ele>
        <time>2026-06-17T13:37:30</time>
      </trkpt>
      <trkpt lat="22.310810089111" lon="111.19982147217">
        <ele>6926.58</ele>
        <time>2026-06-17T13:37:45</time>
      </trkpt>
      <trkpt lat="22.332969665527" lon="111.21658325195">
        <ele>7056.12</ele>
        <time>2026-06-17T13:38:00</time>
      </trkpt>
      <trkpt lat="22.351358413696" lon="111.23708343506">
        <ele>7185.66</ele>
        <time>2026-06-17T13:38:15</time>
      </trkpt>
      <trkpt lat="22.366399765015" lon="111.26123809814">
        <ele>7368.54</ele>
        <time>2026-06-17T13:38:30</time>
      </trkpt>
      <trkpt lat="22.380390167236" lon="111.28505706787">
        <ele>7444.74</ele>
        <time>2026-06-17T13:38:45</time>
      </trkpt>
      <trkpt lat="22.393859863281" lon="111.30824279785">
        <ele>7589.52</ele>
        <time>2026-06-17T13:39:00</time>
      </trkpt>
      <trkpt lat="22.407873153687" lon="111.33234405518">
        <ele>7703.82</ele>
        <time>2026-06-17T13:39:15</time>
      </trkpt>
      <trkpt lat="22.421539306641" lon="111.35587310791">
        <ele>7772.4</ele>
        <time>2026-06-17T13:39:30</time>
      </trkpt>
      <trkpt lat="22.435800552368" lon="111.38046264648">
        <ele>7856.22</ele>
        <time>2026-06-17T13:39:45</time>
      </trkpt>
      <trkpt lat="22.44972038269" lon="111.40437316895">
        <ele>7940.04</ele>
        <time>2026-06-17T13:40:00</time>
      </trkpt>
      <trkpt lat="22.463882446289" lon="111.42883300781">
        <ele>8016.24</ele>
        <time>2026-06-17T13:40:15</time>
      </trkpt>
      <trkpt lat="22.47793006897" lon="111.45308685303">
        <ele>8100.06</ele>
        <time>2026-06-17T13:40:30</time>
      </trkpt>
      <trkpt lat="22.492040634155" lon="111.47745513916">
        <ele>8214.36</ele>
        <time>2026-06-17T13:40:45</time>
      </trkpt>
      <trkpt lat="22.506225585938" lon="111.50199127197">
        <ele>8298.18</ele>
        <time>2026-06-17T13:41:00</time>
      </trkpt>
      <trkpt lat="22.520389556885" lon="111.52644348145">
        <ele>8343.9</ele>
        <time>2026-06-17T13:41:15</time>
      </trkpt>
      <trkpt lat="22.534469604492" lon="111.55093383789">
        <ele>8458.2</ele>
        <time>2026-06-17T13:41:30</time>
      </trkpt>
      <trkpt lat="22.548740386963" lon="111.57567596436">
        <ele>8542.02</ele>
        <time>2026-06-17T13:41:45</time>
      </trkpt>
      <trkpt lat="22.563583374023" lon="111.60137176514">
        <ele>8564.88</ele>
        <time>2026-06-17T13:42:00</time>
      </trkpt>
      <trkpt lat="22.578809738159" lon="111.62786102295">
        <ele>8580.12</ele>
        <time>2026-06-17T13:42:15</time>
      </trkpt>
      <trkpt lat="22.593700408936" lon="111.65370178223">
        <ele>8618.22</ele>
        <time>2026-06-17T13:42:29</time>
      </trkpt>
      <trkpt lat="22.608581542969" lon="111.67957305908">
        <ele>8663.94</ele>
        <time>2026-06-17T13:42:44</time>
      </trkpt>
      <trkpt lat="22.623876571655" lon="111.70613861084">
        <ele>8709.66</ele>
        <time>2026-06-17T13:42:59</time>
      </trkpt>
      <trkpt lat="22.638469696045" lon="111.73150634766">
        <ele>8755.38</ele>
        <time>2026-06-17T13:43:14</time>
      </trkpt>
      <trkpt lat="22.65353012085" lon="111.75771331787">
        <ele>8816.34</ele>
        <time>2026-06-17T13:43:29</time>
      </trkpt>
      <trkpt lat="22.668985366821" lon="111.78451538086">
        <ele>8869.68</ele>
        <time>2026-06-17T13:43:44</time>
      </trkpt>
      <trkpt lat="22.684299468994" lon="111.81111907959">
        <ele>8923.02</ele>
        <time>2026-06-17T13:43:59</time>
      </trkpt>
      <trkpt lat="22.69953918457" lon="111.83766937256">
        <ele>8976.36</ele>
        <time>2026-06-17T13:44:14</time>
      </trkpt>
      <trkpt lat="22.714920043945" lon="111.86444091797">
        <ele>9029.7</ele>
        <time>2026-06-17T13:44:29</time>
      </trkpt>
      <trkpt lat="22.730529785156" lon="111.89170837402">
        <ele>9083.04</ele>
        <time>2026-06-17T13:44:44</time>
      </trkpt>
      <trkpt lat="22.74570274353" lon="111.91818237305">
        <ele>9136.38</ele>
        <time>2026-06-17T13:44:59</time>
      </trkpt>
      <trkpt lat="22.761795043945" lon="111.94618988037">
        <ele>9189.72</ele>
        <time>2026-06-17T13:45:14</time>
      </trkpt>
      <trkpt lat="22.776947021484" lon="111.97270965576">
        <ele>9243.06</ele>
        <time>2026-06-17T13:45:29</time>
      </trkpt>
      <trkpt lat="22.792673110962" lon="112.00017547607">
        <ele>9304.02</ele>
        <time>2026-06-17T13:45:44</time>
      </trkpt>
      <trkpt lat="22.808080673218" lon="112.02713012695">
        <ele>9372.6</ele>
        <time>2026-06-17T13:45:59</time>
      </trkpt>
      <trkpt lat="22.82405090332" lon="112.05505371094">
        <ele>9433.56</ele>
        <time>2026-06-17T13:46:14</time>
      </trkpt>
      <trkpt lat="22.839784622192" lon="112.08261871338">
        <ele>9494.52</ele>
        <time>2026-06-17T13:46:29</time>
      </trkpt>
      <trkpt lat="22.855407714844" lon="112.10988616943">
        <ele>9555.48</ele>
        <time>2026-06-17T13:46:44</time>
      </trkpt>
      <trkpt lat="22.870742797852" lon="112.13678741455">
        <ele>9616.44</ele>
        <time>2026-06-17T13:46:59</time>
      </trkpt>
      <trkpt lat="22.886379241943" lon="112.1641998291">
        <ele>9677.4</ele>
        <time>2026-06-17T13:47:14</time>
      </trkpt>
      <trkpt lat="22.903930664062" lon="112.19497680664">
        <ele>9745.98</ele>
        <time>2026-06-17T13:47:29</time>
      </trkpt>
      <trkpt lat="22.918809890747" lon="112.22115325928">
        <ele>9814.56</ele>
        <time>2026-06-17T13:47:44</time>
      </trkpt>
      <trkpt lat="22.93489074707" lon="112.24950408936">
        <ele>9883.14</ele>
        <time>2026-06-17T13:47:59</time>
      </trkpt>
      <trkpt lat="22.95006942749" lon="112.27610015869">
        <ele>9951.72</ele>
        <time>2026-06-17T13:48:14</time>
      </trkpt>
      <trkpt lat="22.96549987793" lon="112.30323791504">
        <ele>10020.3</ele>
        <time>2026-06-17T13:48:29</time>
      </trkpt>
      <trkpt lat="22.981304168701" lon="112.33108520508">
        <ele>10081.26</ele>
        <time>2026-06-17T13:48:44</time>
      </trkpt>
      <trkpt lat="22.996429443359" lon="112.35774230957">
        <ele>10088.88</ele>
        <time>2026-06-17T13:48:59</time>
      </trkpt>
      <trkpt lat="23.012029647827" lon="112.38514709473">
        <ele>10088.88</ele>
        <time>2026-06-17T13:49:14</time>
      </trkpt>
      <trkpt lat="23.0280418396" lon="112.41338348389">
        <ele>10088.88</ele>
        <time>2026-06-17T13:49:29</time>
      </trkpt>
      <trkpt lat="23.042472839355" lon="112.44161224365">
        <ele>10088.88</ele>
        <time>2026-06-17T13:49:44</time>
      </trkpt>
      <trkpt lat="23.053600311279" lon="112.47212982178">
        <ele>10088.88</ele>
        <time>2026-06-17T13:49:59</time>
      </trkpt>
      <trkpt lat="23.060579299927" lon="112.5026473999">
        <ele>10096.5</ele>
        <time>2026-06-17T13:50:14</time>
      </trkpt>
      <trkpt lat="23.064971923828" lon="112.53500366211">
        <ele>10088.88</ele>
        <time>2026-06-17T13:50:29</time>
      </trkpt>
      <trkpt lat="23.072313308716" lon="112.56688690186">
        <ele>10088.88</ele>
        <time>2026-06-17T13:50:44</time>
      </trkpt>
      <trkpt lat="23.083671569824" lon="112.59699249268">
        <ele>10088.88</ele>
        <time>2026-06-17T13:50:59</time>
      </trkpt>
      <trkpt lat="23.096893310547" lon="112.62578582764">
        <ele>10088.88</ele>
        <time>2026-06-17T13:51:14</time>
      </trkpt>
      <trkpt lat="23.110794067383" lon="112.65590667725">
        <ele>10096.5</ele>
        <time>2026-06-17T13:51:29</time>
      </trkpt>
      <trkpt lat="23.123889923096" lon="112.68437194824">
        <ele>10088.88</ele>
        <time>2026-06-17T13:51:44</time>
      </trkpt>
      <trkpt lat="23.13720703125" lon="112.71347045898">
        <ele>10088.88</ele>
        <time>2026-06-17T13:51:59</time>
      </trkpt>
      <trkpt lat="23.151077270508" lon="112.74385070801">
        <ele>10088.88</ele>
        <time>2026-06-17T13:52:14</time>
      </trkpt>
      <trkpt lat="23.164215087891" lon="112.77291107178">
        <ele>10088.88</ele>
        <time>2026-06-17T13:52:29</time>
      </trkpt>
      <trkpt lat="23.177673339844" lon="112.80277252197">
        <ele>10096.5</ele>
        <time>2026-06-17T13:52:44</time>
      </trkpt>
      <trkpt lat="23.19083404541" lon="112.83208465576">
        <ele>10088.88</ele>
        <time>2026-06-17T13:52:59</time>
      </trkpt>
      <trkpt lat="23.203680038452" lon="112.86087036133">
        <ele>10088.88</ele>
        <time>2026-06-17T13:53:14</time>
      </trkpt>
      <trkpt lat="23.216857910156" lon="112.89041900635">
        <ele>10088.88</ele>
        <time>2026-06-17T13:53:29</time>
      </trkpt>
      <trkpt lat="23.230497360229" lon="112.92119598389">
        <ele>10088.88</ele>
        <time>2026-06-17T13:53:44</time>
      </trkpt>
      <trkpt lat="23.243320465088" lon="112.95024108887">
        <ele>10096.5</ele>
        <time>2026-06-17T13:53:59</time>
      </trkpt>
      <trkpt lat="23.25647354126" lon="112.98009490967">
        <ele>10096.5</ele>
        <time>2026-06-17T13:54:14</time>
      </trkpt>
      <trkpt lat="23.269369125366" lon="113.00939178467">
        <ele>10088.88</ele>
        <time>2026-06-17T13:54:29</time>
      </trkpt>
      <trkpt lat="23.282550811768" lon="113.03928375244">
        <ele>10088.88</ele>
        <time>2026-06-17T13:54:44</time>
      </trkpt>
      <trkpt lat="23.29571723938" lon="113.06920623779">
        <ele>10088.88</ele>
        <time>2026-06-17T13:54:59</time>
      </trkpt>
      <trkpt lat="23.308685302734" lon="113.09875488281">
        <ele>10088.88</ele>
        <time>2026-06-17T13:55:14</time>
      </trkpt>
      <trkpt lat="23.321460723877" lon="113.12789916992">
        <ele>10088.88</ele>
        <time>2026-06-17T13:55:29</time>
      </trkpt>
      <trkpt lat="23.331481933594" lon="113.15068817139">
        <ele>10088.88</ele>
        <time>2026-06-17T13:55:43</time>
      </trkpt>
      <trkpt lat="23.344299316406" lon="113.18000030518">
        <ele>10088.88</ele>
        <time>2026-06-17T13:55:58</time>
      </trkpt>
      <trkpt lat="23.357398986816" lon="113.20989227295">
        <ele>10088.88</ele>
        <time>2026-06-17T13:56:13</time>
      </trkpt>
      <trkpt lat="23.3701171875" lon="113.23902893066">
        <ele>10088.88</ele>
        <time>2026-06-17T13:56:28</time>
      </trkpt>
      <trkpt lat="23.383329391479" lon="113.26930236816">
        <ele>10088.88</ele>
        <time>2026-06-17T13:56:43</time>
      </trkpt>
      <trkpt lat="23.396026611328" lon="113.29835510254">
        <ele>10096.5</ele>
        <time>2026-06-17T13:56:58</time>
      </trkpt>
      <trkpt lat="23.408889770508" lon="113.3278427124">
        <ele>10088.88</ele>
        <time>2026-06-17T13:57:13</time>
      </trkpt>
      <trkpt lat="23.4221534729" lon="113.358253479">
        <ele>10088.88</ele>
        <time>2026-06-17T13:57:28</time>
      </trkpt>
      <trkpt lat="23.434982299805" lon="113.3876953125">
        <ele>10088.88</ele>
        <time>2026-06-17T13:57:43</time>
      </trkpt>
      <trkpt lat="23.448642730713" lon="113.419090271">
        <ele>10088.88</ele>
        <time>2026-06-17T13:57:58</time>
      </trkpt>
      <trkpt lat="23.461723327637" lon="113.44919586182">
        <ele>10088.88</ele>
        <time>2026-06-17T13:58:13</time>
      </trkpt>
      <trkpt lat="23.474618911743" lon="113.47890472412">
        <ele>10088.88</ele>
        <time>2026-06-17T13:58:28</time>
      </trkpt>
      <trkpt lat="23.487258911133" lon="113.5080947876">
        <ele>10088.88</ele>
        <time>2026-06-17T13:58:43</time>
      </trkpt>
      <trkpt lat="23.500314712524" lon="113.53805541992">
        <ele>10088.88</ele>
        <time>2026-06-17T13:58:58</time>
      </trkpt>
      <trkpt lat="23.513208389282" lon="113.56790924072">
        <ele>10088.88</ele>
        <time>2026-06-17T13:59:13</time>
      </trkpt>
      <trkpt lat="23.526662826538" lon="113.59893798828">
        <ele>10088.88</ele>
        <time>2026-06-17T13:59:27</time>
      </trkpt>
      <trkpt lat="23.539186477661" lon="113.62798309326">
        <ele>10088.88</ele>
        <time>2026-06-17T13:59:42</time>
      </trkpt>
      <trkpt lat="23.551750183105" lon="113.65704345703">
        <ele>10088.88</ele>
        <time>2026-06-17T13:59:57</time>
      </trkpt>
      <trkpt lat="23.564836502075" lon="113.68730163574">
        <ele>10088.88</ele>
        <time>2026-06-17T14:00:12</time>
      </trkpt>
      <trkpt lat="23.577779769897" lon="113.71720123291">
        <ele>10088.88</ele>
        <time>2026-06-17T14:00:27</time>
      </trkpt>
      <trkpt lat="23.590810775757" lon="113.74729919434">
        <ele>10088.88</ele>
        <time>2026-06-17T14:00:42</time>
      </trkpt>
      <trkpt lat="23.605270385742" lon="113.78092193604">
        <ele>10096.5</ele>
        <time>2026-06-17T14:01:02</time>
      </trkpt>
      <trkpt lat="23.618789672852" lon="113.81230163574">
        <ele>10096.5</ele>
        <time>2026-06-17T14:01:16</time>
      </trkpt>
      <trkpt lat="23.631317138672" lon="113.84134674072">
        <ele>10088.88</ele>
        <time>2026-06-17T14:01:31</time>
      </trkpt>
      <trkpt lat="23.644226074219" lon="113.87136077881">
        <ele>10088.88</ele>
        <time>2026-06-17T14:01:46</time>
      </trkpt>
      <trkpt lat="23.657180786133" lon="113.90146636963">
        <ele>10088.88</ele>
        <time>2026-06-17T14:02:01</time>
      </trkpt>
      <trkpt lat="23.6702709198" lon="113.93187713623">
        <ele>10088.88</ele>
        <time>2026-06-17T14:02:16</time>
      </trkpt>
      <trkpt lat="23.682939529419" lon="113.96133422852">
        <ele>10088.88</ele>
        <time>2026-06-17T14:02:31</time>
      </trkpt>
      <trkpt lat="23.695970535278" lon="113.99176025391">
        <ele>10088.88</ele>
        <time>2026-06-17T14:02:47</time>
      </trkpt>
      <trkpt lat="23.709320068359" lon="114.02282714844">
        <ele>10088.88</ele>
        <time>2026-06-17T14:03:01</time>
      </trkpt>
      <trkpt lat="23.722045898438" lon="114.05248260498">
        <ele>10088.88</ele>
        <time>2026-06-17T14:03:16</time>
      </trkpt>
      <trkpt lat="23.735870361328" lon="114.08483123779">
        <ele>10088.88</ele>
        <time>2026-06-17T14:03:31</time>
      </trkpt>
      <trkpt lat="23.749420166016" lon="114.11636352539">
        <ele>10088.88</ele>
        <time>2026-06-17T14:03:46</time>
      </trkpt>
      <trkpt lat="23.762470245361" lon="114.14692687988">
        <ele>10088.88</ele>
        <time>2026-06-17T14:04:01</time>
      </trkpt>
      <trkpt lat="23.775110244751" lon="114.17649841309">
        <ele>10096.5</ele>
        <time>2026-06-17T14:04:16</time>
      </trkpt>
      <trkpt lat="23.789590835571" lon="114.21034240723">
        <ele>10088.88</ele>
        <time>2026-06-17T14:04:36</time>
      </trkpt>
      <trkpt lat="23.803159713745" lon="114.24047088623">
        <ele>10088.88</ele>
        <time>2026-06-17T14:04:51</time>
      </trkpt>
      <trkpt lat="23.819799423218" lon="114.26853942871">
        <ele>10088.88</ele>
        <time>2026-06-17T14:05:06</time>
      </trkpt>
      <trkpt lat="23.839420318604" lon="114.29351806641">
        <ele>10088.88</ele>
        <time>2026-06-17T14:05:21</time>
      </trkpt>
      <trkpt lat="23.862260818481" lon="114.31565093994">
        <ele>10088.88</ele>
        <time>2026-06-17T14:05:36</time>
      </trkpt>
      <trkpt lat="23.887399673462" lon="114.33647918701">
        <ele>10096.5</ele>
        <time>2026-06-17T14:05:50</time>
      </trkpt>
      <trkpt lat="23.913480758667" lon="114.35791015625">
        <ele>10088.88</ele>
        <time>2026-06-17T14:06:05</time>
      </trkpt>
      <trkpt lat="23.941360473633" lon="114.38085174561">
        <ele>10096.5</ele>
        <time>2026-06-17T14:06:24</time>
      </trkpt>
      <trkpt lat="23.965713500977" lon="114.40093994141">
        <ele>10088.88</ele>
        <time>2026-06-17T14:06:39</time>
      </trkpt>
      <trkpt lat="23.990230560303" lon="114.42109680176">
        <ele>10088.88</ele>
        <time>2026-06-17T14:06:54</time>
      </trkpt>
      <trkpt lat="24.016067504883" lon="114.44239044189">
        <ele>10096.5</ele>
        <time>2026-06-17T14:07:09</time>
      </trkpt>
      <trkpt lat="24.040830612183" lon="114.46273803711">
        <ele>10088.88</ele>
        <time>2026-06-17T14:07:24</time>
      </trkpt>
      <trkpt lat="24.064640045166" lon="114.48232269287">
        <ele>10088.88</ele>
        <time>2026-06-17T14:07:39</time>
      </trkpt>
      <trkpt lat="24.089130401611" lon="114.50245666504">
        <ele>10088.88</ele>
        <time>2026-06-17T14:07:54</time>
      </trkpt>
      <trkpt lat="24.113620758057" lon="114.52265167236">
        <ele>10088.88</ele>
        <time>2026-06-17T14:08:08</time>
      </trkpt>
      <trkpt lat="24.14035987854" lon="114.54438781738">
        <ele>10088.88</ele>
        <time>2026-06-17T14:08:23</time>
      </trkpt>
      <trkpt lat="24.165130615234" lon="114.56429290771">
        <ele>10088.88</ele>
        <time>2026-06-17T14:08:38</time>
      </trkpt>
      <trkpt lat="24.19907951355" lon="114.59131622314">
        <ele>10088.88</ele>
        <time>2026-06-17T14:09:03</time>
      </trkpt>
      <trkpt lat="24.22633934021" lon="114.61315917969">
        <ele>10096.5</ele>
        <time>2026-06-17T14:09:18</time>
      </trkpt>
      <trkpt lat="24.250350952148" lon="114.63226318359">
        <ele>10088.88</ele>
        <time>2026-06-17T14:09:33</time>
      </trkpt>
      <trkpt lat="24.276168823242" lon="114.6527633667">
        <ele>10088.88</ele>
        <time>2026-06-17T14:09:48</time>
      </trkpt>
      <trkpt lat="24.299970626831" lon="114.6717300415">
        <ele>10088.88</ele>
        <time>2026-06-17T14:10:03</time>
      </trkpt>
      <trkpt lat="24.325918197632" lon="114.69249725342">
        <ele>10088.88</ele>
        <time>2026-06-17T14:10:18</time>
      </trkpt>
      <trkpt lat="24.349710464478" lon="114.71151733398">
        <ele>10088.88</ele>
        <time>2026-06-17T14:10:33</time>
      </trkpt>
      <trkpt lat="24.374954223633" lon="114.73169708252">
        <ele>10088.88</ele>
        <time>2026-06-17T14:10:47</time>
      </trkpt>
      <trkpt lat="24.399993896484" lon="114.75183868408">
        <ele>10088.88</ele>
        <time>2026-06-17T14:11:02</time>
      </trkpt>
      <trkpt lat="24.42586517334" lon="114.77261352539">
        <ele>10088.88</ele>
        <time>2026-06-17T14:11:17</time>
      </trkpt>
      <trkpt lat="24.45184135437" lon="114.79360198975">
        <ele>10088.88</ele>
        <time>2026-06-17T14:11:32</time>
      </trkpt>
      <trkpt lat="24.477212905884" lon="114.81407165527">
        <ele>10088.88</ele>
        <time>2026-06-17T14:11:47</time>
      </trkpt>
      <trkpt lat="24.501708984375" lon="114.83388519287">
        <ele>10088.88</ele>
        <time>2026-06-17T14:12:02</time>
      </trkpt>
      <trkpt lat="24.526605606079" lon="114.85402679443">
        <ele>10066.02</ele>
        <time>2026-06-17T14:12:17</time>
      </trkpt>
      <trkpt lat="24.550905227661" lon="114.87371826172">
        <ele>9959.34</ele>
        <time>2026-06-17T14:12:32</time>
      </trkpt>
      <trkpt lat="24.575624465942" lon="114.89388275146">
        <ele>9837.42</ele>
        <time>2026-06-17T14:12:47</time>
      </trkpt>
      <trkpt lat="24.599624633789" lon="114.91368865967">
        <ele>9715.5</ele>
        <time>2026-06-17T14:13:02</time>
      </trkpt>
      <trkpt lat="24.623199462891" lon="114.93305969238">
        <ele>9601.2</ele>
        <time>2026-06-17T14:13:17</time>
      </trkpt>
      <trkpt lat="24.653730392456" lon="114.95793914795">
        <ele>9456.42</ele>
        <time>2026-06-17T14:13:37</time>
      </trkpt>
      <trkpt lat="24.681716918945" lon="114.98062896729">
        <ele>9326.88</ele>
        <time>2026-06-17T14:13:57</time>
      </trkpt>
      <trkpt lat="24.705459594727" lon="114.99974822998">
        <ele>9212.58</ele>
        <time>2026-06-17T14:14:12</time>
      </trkpt>
      <trkpt lat="24.729991912842" lon="115.01928710938">
        <ele>9098.28</ele>
        <time>2026-06-17T14:14:27</time>
      </trkpt>
      <trkpt lat="24.755596160889" lon="115.03955078125">
        <ele>8976.36</ele>
        <time>2026-06-17T14:14:42</time>
      </trkpt>
      <trkpt lat="24.776824951172" lon="115.0563583374">
        <ele>8877.3</ele>
        <time>2026-06-17T14:14:56</time>
      </trkpt>
      <trkpt lat="24.802612304688" lon="115.07681274414">
        <ele>8755.38</ele>
        <time>2026-06-17T14:15:11</time>
      </trkpt>
      <trkpt lat="24.829010009766" lon="115.09780883789">
        <ele>8625.84</ele>
        <time>2026-06-17T14:15:26</time>
      </trkpt>
      <trkpt lat="24.853820800781" lon="115.11749267578">
        <ele>8511.54</ele>
        <time>2026-06-17T14:15:41</time>
      </trkpt>
      <trkpt lat="24.881607055664" lon="115.1393661499">
        <ele>8382.0</ele>
        <time>2026-06-17T14:16:01</time>
      </trkpt>
      <trkpt lat="24.907562255859" lon="115.15966033936">
        <ele>8260.08</ele>
        <time>2026-06-17T14:16:16</time>
      </trkpt>
      <trkpt lat="24.933517456055" lon="115.17974853516">
        <ele>8138.16</ele>
        <time>2026-06-17T14:16:31</time>
      </trkpt>
      <trkpt lat="24.957912445068" lon="115.19864654541">
        <ele>8023.86</ele>
        <time>2026-06-17T14:16:46</time>
      </trkpt>
      <trkpt lat="24.983505249023" lon="115.21845245361">
        <ele>7901.94</ele>
        <time>2026-06-17T14:17:01</time>
      </trkpt>
      <trkpt lat="25.008819580078" lon="115.23798370361">
        <ele>7787.64</ele>
        <time>2026-06-17T14:17:16</time>
      </trkpt>
      <trkpt lat="25.031604766846" lon="115.25565338135">
        <ele>7673.34</ele>
        <time>2026-06-17T14:17:31</time>
      </trkpt>
      <trkpt lat="25.055065155029" lon="115.27394104004">
        <ele>7559.04</ele>
        <time>2026-06-17T14:17:46</time>
      </trkpt>
      <trkpt lat="25.078948974609" lon="115.29256439209">
        <ele>7505.7</ele>
        <time>2026-06-17T14:18:01</time>
      </trkpt>
      <trkpt lat="25.102460861206" lon="115.31099700928">
        <ele>7498.08</ele>
        <time>2026-06-17T14:18:16</time>
      </trkpt>
      <trkpt lat="25.126476287842" lon="115.32981109619">
        <ele>7505.7</ele>
        <time>2026-06-17T14:18:31</time>
      </trkpt>
      <trkpt lat="25.149799346924" lon="115.34805297852">
        <ele>7498.08</ele>
        <time>2026-06-17T14:18:46</time>
      </trkpt>
      <trkpt lat="25.173770904541" lon="115.36681365967">
        <ele>7498.08</ele>
        <time>2026-06-17T14:19:01</time>
      </trkpt>
      <trkpt lat="25.199560165405" lon="115.38701629639">
        <ele>7498.08</ele>
        <time>2026-06-17T14:19:16</time>
      </trkpt>
      <trkpt lat="25.222639083862" lon="115.40516662598">
        <ele>7498.08</ele>
        <time>2026-06-17T14:19:31</time>
      </trkpt>
      <trkpt lat="25.245849609375" lon="115.42333221436">
        <ele>7498.08</ele>
        <time>2026-06-17T14:19:46</time>
      </trkpt>
      <trkpt lat="25.269739151001" lon="115.44188690186">
        <ele>7498.08</ele>
        <time>2026-06-17T14:20:01</time>
      </trkpt>
      <trkpt lat="25.296579360962" lon="115.46267700195">
        <ele>7498.08</ele>
        <time>2026-06-17T14:20:21</time>
      </trkpt>
      <trkpt lat="25.320129394531" lon="115.48091888428">
        <ele>7498.08</ele>
        <time>2026-06-17T14:20:36</time>
      </trkpt>
      <trkpt lat="25.346900939941" lon="115.50160217285">
        <ele>7498.08</ele>
        <time>2026-06-17T14:20:51</time>
      </trkpt>
      <trkpt lat="25.370729446411" lon="115.51992034912">
        <ele>7498.08</ele>
        <time>2026-06-17T14:21:06</time>
      </trkpt>
      <trkpt lat="25.395599365234" lon="115.53896331787">
        <ele>7498.08</ele>
        <time>2026-06-17T14:21:21</time>
      </trkpt>
      <trkpt lat="25.421449661255" lon="115.5587310791">
        <ele>7505.7</ele>
        <time>2026-06-17T14:21:41</time>
      </trkpt>
      <trkpt lat="25.445169448853" lon="115.57669067383">
        <ele>7498.08</ele>
        <time>2026-06-17T14:21:56</time>
      </trkpt>
      <trkpt lat="25.468450546265" lon="115.59436035156">
        <ele>7505.7</ele>
        <time>2026-06-17T14:22:11</time>
      </trkpt>
      <trkpt lat="25.492279052734" lon="115.61260223389">
        <ele>7498.08</ele>
        <time>2026-06-17T14:22:26</time>
      </trkpt>
      <trkpt lat="25.516069412231" lon="115.63089752197">
        <ele>7498.08</ele>
        <time>2026-06-17T14:22:41</time>
      </trkpt>
      <trkpt lat="25.539859771729" lon="115.64929199219">
        <ele>7498.08</ele>
        <time>2026-06-17T14:22:56</time>
      </trkpt>
      <trkpt lat="25.579330444336" lon="115.67819976807">
        <ele>7498.08</ele>
        <time>2026-06-17T14:23:19</time>
      </trkpt>
      <trkpt lat="25.604230880737" lon="115.69473266602">
        <ele>7498.08</ele>
        <time>2026-06-17T14:23:34</time>
      </trkpt>
      <trkpt lat="25.627529144287" lon="115.7091293335">
        <ele>7498.08</ele>
        <time>2026-06-17T14:23:49</time>
      </trkpt>
      <trkpt lat="25.657360076904" lon="115.72604370117">
        <ele>7498.08</ele>
        <time>2026-06-17T14:24:04</time>
      </trkpt>
      <trkpt lat="25.685480117798" lon="115.74050140381">
        <ele>7406.64</ele>
        <time>2026-06-17T14:24:19</time>
      </trkpt>
      <trkpt lat="25.711639404297" lon="115.75289154053">
        <ele>7284.72</ele>
        <time>2026-06-17T14:24:34</time>
      </trkpt>
      <trkpt lat="25.735610961914" lon="115.76397705078">
        <ele>7178.04</ele>
        <time>2026-06-17T14:24:48</time>
      </trkpt>
      <trkpt lat="25.772020339966" lon="115.78086853027">
        <ele>7010.4</ele>
        <time>2026-06-17T14:25:12</time>
      </trkpt>
      <trkpt lat="25.811140060425" lon="115.79889678955">
        <ele>6842.76</ele>
        <time>2026-06-17T14:25:32</time>
      </trkpt>
      <trkpt lat="25.840850830078" lon="115.81253051758">
        <ele>6705.6</ele>
        <time>2026-06-17T14:25:50</time>
      </trkpt>
      <trkpt lat="25.876100540161" lon="115.82875061035">
        <ele>6553.2</ele>
        <time>2026-06-17T14:26:08</time>
      </trkpt>
      <trkpt lat="25.903619766235" lon="115.8413772583">
        <ele>6423.66</ele>
        <time>2026-06-17T14:26:28</time>
      </trkpt>
      <trkpt lat="25.928510665894" lon="115.85279846191">
        <ele>6316.98</ele>
        <time>2026-06-17T14:26:43</time>
      </trkpt>
      <trkpt lat="25.954010009766" lon="115.86450958252">
        <ele>6195.06</ele>
        <time>2026-06-17T14:26:58</time>
      </trkpt>
      <trkpt lat="25.987060546875" lon="115.87969970703">
        <ele>6042.66</ele>
        <time>2026-06-17T14:27:19</time>
      </trkpt>
      <trkpt lat="26.405460357666" lon="116.07231903076">
        <ele>5090.16</ele>
        <time>2026-06-17T14:31:44</time>
      </trkpt>
      <trkpt lat="26.920852661133" lon="116.31484985352">
        <ele>5090.16</ele>
        <time>2026-06-17T14:37:06</time>
      </trkpt>
      <trkpt lat="27.145727157593" lon="116.48291778564">
        <ele>5090.16</ele>
        <time>2026-06-17T14:39:51</time>
      </trkpt>
      <trkpt lat="27.187019348145" lon="116.53277587891">
        <ele>5097.78</ele>
        <time>2026-06-17T14:40:23</time>
      </trkpt>
      <trkpt lat="27.206680297852" lon="116.55660247803">
        <ele>5090.16</ele>
        <time>2026-06-17T14:40:43</time>
      </trkpt>
      <trkpt lat="27.226261138916" lon="116.5799407959">
        <ele>5090.16</ele>
        <time>2026-06-17T14:40:57</time>
      </trkpt>
      <trkpt lat="27.243392944336" lon="116.59992218018">
        <ele>5090.16</ele>
        <time>2026-06-17T14:41:12</time>
      </trkpt>
      <trkpt lat="27.263946533203" lon="116.62375640869">
        <ele>5090.16</ele>
        <time>2026-06-17T14:41:32</time>
      </trkpt>
      <trkpt lat="27.285003662109" lon="116.64817047119">
        <ele>5090.16</ele>
        <time>2026-06-17T14:41:47</time>
      </trkpt>
      <trkpt lat="27.328720092773" lon="116.6987991333">
        <ele>5090.16</ele>
        <time>2026-06-17T14:42:23</time>
      </trkpt>
      <trkpt lat="27.376392364502" lon="116.75434875488">
        <ele>5090.16</ele>
        <time>2026-06-17T14:43:04</time>
      </trkpt>
      <trkpt lat="27.396240234375" lon="116.77751922607">
        <ele>5090.16</ele>
        <time>2026-06-17T14:43:19</time>
      </trkpt>
      <trkpt lat="27.421970367432" lon="116.80751800537">
        <ele>5090.16</ele>
        <time>2026-06-17T14:43:43</time>
      </trkpt>
      <trkpt lat="27.444309234619" lon="116.83367919922">
        <ele>5097.78</ele>
        <time>2026-06-17T14:44:01</time>
      </trkpt>
      <trkpt lat="27.459320068359" lon="116.85125732422">
        <ele>5090.16</ele>
        <time>2026-06-17T14:44:15</time>
      </trkpt>
      <trkpt lat="27.479780197144" lon="116.87515258789">
        <ele>5090.16</ele>
        <time>2026-06-17T14:44:30</time>
      </trkpt>
      <trkpt lat="27.495439529419" lon="116.89344024658">
        <ele>5090.16</ele>
        <time>2026-06-17T14:44:44</time>
      </trkpt>
      <trkpt lat="27.515625" lon="116.9171295166">
        <ele>5090.16</ele>
        <time>2026-06-17T14:45:02</time>
      </trkpt>
      <trkpt lat="27.551422119141" lon="116.95868682861">
        <ele>4975.86</ele>
        <time>2026-06-17T14:45:28</time>
      </trkpt>
      <trkpt lat="27.568559646606" lon="116.97840881348">
        <ele>4914.9</ele>
        <time>2026-06-17T14:45:43</time>
      </trkpt>
      <trkpt lat="27.584381103516" lon="116.99672698975">
        <ele>4861.56</ele>
        <time>2026-06-17T14:45:58</time>
      </trkpt>
      <trkpt lat="27.602005004883" lon="117.01703643799">
        <ele>4800.6</ele>
        <time>2026-06-17T14:46:13</time>
      </trkpt>
      <trkpt lat="27.624984741211" lon="117.04362487793">
        <ele>4724.4</ele>
        <time>2026-06-17T14:46:31</time>
      </trkpt>
      <trkpt lat="27.640670776367" lon="117.0618057251">
        <ele>4671.06</ele>
        <time>2026-06-17T14:46:46</time>
      </trkpt>
      <trkpt lat="27.657661437988" lon="117.08145904541">
        <ele>4610.1</ele>
        <time>2026-06-17T14:47:01</time>
      </trkpt>
      <trkpt lat="27.67561340332" lon="117.10228729248">
        <ele>4549.14</ele>
        <time>2026-06-17T14:47:16</time>
      </trkpt>
      <trkpt lat="27.696809768677" lon="117.12683105469">
        <ele>4480.56</ele>
        <time>2026-06-17T14:47:36</time>
      </trkpt>
      <trkpt lat="27.722351074219" lon="117.15649414062">
        <ele>4389.12</ele>
        <time>2026-06-17T14:47:56</time>
      </trkpt>
      <trkpt lat="27.739408493042" lon="117.17632293701">
        <ele>4328.16</ele>
        <time>2026-06-17T14:48:11</time>
      </trkpt>
      <trkpt lat="27.758148193359" lon="117.19805145264">
        <ele>4259.58</ele>
        <time>2026-06-17T14:48:26</time>
      </trkpt>
      <trkpt lat="27.775314331055" lon="117.21800231934">
        <ele>4198.62</ele>
        <time>2026-06-17T14:48:41</time>
      </trkpt>
      <trkpt lat="27.805435180664" lon="117.25303649902">
        <ele>4091.94</ele>
        <time>2026-06-17T14:49:05</time>
      </trkpt>
      <trkpt lat="27.827087402344" lon="117.278175354">
        <ele>4023.36</ele>
        <time>2026-06-17T14:49:24</time>
      </trkpt>
      <trkpt lat="27.845825195312" lon="117.30007171631">
        <ele>3954.78</ele>
        <time>2026-06-17T14:49:39</time>
      </trkpt>
      <trkpt lat="27.959133148193" lon="117.43221282959">
        <ele>3901.44</ele>
        <time>2026-06-17T14:51:16</time>
      </trkpt>
      <trkpt lat="27.985061645508" lon="117.46254730225">
        <ele>3901.44</ele>
        <time>2026-06-17T14:51:40</time>
      </trkpt>
      <trkpt lat="28.005826950073" lon="117.48682403564">
        <ele>3901.44</ele>
        <time>2026-06-17T14:51:55</time>
      </trkpt>
      <trkpt lat="28.152740478516" lon="117.65898132324">
        <ele>3901.44</ele>
        <time>2026-06-17T14:54:08</time>
      </trkpt>
      <trkpt lat="28.176544189453" lon="117.68697357178">
        <ele>3901.44</ele>
        <time>2026-06-17T14:54:28</time>
      </trkpt>
      <trkpt lat="28.354890823364" lon="117.95207214355">
        <ele>3901.44</ele>
        <time>2026-06-17T14:57:42</time>
      </trkpt>
      <trkpt lat="28.355159759521" lon="117.99137115479">
        <ele>3901.44</ele>
        <time>2026-06-17T14:58:06</time>
      </trkpt>
      <trkpt lat="28.355289459229" lon="118.01126098633">
        <ele>3901.44</ele>
        <time>2026-06-17T14:58:17</time>
      </trkpt>
      <trkpt lat="28.355480194092" lon="118.03205108643">
        <ele>3909.06</ele>
        <time>2026-06-17T14:58:28</time>
      </trkpt>
      <trkpt lat="28.355569839478" lon="118.04998016357">
        <ele>3909.06</ele>
        <time>2026-06-17T14:58:41</time>
      </trkpt>
      <trkpt lat="28.355850219727" lon="118.08522796631">
        <ele>3901.44</ele>
        <time>2026-06-17T14:58:59</time>
      </trkpt>
      <trkpt lat="28.356029510498" lon="118.10472106934">
        <ele>3901.44</ele>
        <time>2026-06-17T14:59:14</time>
      </trkpt>
      <trkpt lat="28.356409072876" lon="118.12822723389">
        <ele>3901.44</ele>
        <time>2026-06-17T14:59:28</time>
      </trkpt>
      <trkpt lat="28.356899261475" lon="118.15283966064">
        <ele>3901.44</ele>
        <time>2026-06-17T14:59:43</time>
      </trkpt>
      <trkpt lat="28.358039855957" lon="118.19866943359">
        <ele>3901.44</ele>
        <time>2026-06-17T15:00:06</time>
      </trkpt>
      <trkpt lat="28.359300613403" lon="118.24530792236">
        <ele>3901.44</ele>
        <time>2026-06-17T15:00:34</time>
      </trkpt>
      <trkpt lat="28.359949111938" lon="118.27191925049">
        <ele>3901.44</ele>
        <time>2026-06-17T15:00:48</time>
      </trkpt>
      <trkpt lat="28.360549926758" lon="118.29965209961">
        <ele>3901.44</ele>
        <time>2026-06-17T15:01:08</time>
      </trkpt>
      <trkpt lat="28.361110687256" lon="118.3249206543">
        <ele>3901.44</ele>
        <time>2026-06-17T15:01:22</time>
      </trkpt>
      <trkpt lat="28.361759185791" lon="118.35497283936">
        <ele>3901.44</ele>
        <time>2026-06-17T15:01:37</time>
      </trkpt>
      <trkpt lat="28.362459182739" lon="118.38555145264">
        <ele>3901.44</ele>
        <time>2026-06-17T15:01:57</time>
      </trkpt>
      <trkpt lat="28.363220214844" lon="118.41655731201">
        <ele>3901.44</ele>
        <time>2026-06-17T15:02:12</time>
      </trkpt>
      <trkpt lat="28.363859176636" lon="118.44332885742">
        <ele>3901.44</ele>
        <time>2026-06-17T15:02:29</time>
      </trkpt>
      <trkpt lat="28.364419937134" lon="118.4680480957">
        <ele>3901.44</ele>
        <time>2026-06-17T15:02:44</time>
      </trkpt>
      <trkpt lat="28.36642074585" lon="118.49675750732">
        <ele>3901.44</ele>
        <time>2026-06-17T15:02:59</time>
      </trkpt>
      <trkpt lat="28.374189376831" lon="118.52443695068">
        <ele>3863.34</ele>
        <time>2026-06-17T15:03:14</time>
      </trkpt>
      <trkpt lat="28.382350921631" lon="118.54914093018">
        <ele>3817.62</ele>
        <time>2026-06-17T15:03:29</time>
      </trkpt>
      <trkpt lat="28.39448928833" lon="118.57791900635">
        <ele>3756.66</ele>
        <time>2026-06-17T15:03:48</time>
      </trkpt>
      <trkpt lat="28.405469894409" lon="118.59799194336">
        <ele>3710.94</ele>
        <time>2026-06-17T15:04:03</time>
      </trkpt>
      <trkpt lat="28.421489715576" lon="118.61711883545">
        <ele>3665.22</ele>
        <time>2026-06-17T15:04:19</time>
      </trkpt>
      <trkpt lat="28.445140838623" lon="118.63883209229">
        <ele>3604.26</ele>
        <time>2026-06-17T15:04:37</time>
      </trkpt>
      <trkpt lat="28.459810256958" lon="118.65043640137">
        <ele>3566.16</ele>
        <time>2026-06-17T15:04:48</time>
      </trkpt>
      <trkpt lat="28.487970352173" lon="118.6707611084">
        <ele>3497.58</ele>
        <time>2026-06-17T15:05:12</time>
      </trkpt>
      <trkpt lat="28.5085105896" lon="118.6854095459">
        <ele>3444.24</ele>
        <time>2026-06-17T15:05:27</time>
      </trkpt>
      <trkpt lat="28.527420043945" lon="118.69882202148">
        <ele>3398.52</ele>
        <time>2026-06-17T15:05:42</time>
      </trkpt>
      <trkpt lat="28.541130065918" lon="118.7085723877">
        <ele>3360.42</ele>
        <time>2026-06-17T15:05:56</time>
      </trkpt>
      <trkpt lat="28.56010055542" lon="118.72206115723">
        <ele>3322.32</ele>
        <time>2026-06-17T15:06:11</time>
      </trkpt>
      <trkpt lat="28.593200683594" lon="118.74546051025">
        <ele>3291.84</ele>
        <time>2026-06-17T15:06:36</time>
      </trkpt>
      <trkpt lat="28.618330001831" lon="118.76320648193">
        <ele>3284.22</ele>
        <time>2026-06-17T15:06:55</time>
      </trkpt>
      <trkpt lat="28.635349273682" lon="118.77529144287">
        <ele>3230.88</ele>
        <time>2026-06-17T15:07:09</time>
      </trkpt>
      <trkpt lat="28.652160644531" lon="118.78713989258">
        <ele>3162.3</ele>
        <time>2026-06-17T15:07:24</time>
      </trkpt>
      <trkpt lat="28.844150543213" lon="118.9599609375">
        <ele>2461.26</ele>
        <time>2026-06-17T15:10:19</time>
      </trkpt>
      <trkpt lat="28.879350662231" lon="118.99857330322">
        <ele>2232.66</ele>
        <time>2026-06-17T15:10:56</time>
      </trkpt>
    </trkseg>
  </trk>
</gpx>